{"type": "FeatureCollection", "features": [{"type": "Feature", "properties": {"country": "Antigua", "pcode": "AG08", "name": "Saint Philip"}, "geometry": {"type": "MultiPolygon", "coordinates": [[[[-61.70680618286133, 17.107915878295955], [-61.70680618286133, 17.107360839843807], [-61.70652770996088, 17.107360839843807], [-61.70652770996088, 17.107084274291992], [-61.7059707641601, 17.107084274291992], [-61.7059707641601, 17.1068058013916], [-61.70513916015625, 17.1068058013916], [-61.70513916015625, 17.10652732849121], [-61.70458221435547, 17.10652732849121], [-61.70458221435547, 17.105972290039062], [-61.70402908325195, 17.105972290039062], [-61.70402908325195, 17.106250762939453], [-61.70375061035156, 17.106250762939453], [-61.70375061035156, 17.10652732849121], [-61.7006950378418, 17.10652732849121], [-61.7006950378418, 17.106250762939453], [-61.70013809204096, 17.106250762939453], [-61.70013809204096, 17.105972290039062], [-61.69985961914057, 17.105972290039062], [-61.69985961914057, 17.105693817138672], [-61.69958496093744, 17.105693817138672], [-61.69958496093744, 17.105417251586857], [-61.69985961914057, 17.105417251586857], [-61.69985961914057, 17.104860305786076], [-61.70264053344721, 17.104860305786076], [-61.70264053344721, 17.10458374023449], [-61.703193664550724, 17.10458374023449], [-61.703193664550724, 17.104305267334098], [-61.70347213745117, 17.104305267334098], [-61.70347213745117, 17.104028701782283], [-61.70486068725586, 17.104028701782283], [-61.70486068725586, 17.104305267334098], [-61.70513916015625, 17.104305267334098], [-61.70513916015625, 17.10458374023449], [-61.70541763305653, 17.10458374023449], [-61.70541763305653, 17.104860305786076], [-61.705696105956974, 17.104860305786076], [-61.705696105956974, 17.105417251586857], [-61.7059707641601, 17.105417251586857], [-61.7059707641601, 17.105972290039062], [-61.707359313964844, 17.105972290039062], [-61.707359313964844, 17.105693817138672], [-61.707637786865234, 17.105693817138672], [-61.707637786865234, 17.105417251586857], [-61.708194732666016, 17.105417251586857], [-61.708194732666016, 17.104860305786076], [-61.70875167846674, 17.104860305786076], [-61.70875167846674, 17.10458374023449], [-61.709304809570256, 17.10458374023449], [-61.709304809570256, 17.104860305786076], [-61.709583282470646, 17.104860305786076], [-61.709583282470646, 17.105417251586857], [-61.709304809570256, 17.105417251586857], [-61.709304809570256, 17.105972290039062], [-61.709583282470646, 17.105972290039062], [-61.709583282470646, 17.106250762939453], [-61.709861755371094, 17.106250762939453], [-61.709861755371094, 17.10652732849121], [-61.709583282470646, 17.10652732849121], [-61.709583282470646, 17.107084274291992], [-61.708194732666016, 17.107084274291992], [-61.708194732666016, 17.10763931274414], [-61.707916259765625, 17.10763931274414], [-61.707916259765625, 17.107915878295955], [-61.70680618286133, 17.107915878295955]]], [[[-61.74311065673828, 17.043470382690487], [-61.74319839477539, 17.043872833251896], [-61.74338912963867, 17.046148300171012], [-61.744083404541016, 17.049816131591797], [-61.74471664428711, 17.05379867553711], [-61.74585342407215, 17.059425354003906], [-61.74642181396479, 17.063533782958984], [-61.74653625488281, 17.064470291137695], [-61.7451286315918, 17.067230224609318], [-61.74392700195307, 17.069824218750057], [-61.74313735961914, 17.072130203247127], [-61.74252700805664, 17.074306488037166], [-61.742427825927734, 17.078250885009766], [-61.74207305908203, 17.080274581909237], [-61.74131393432617, 17.080730438232422], [-61.74060821533192, 17.08270263671875], [-61.73969650268555, 17.08497810363781], [-61.73949432373047, 17.086444854736328], [-61.73494338989258, 17.086141586303768], [-61.733932495117074, 17.0884685516358], [-61.73331832885742, 17.090139389038086], [-61.73319625854492, 17.090139389038086], [-61.73319625854492, 17.089860916137752], [-61.73291778564453, 17.089860916137752], [-61.73291778564453, 17.090139389038086], [-61.73263931274414, 17.090139389038086], [-61.73263931274414, 17.09069442749029], [-61.73236083984375, 17.09069442749029], [-61.73236083984375, 17.09124946594244], [-61.73208236694336, 17.09124946594244], [-61.73208236694336, 17.091529846191463], [-61.73180389404291, 17.091529846191463], [-61.73180389404291, 17.092082977295036], [-61.73152923583979, 17.092082977295036], [-61.73152923583979, 17.093194961547965], [-61.731250762939396, 17.093194961547965], [-61.731250762939396, 17.09347152709961], [-61.730972290039006, 17.09347152709961], [-61.730972290039006, 17.094028472900334], [-61.73069381713856, 17.094028472900334], [-61.73069381713856, 17.09430503845215], [-61.73041534423828, 17.09430503845215], [-61.73041534423828, 17.094860076904297], [-61.730140686035156, 17.094860076904297], [-61.730140686035156, 17.095417022705078], [-61.729862213134766, 17.095417022705078], [-61.729862213134766, 17.095693588256893], [-61.729583740234375, 17.095693588256893], [-61.729583740234375, 17.09597015380865], [-61.729305267333984, 17.09597015380865], [-61.729305267333984, 17.096250534057674], [-61.72819519042963, 17.096250534057674], [-61.72819519042963, 17.096527099609432], [-61.72708511352539, 17.096527099609432], [-61.72708511352539, 17.096250534057674], [-61.72624969482422, 17.096250534057674], [-61.72624969482422, 17.096805572509822], [-61.724582672119084, 17.096805572509822], [-61.724582672119084, 17.097082138061637], [-61.723472595214844, 17.097082138061637], [-61.723472595214844, 17.097360610962028], [-61.72236251831049, 17.097360610962028], [-61.72236251831049, 17.09763908386236], [-61.7220840454101, 17.09763908386236], [-61.7220840454101, 17.097917556762752], [-61.72152709960932, 17.097917556762752], [-61.72152709960932, 17.09819221496582], [-61.719581604003906, 17.09819221496582], [-61.719581604003906, 17.098474502563533], [-61.719306945800724, 17.098474502563533], [-61.719306945800724, 17.098749160766545], [-61.719028472900334, 17.098749160766545], [-61.719028472900334, 17.09930419921875], [-61.71736145019531, 17.09930419921875], [-61.71736145019531, 17.099027633666935], [-61.71708297729492, 17.099027633666935], [-61.71708297729492, 17.098474502563533], [-61.71652603149414, 17.098474502563533], [-61.71652603149414, 17.098749160766545], [-61.71569442749018, 17.098749160766545], [-61.71569442749018, 17.09986114501953], [-61.71458435058594, 17.09986114501953], [-61.71458435058594, 17.098474502563533], [-61.714862823486214, 17.098474502563533], [-61.714862823486214, 17.097917556762752], [-61.71541595458979, 17.097917556762752], [-61.71541595458979, 17.09763908386236], [-61.71680450439453, 17.09763908386236], [-61.71680450439453, 17.097360610962028], [-61.71708297729492, 17.097360610962028], [-61.71708297729492, 17.097082138061637], [-61.7176399230957, 17.097082138061637], [-61.7176399230957, 17.096805572509822], [-61.71819305419916, 17.096805572509822], [-61.71819305419916, 17.095693588256893], [-61.717918395996094, 17.095693588256893], [-61.717918395996094, 17.09430503845215], [-61.719306945800724, 17.09430503845215], [-61.719306945800724, 17.093748092651367], [-61.719028472900334, 17.093748092651367], [-61.719028472900334, 17.09347152709961], [-61.71874999999994, 17.09347152709961], [-61.71874999999994, 17.093194961547965], [-61.71847152709955, 17.093194961547965], [-61.71847152709955, 17.092916488647575], [-61.71736145019531, 17.092916488647575], [-61.71736145019531, 17.09347152709961], [-61.71708297729492, 17.09347152709961], [-61.71708297729492, 17.093748092651367], [-61.71680450439453, 17.093748092651367], [-61.71680450439453, 17.094028472900334], [-61.71652603149414, 17.094028472900334], [-61.71652603149414, 17.09430503845215], [-61.716251373291016, 17.09430503845215], [-61.716251373291016, 17.09458351135254], [-61.71569442749018, 17.09458351135254], [-61.71569442749018, 17.094860076904297], [-61.713748931884766, 17.094860076904297], [-61.713748931884766, 17.095138549804688], [-61.713470458984375, 17.095138549804688], [-61.713470458984375, 17.095693588256893], [-61.71319580078125, 17.095693588256893], [-61.71319580078125, 17.09597015380865], [-61.7129173278808, 17.09597015380865], [-61.7129173278808, 17.096527099609432], [-61.71263885498041, 17.096527099609432], [-61.71263885498041, 17.096805572509822], [-61.71236038208002, 17.096805572509822], [-61.71236038208002, 17.097082138061637], [-61.71208190917963, 17.097082138061637], [-61.71208190917963, 17.097360610962028], [-61.71180725097645, 17.097360610962028], [-61.71180725097645, 17.09763908386236], [-61.71125030517578, 17.09763908386236], [-61.71125030517578, 17.097082138061637], [-61.71097183227539, 17.097082138061637], [-61.71097183227539, 17.096250534057674], [-61.71125030517578, 17.096250534057674], [-61.71125030517578, 17.095138549804688], [-61.71152877807617, 17.095138549804688], [-61.71152877807617, 17.094028472900334], [-61.71180725097645, 17.094028472900334], [-61.71180725097645, 17.093194961547965], [-61.71208190917963, 17.093194961547965], [-61.71208190917963, 17.092639923095817], [-61.71097183227539, 17.092639923095817], [-61.71097183227539, 17.093194961547965], [-61.710693359375, 17.093194961547965], [-61.710693359375, 17.094860076904297], [-61.71097183227539, 17.094860076904297], [-61.71097183227539, 17.095693588256893], [-61.710693359375, 17.095693588256893], [-61.710693359375, 17.096250534057674], [-61.71041488647461, 17.096250534057674], [-61.71041488647461, 17.096805572509822], [-61.710140228271484, 17.096805572509822], [-61.710140228271484, 17.097082138061637], [-61.709026336669865, 17.097082138061637], [-61.709026336669865, 17.096527099609432], [-61.70875167846674, 17.096527099609432], [-61.70875167846674, 17.095417022705078], [-61.707916259765625, 17.095417022705078], [-61.707916259765625, 17.096250534057674], [-61.70708465576172, 17.096250534057674], [-61.70708465576172, 17.09597015380865], [-61.70680618286133, 17.09597015380865], [-61.70680618286133, 17.095417022705078], [-61.70652770996088, 17.095417022705078], [-61.70652770996088, 17.096250534057674], [-61.70624923706049, 17.096250534057674], [-61.70624923706049, 17.096527099609432], [-61.70652770996088, 17.096527099609432], [-61.70652770996088, 17.096805572509822], [-61.70680618286133, 17.096805572509822], [-61.70680618286133, 17.097082138061637], [-61.70708465576172, 17.097082138061637], [-61.70708465576172, 17.09763908386236], [-61.707359313964844, 17.09763908386236], [-61.707359313964844, 17.097917556762752], [-61.707637786865234, 17.097917556762752], [-61.707637786865234, 17.09819221496582], [-61.70847320556629, 17.09819221496582], [-61.70847320556629, 17.098749160766545], [-61.705696105956974, 17.098749160766545], [-61.705696105956974, 17.09819221496582], [-61.70402908325195, 17.09819221496582], [-61.70402908325195, 17.098474502563533], [-61.70375061035156, 17.098474502563533], [-61.70375061035156, 17.098749160766545], [-61.703193664550724, 17.098749160766545], [-61.703193664550724, 17.099027633666935], [-61.702915191650334, 17.099027633666935], [-61.702915191650334, 17.09930419921875], [-61.70264053344721, 17.09930419921875], [-61.70264053344721, 17.099584579467887], [-61.703193664550724, 17.099584579467887], [-61.703193664550724, 17.09930419921875], [-61.70347213745117, 17.09930419921875], [-61.70347213745117, 17.099027633666935], [-61.70430374145508, 17.099027633666935], [-61.70430374145508, 17.09930419921875], [-61.70486068725586, 17.09930419921875], [-61.70486068725586, 17.099027633666935], [-61.705696105956974, 17.099027633666935], [-61.705696105956974, 17.100139617919865], [-61.70541763305653, 17.100139617919865], [-61.70541763305653, 17.100696563720646], [-61.705696105956974, 17.100696563720646], [-61.705696105956974, 17.100414276123104], [-61.70708465576172, 17.100414276123104], [-61.70708465576172, 17.10097312927246], [-61.707359313964844, 17.10097312927246], [-61.707359313964844, 17.100696563720646], [-61.708194732666016, 17.100696563720646], [-61.708194732666016, 17.10124969482422], [-61.70847320556629, 17.10124969482422], [-61.70847320556629, 17.101806640625], [-61.708194732666016, 17.101806640625], [-61.708194732666016, 17.102083206176815], [-61.707916259765625, 17.102083206176815], [-61.707916259765625, 17.102361679077205], [-61.707359313964844, 17.102361679077205], [-61.707359313964844, 17.102083206176815], [-61.70680618286133, 17.102083206176815], [-61.70680618286133, 17.101806640625], [-61.70652770996088, 17.101806640625], [-61.70652770996088, 17.102638244628963], [-61.70680618286133, 17.102638244628963], [-61.70680618286133, 17.102916717529354], [-61.70708465576172, 17.102916717529354], [-61.70708465576172, 17.103195190429744], [-61.707359313964844, 17.103195190429744], [-61.707359313964844, 17.104028701782283], [-61.70652770996088, 17.104028701782283], [-61.70652770996088, 17.10375022888195], [-61.7059707641601, 17.10375022888195], [-61.7059707641601, 17.10347175598156], [-61.70541763305653, 17.10347175598156], [-61.70541763305653, 17.103195190429744], [-61.70513916015625, 17.103195190429744], [-61.70513916015625, 17.102916717529354], [-61.70486068725586, 17.102916717529354], [-61.70486068725586, 17.102638244628963], [-61.70458221435547, 17.102638244628963], [-61.70458221435547, 17.102083206176815], [-61.70430374145508, 17.102083206176815], [-61.70430374145508, 17.10152816772461], [-61.703193664550724, 17.10152816772461], [-61.703193664550724, 17.102083206176815], [-61.702915191650334, 17.102083206176815], [-61.702915191650334, 17.102638244628963], [-61.70347213745117, 17.102638244628963], [-61.70347213745117, 17.102916717529354], [-61.70375061035156, 17.102916717529354], [-61.70375061035156, 17.103195190429744], [-61.70402908325195, 17.103195190429744], [-61.70402908325195, 17.10347175598156], [-61.702915191650334, 17.10347175598156], [-61.702915191650334, 17.10375022888195], [-61.70236206054682, 17.10375022888195], [-61.70236206054682, 17.104028701782283], [-61.7015266418457, 17.104028701782283], [-61.7015266418457, 17.10375022888195], [-61.70124816894531, 17.10375022888195], [-61.70124816894531, 17.10347175598156], [-61.70097351074219, 17.10347175598156], [-61.70097351074219, 17.103195190429744], [-61.7006950378418, 17.103195190429744], [-61.7006950378418, 17.102638244628963], [-61.700416564941406, 17.102638244628963], [-61.700416564941406, 17.102916717529354], [-61.70013809204096, 17.102916717529354], [-61.70013809204096, 17.103195190429744], [-61.69985961914057, 17.103195190429744], [-61.69985961914057, 17.10347175598156], [-61.69958496093744, 17.10347175598156], [-61.69958496093744, 17.104028701782283], [-61.69847106933594, 17.104028701782283], [-61.69847106933594, 17.10375022888195], [-61.69736099243164, 17.10375022888195], [-61.69736099243164, 17.10347175598156], [-61.69708251953125, 17.10347175598156], [-61.69708251953125, 17.102083206176815], [-61.6968040466308, 17.102083206176815], [-61.6968040466308, 17.10152816772461], [-61.695972442626896, 17.10152816772461], [-61.695972442626896, 17.101806640625], [-61.69569396972645, 17.101806640625], [-61.69569396972645, 17.102083206176815], [-61.694583892822266, 17.102083206176815], [-61.694583892822266, 17.10097312927246], [-61.694862365722656, 17.10097312927246], [-61.694862365722656, 17.100414276123104], [-61.69513702392578, 17.100414276123104], [-61.69513702392578, 17.099027633666935], [-61.694862365722656, 17.099027633666935], [-61.694862365722656, 17.098749160766545], [-61.694583892822266, 17.098749160766545], [-61.694583892822266, 17.099027633666935], [-61.694026947021484, 17.099027633666935], [-61.694026947021484, 17.099584579467887], [-61.694305419921875, 17.099584579467887], [-61.694305419921875, 17.100414276123104], [-61.694026947021484, 17.100414276123104], [-61.694026947021484, 17.10097312927246], [-61.692359924316406, 17.10097312927246], [-61.692359924316406, 17.100696563720646], [-61.69180679321289, 17.100696563720646], [-61.69180679321289, 17.100414276123104], [-61.6915283203125, 17.100414276123104], [-61.6915283203125, 17.100139617919865], [-61.69124984741211, 17.100139617919865], [-61.69124984741211, 17.09986114501953], [-61.69097137451172, 17.09986114501953], [-61.69097137451172, 17.099584579467887], [-61.69069290161133, 17.099584579467887], [-61.69069290161133, 17.09930419921875], [-61.689861297607365, 17.09930419921875], [-61.689861297607365, 17.098749160766545], [-61.68930435180653, 17.098749160766545], [-61.68930435180653, 17.09930419921875], [-61.68902587890625, 17.09930419921875], [-61.68902587890625, 17.09986114501953], [-61.688751220703125, 17.09986114501953], [-61.688751220703125, 17.100139617919865], [-61.688472747802734, 17.100139617919865], [-61.688472747802734, 17.100414276123104], [-61.688194274902344, 17.100414276123104], [-61.688194274902344, 17.100696563720646], [-61.68791580200195, 17.100696563720646], [-61.68791580200195, 17.10097312927246], [-61.68763732910156, 17.10097312927246], [-61.68763732910156, 17.10124969482422], [-61.68708419799799, 17.10124969482422], [-61.68708419799799, 17.101806640625], [-61.6868057250976, 17.101806640625], [-61.6868057250976, 17.102083206176815], [-61.68652725219721, 17.102083206176815], [-61.68652725219721, 17.102638244628963], [-61.68569564819336, 17.102638244628963], [-61.68569564819336, 17.102361679077205], [-61.68541717529297, 17.102361679077205], [-61.68541717529297, 17.101806640625], [-61.68513870239258, 17.101806640625], [-61.68513870239258, 17.102083206176815], [-61.68486022949219, 17.102083206176815], [-61.68486022949219, 17.102638244628963], [-61.684307098388615, 17.102638244628963], [-61.684307098388615, 17.102916717529354], [-61.683750152587834, 17.102916717529354], [-61.683750152587834, 17.102361679077205], [-61.68319320678705, 17.102361679077205], [-61.68319320678705, 17.102916717529354], [-61.68208312988281, 17.102916717529354], [-61.68208312988281, 17.102638244628963], [-61.681251525878906, 17.102638244628963], [-61.681251525878906, 17.102361679077205], [-61.68069458007807, 17.102361679077205], [-61.68069458007807, 17.102083206176815], [-61.68041610717768, 17.102083206176815], [-61.68041610717768, 17.10152816772461], [-61.68069458007807, 17.10152816772461], [-61.68069458007807, 17.10124969482422], [-61.68097305297846, 17.10124969482422], [-61.68097305297846, 17.10097312927246], [-61.681251525878906, 17.10097312927246], [-61.681251525878906, 17.100696563720646], [-61.68180465698242, 17.100696563720646], [-61.68180465698242, 17.100414276123104], [-61.68319320678705, 17.100414276123104], [-61.68319320678705, 17.100139617919865], [-61.68347167968744, 17.100139617919865], [-61.68347167968744, 17.09986114501953], [-61.683750152587834, 17.09986114501953], [-61.683750152587834, 17.099584579467887], [-61.684028625488224, 17.099584579467887], [-61.684028625488224, 17.09930419921875], [-61.68486022949219, 17.09930419921875], [-61.68486022949219, 17.099027633666935], [-61.68597412109375, 17.099027633666935], [-61.68597412109375, 17.098749160766545], [-61.68652725219721, 17.098749160766545], [-61.68652725219721, 17.098474502563533], [-61.6868057250976, 17.098474502563533], [-61.6868057250976, 17.09819221496582], [-61.68736267089838, 17.09819221496582], [-61.68736267089838, 17.097360610962028], [-61.68763732910156, 17.097360610962028], [-61.68763732910156, 17.096805572509822], [-61.68708419799799, 17.096805572509822], [-61.68708419799799, 17.097082138061637], [-61.6868057250976, 17.097082138061637], [-61.6868057250976, 17.097360610962028], [-61.68652725219721, 17.097360610962028], [-61.68652725219721, 17.097917556762752], [-61.68597412109375, 17.097917556762752], [-61.68597412109375, 17.09819221496582], [-61.68513870239258, 17.09819221496582], [-61.68513870239258, 17.09763908386236], [-61.68486022949219, 17.09763908386236], [-61.68486022949219, 17.097917556762752], [-61.6845817565918, 17.097917556762752], [-61.6845817565918, 17.09819221496582], [-61.684307098388615, 17.09819221496582], [-61.684307098388615, 17.098749160766545], [-61.68319320678705, 17.098749160766545], [-61.68319320678705, 17.09819221496582], [-61.682918548583984, 17.09819221496582], [-61.682918548583984, 17.09763908386236], [-61.682640075683594, 17.09763908386236], [-61.682640075683594, 17.097917556762752], [-61.6823616027832, 17.097917556762752], [-61.6823616027832, 17.098474502563533], [-61.68208312988281, 17.098474502563533], [-61.68208312988281, 17.099027633666935], [-61.68180465698242, 17.099027633666935], [-61.68180465698242, 17.09930419921875], [-61.681251525878906, 17.09930419921875], [-61.681251525878906, 17.09986114501953], [-61.68013763427729, 17.09986114501953], [-61.68013763427729, 17.100139617919865], [-61.679862976074105, 17.100139617919865], [-61.679862976074105, 17.100414276123104], [-61.67958450317383, 17.100414276123104], [-61.67958450317383, 17.100696563720646], [-61.679862976074105, 17.100696563720646], [-61.679862976074105, 17.101806640625], [-61.67958450317383, 17.101806640625], [-61.67958450317383, 17.102083206176815], [-61.67736053466791, 17.102083206176815], [-61.67736053466791, 17.100414276123104], [-61.6776390075683, 17.100414276123104], [-61.6776390075683, 17.09930419921875], [-61.67791748046869, 17.09930419921875], [-61.67791748046869, 17.099027633666935], [-61.678470611572266, 17.099027633666935], [-61.678470611572266, 17.098749160766545], [-61.67819595336914, 17.098749160766545], [-61.67819595336914, 17.097917556762752], [-61.678470611572266, 17.097917556762752], [-61.678470611572266, 17.09763908386236], [-61.67958450317383, 17.09763908386236], [-61.67958450317383, 17.097917556762752], [-61.679862976074105, 17.097917556762752], [-61.679862976074105, 17.097082138061637], [-61.67958450317383, 17.097082138061637], [-61.67958450317383, 17.096527099609432], [-61.679862976074105, 17.096527099609432], [-61.679862976074105, 17.09597015380865], [-61.68013763427729, 17.09597015380865], [-61.68013763427729, 17.095693588256893], [-61.68097305297846, 17.095693588256893], [-61.68097305297846, 17.095417022705078], [-61.68069458007807, 17.095417022705078], [-61.68069458007807, 17.09458351135254], [-61.68319320678705, 17.09458351135254], [-61.68319320678705, 17.09430503845215], [-61.68347167968744, 17.09430503845215], [-61.68347167968744, 17.094028472900334], [-61.68541717529297, 17.094028472900334], [-61.68541717529297, 17.09347152709961], [-61.68569564819336, 17.09347152709961], [-61.68569564819336, 17.092916488647575], [-61.68541717529297, 17.092916488647575], [-61.68541717529297, 17.092639923095817], [-61.68513870239258, 17.092639923095817], [-61.68513870239258, 17.092361450195426], [-61.683750152587834, 17.092361450195426], [-61.683750152587834, 17.092916488647575], [-61.68319320678705, 17.092916488647575], [-61.68319320678705, 17.093194961547965], [-61.6823616027832, 17.093194961547965], [-61.6823616027832, 17.092916488647575], [-61.68208312988281, 17.092916488647575], [-61.68208312988281, 17.08958244323736], [-61.6823616027832, 17.08958244323736], [-61.6823616027832, 17.089307785034123], [-61.68319320678705, 17.089307785034123], [-61.68319320678705, 17.089027404785156], [-61.68347167968744, 17.089027404785156], [-61.68347167968744, 17.088472366333008], [-61.683750152587834, 17.088472366333008], [-61.683750152587834, 17.08736038208002], [-61.684028625488224, 17.08736038208002], [-61.684028625488224, 17.08708572387701], [-61.684307098388615, 17.08708572387701], [-61.684307098388615, 17.084863662719727], [-61.684028625488224, 17.084863662719727], [-61.684028625488224, 17.084581375122184], [-61.683750152587834, 17.084581375122184], [-61.683750152587834, 17.08430480957037], [-61.68347167968744, 17.08430480957037], [-61.68347167968744, 17.084028244018555], [-61.682918548583984, 17.084028244018555], [-61.682918548583984, 17.082916259765625], [-61.68347167968744, 17.082916259765625], [-61.68347167968744, 17.082359313964844], [-61.68597412109375, 17.082359313964844], [-61.68597412109375, 17.08263969421381], [-61.68624877929676, 17.08263969421381], [-61.68624877929676, 17.082916259765625], [-61.68652725219721, 17.082916259765625], [-61.68652725219721, 17.083194732666016], [-61.6868057250976, 17.083194732666016], [-61.6868057250976, 17.08347129821783], [-61.68791580200195, 17.08347129821783], [-61.68791580200195, 17.083749771118164], [-61.688194274902344, 17.083749771118164], [-61.688194274902344, 17.08347129821783], [-61.688472747802734, 17.08347129821783], [-61.688472747802734, 17.083194732666016], [-61.688751220703125, 17.083194732666016], [-61.688751220703125, 17.082916259765625], [-61.68902587890625, 17.082916259765625], [-61.68902587890625, 17.08263969421381], [-61.690418243408146, 17.08263969421381], [-61.690418243408146, 17.08347129821783], [-61.690139770507756, 17.08347129821783], [-61.690139770507756, 17.083749771118164], [-61.689861297607365, 17.083749771118164], [-61.689861297607365, 17.084581375122184], [-61.689582824706974, 17.084581375122184], [-61.689582824706974, 17.08513832092291], [-61.69124984741211, 17.08513832092291], [-61.69124984741211, 17.086526870727653], [-61.69097137451172, 17.086526870727653], [-61.69097137451172, 17.087917327880803], [-61.69124984741211, 17.087917327880803], [-61.69124984741211, 17.088195800781364], [-61.6915283203125, 17.088195800781364], [-61.6915283203125, 17.088472366333008], [-61.69180679321289, 17.088472366333008], [-61.69180679321289, 17.089027404785156], [-61.692081451416016, 17.089027404785156], [-61.692081451416016, 17.089307785034123], [-61.692359924316406, 17.089307785034123], [-61.692359924316406, 17.088195800781364], [-61.69263839721668, 17.088195800781364], [-61.69263839721668, 17.086803436279297], [-61.69291687011713, 17.086803436279297], [-61.69291687011713, 17.085693359375114], [-61.69263839721668, 17.085693359375114], [-61.69263839721668, 17.08513832092291], [-61.692359924316406, 17.08513832092291], [-61.692359924316406, 17.08263969421381], [-61.69374847412104, 17.08263969421381], [-61.69374847412104, 17.083194732666016], [-61.694862365722656, 17.083194732666016], [-61.694862365722656, 17.082916259765625], [-61.69513702392578, 17.082916259765625], [-61.69513702392578, 17.082082748413086], [-61.69541549682617, 17.082082748413086], [-61.69541549682617, 17.08152770996088], [-61.69569396972645, 17.08152770996088], [-61.69569396972645, 17.08124923706049], [-61.69625091552729, 17.08124923706049], [-61.69625091552729, 17.080972671508903], [-61.69652938842768, 17.080972671508903], [-61.69652938842768, 17.080694198608512], [-61.6968040466308, 17.080694198608512], [-61.6968040466308, 17.08041572570812], [-61.69708251953125, 17.08041572570812], [-61.69708251953125, 17.080139160156307], [-61.69791793823242, 17.080139160156307], [-61.69791793823242, 17.080694198608512], [-61.69847106933594, 17.080694198608512], [-61.69847106933594, 17.080972671508903], [-61.69985961914057, 17.080972671508903], [-61.69985961914057, 17.080694198608512], [-61.700416564941406, 17.080694198608512], [-61.700416564941406, 17.08041572570812], [-61.7015266418457, 17.08041572570812], [-61.7015266418457, 17.080139160156307], [-61.70208358764637, 17.080139160156307], [-61.70208358764637, 17.07958412170416], [-61.70347213745117, 17.07958412170416], [-61.70347213745117, 17.079860687255973], [-61.70375061035156, 17.079860687255973], [-61.70375061035156, 17.080139160156307], [-61.70430374145508, 17.080139160156307], [-61.70430374145508, 17.079860687255973], [-61.70402908325195, 17.079860687255973], [-61.70402908325195, 17.079305648803768], [-61.70375061035156, 17.079305648803768], [-61.70375061035156, 17.079027175903377], [-61.702915191650334, 17.079027175903377], [-61.702915191650334, 17.07875061035162], [-61.70264053344721, 17.07875061035162], [-61.70264053344721, 17.07847213745123], [-61.702915191650334, 17.07847213745123], [-61.702915191650334, 17.078193664550838], [-61.70430374145508, 17.078193664550838], [-61.70430374145508, 17.077362060546875], [-61.70402908325195, 17.077362060546875], [-61.70402908325195, 17.077638626098633], [-61.703193664550724, 17.077638626098633], [-61.703193664550724, 17.077362060546875], [-61.70264053344721, 17.077362060546875], [-61.70264053344721, 17.075971603393555], [-61.703193664550724, 17.075971603393555], [-61.703193664550724, 17.07541656494152], [-61.70347213745117, 17.07541656494152], [-61.70347213745117, 17.07513809204096], [-61.70402908325195, 17.07513809204096], [-61.70402908325195, 17.07486152648937], [-61.70430374145508, 17.07486152648937], [-61.70430374145508, 17.074306488037166], [-61.70513916015625, 17.074306488037166], [-61.70513916015625, 17.074028015136776], [-61.70541763305653, 17.074028015136776], [-61.70541763305653, 17.073749542236385], [-61.705696105956974, 17.073749542236385], [-61.705696105956974, 17.073474884033203], [-61.70652770996088, 17.073474884033203], [-61.70652770996088, 17.07319259643566], [-61.70708465576172, 17.07319259643566], [-61.70708465576172, 17.07291412353527], [-61.707359313964844, 17.07291412353527], [-61.707359313964844, 17.07263946533203], [-61.707916259765625, 17.07263946533203], [-61.707916259765625, 17.072362899780273], [-61.708194732666016, 17.072362899780273], [-61.708194732666016, 17.072082519531307], [-61.70847320556629, 17.072082519531307], [-61.70847320556629, 17.0715274810791], [-61.70875167846674, 17.0715274810791], [-61.70875167846674, 17.07125282287609], [-61.709026336669865, 17.07125282287609], [-61.709026336669865, 17.070692062377987], [-61.710140228271484, 17.070692062377987], [-61.710140228271484, 17.07125282287609], [-61.71097183227539, 17.07125282287609], [-61.71097183227539, 17.0715274810791], [-61.71180725097645, 17.0715274810791], [-61.71180725097645, 17.0709743499757], [-61.71208190917963, 17.0709743499757], [-61.71208190917963, 17.070692062377987], [-61.71236038208002, 17.070692062377987], [-61.71236038208002, 17.06930541992199], [-61.71208190917963, 17.06930541992199], [-61.71208190917963, 17.069026947021598], [-61.71180725097645, 17.069026947021598], [-61.71180725097645, 17.06875038146984], [-61.71152877807617, 17.06875038146984], [-61.71152877807617, 17.06847190856945], [-61.710693359375, 17.06847190856945], [-61.710693359375, 17.06875038146984], [-61.71041488647461, 17.06875038146984], [-61.71041488647461, 17.069026947021598], [-61.709861755371094, 17.069026947021598], [-61.709861755371094, 17.06930541992199], [-61.709583282470646, 17.06930541992199], [-61.709583282470646, 17.06958389282238], [-61.709304809570256, 17.06958389282238], [-61.709304809570256, 17.069860458373967], [-61.70847320556629, 17.069860458373967], [-61.70847320556629, 17.070138931274357], [-61.708194732666016, 17.070138931274357], [-61.708194732666016, 17.070417404174748], [-61.707916259765625, 17.070417404174748], [-61.707916259765625, 17.070692062377987], [-61.707637786865234, 17.070692062377987], [-61.707637786865234, 17.0709743499757], [-61.70680618286133, 17.0709743499757], [-61.70680618286133, 17.07125282287609], [-61.70624923706049, 17.07125282287609], [-61.70624923706049, 17.0715274810791], [-61.7059707641601, 17.0715274810791], [-61.7059707641601, 17.071804046630916], [-61.70541763305653, 17.071804046630916], [-61.70541763305653, 17.072082519531307], [-61.70513916015625, 17.072082519531307], [-61.70513916015625, 17.07291412353527], [-61.70458221435547, 17.07291412353527], [-61.70458221435547, 17.07319259643566], [-61.70430374145508, 17.07319259643566], [-61.70430374145508, 17.073474884033203], [-61.70347213745117, 17.073474884033203], [-61.70347213745117, 17.073749542236385], [-61.703193664550724, 17.073749542236385], [-61.703193664550724, 17.074028015136776], [-61.702915191650334, 17.074028015136776], [-61.702915191650334, 17.07458305358898], [-61.70236206054682, 17.07458305358898], [-61.70236206054682, 17.07486152648937], [-61.7015266418457, 17.07486152648937], [-61.7015266418457, 17.07513809204096], [-61.70013809204096, 17.07513809204096], [-61.70013809204096, 17.07486152648937], [-61.69958496093744, 17.07486152648937], [-61.69958496093744, 17.074306488037166], [-61.69874954223633, 17.074306488037166], [-61.69874954223633, 17.07319259643566], [-61.69847106933594, 17.07319259643566], [-61.69847106933594, 17.072082519531307], [-61.69874954223633, 17.072082519531307], [-61.69874954223633, 17.071804046630916], [-61.69930648803705, 17.071804046630916], [-61.69930648803705, 17.07125282287609], [-61.699028015136605, 17.07125282287609], [-61.699028015136605, 17.0709743499757], [-61.69791793823242, 17.0709743499757], [-61.69791793823242, 17.070692062377987], [-61.69736099243164, 17.070692062377987], [-61.69736099243164, 17.070417404174748], [-61.69708251953125, 17.070417404174748], [-61.69708251953125, 17.069860458373967], [-61.69625091552729, 17.069860458373967], [-61.69625091552729, 17.067916870117244], [-61.695972442626896, 17.067916870117244], [-61.695972442626896, 17.068195343017635], [-61.69569396972645, 17.068195343017635], [-61.69569396972645, 17.06847190856945], [-61.694862365722656, 17.06847190856945], [-61.694862365722656, 17.069026947021598], [-61.694583892822266, 17.069026947021598], [-61.694583892822266, 17.06930541992199], [-61.69374847412104, 17.06930541992199], [-61.69374847412104, 17.06958389282238], [-61.692359924316406, 17.06958389282238], [-61.692359924316406, 17.06930541992199], [-61.692081451416016, 17.06930541992199], [-61.692081451416016, 17.06875038146984], [-61.69180679321289, 17.06875038146984], [-61.69180679321289, 17.068195343017635], [-61.692081451416016, 17.068195343017635], [-61.692081451416016, 17.067361831665096], [-61.692359924316406, 17.067361831665096], [-61.692359924316406, 17.066804885864315], [-61.692081451416016, 17.066804885864315], [-61.692081451416016, 17.0665283203125], [-61.69180679321289, 17.0665283203125], [-61.69180679321289, 17.06624984741211], [-61.689861297607365, 17.06624984741211], [-61.689861297607365, 17.0665283203125], [-61.689582824706974, 17.0665283203125], [-61.689582824706974, 17.066804885864315], [-61.68902587890625, 17.066804885864315], [-61.68902587890625, 17.067083358764705], [-61.688751220703125, 17.067083358764705], [-61.688751220703125, 17.067361831665096], [-61.688472747802734, 17.067361831665096], [-61.688472747802734, 17.067638397216854], [-61.68791580200195, 17.067638397216854], [-61.68791580200195, 17.067916870117244], [-61.68708419799799, 17.067916870117244], [-61.68708419799799, 17.067638397216854], [-61.68652725219721, 17.067638397216854], [-61.68652725219721, 17.06875038146984], [-61.68624877929676, 17.06875038146984], [-61.68624877929676, 17.069026947021598], [-61.68541717529297, 17.069026947021598], [-61.68541717529297, 17.06875038146984], [-61.68486022949219, 17.06875038146984], [-61.68486022949219, 17.06847190856945], [-61.6845817565918, 17.06847190856945], [-61.6845817565918, 17.068195343017635], [-61.68319320678705, 17.068195343017635], [-61.68319320678705, 17.06875038146984], [-61.682918548583984, 17.06875038146984], [-61.682918548583984, 17.069026947021598], [-61.682640075683594, 17.069026947021598], [-61.682640075683594, 17.06958389282238], [-61.68097305297846, 17.06958389282238], [-61.68097305297846, 17.070138931274357], [-61.68069458007807, 17.070138931274357], [-61.68069458007807, 17.07125282287609], [-61.68041610717768, 17.07125282287609], [-61.68041610717768, 17.0715274810791], [-61.68013763427729, 17.0715274810791], [-61.68013763427729, 17.072082519531307], [-61.678749084472656, 17.072082519531307], [-61.678749084472656, 17.071804046630916], [-61.678470611572266, 17.071804046630916], [-61.678470611572266, 17.0715274810791], [-61.67791748046869, 17.0715274810791], [-61.67791748046869, 17.070417404174748], [-61.6776390075683, 17.070417404174748], [-61.6776390075683, 17.069026947021598], [-61.67791748046869, 17.069026947021598], [-61.67791748046869, 17.06875038146984], [-61.67819595336914, 17.06875038146984], [-61.67819595336914, 17.06847190856945], [-61.678470611572266, 17.06847190856945], [-61.678470611572266, 17.068195343017635], [-61.67902755737305, 17.068195343017635], [-61.67902755737305, 17.067361831665096], [-61.678749084472656, 17.067361831665096], [-61.678749084472656, 17.067083358764705], [-61.678470611572266, 17.067083358764705], [-61.678470611572266, 17.067361831665096], [-61.67708206176752, 17.067361831665096], [-61.67708206176752, 17.067083358764705], [-61.67652893066406, 17.067083358764705], [-61.67652893066406, 17.066804885864315], [-61.67625045776367, 17.066804885864315], [-61.67625045776367, 17.0665283203125], [-61.67597198486328, 17.0665283203125], [-61.67597198486328, 17.065971374511776], [-61.67736053466791, 17.065971374511776], [-61.67736053466791, 17.06569480895996], [-61.67819595336914, 17.06569480895996], [-61.67819595336914, 17.06541633605957], [-61.678749084472656, 17.06541633605957], [-61.678749084472656, 17.065139770507756], [-61.67930603027344, 17.065139770507756], [-61.67930603027344, 17.064861297607422], [-61.67819595336914, 17.064861297607422], [-61.67819595336914, 17.06458282470703], [-61.6776390075683, 17.06458282470703], [-61.6776390075683, 17.063749313354435], [-61.67736053466791, 17.063749313354435], [-61.67736053466791, 17.06236076354992], [-61.67708206176752, 17.06236076354992], [-61.67708206176752, 17.062084197998104], [-61.67652893066406, 17.062084197998104], [-61.67652893066406, 17.06180763244629], [-61.67458343505854, 17.06180763244629], [-61.67458343505854, 17.062084197998104], [-61.672916412353516, 17.062084197998104], [-61.672916412353516, 17.06180763244629], [-61.672637939453125, 17.06180763244629], [-61.672637939453125, 17.061527252197322], [-61.672359466552734, 17.061527252197322], [-61.672359466552734, 17.060972213745174], [-61.672916412353516, 17.060972213745174], [-61.672916412353516, 17.06069564819336], [-61.67375183105463, 17.06069564819336], [-61.67375183105463, 17.06041717529297], [-61.674026489257756, 17.06041717529297], [-61.674026489257756, 17.060138702392578], [-61.67597198486328, 17.060138702392578], [-61.67597198486328, 17.06041717529297], [-61.67625045776367, 17.06041717529297], [-61.67625045776367, 17.06069564819336], [-61.67708206176752, 17.06069564819336], [-61.67708206176752, 17.059585571289176], [-61.6776390075683, 17.059585571289176], [-61.6776390075683, 17.059303283691463], [-61.67791748046869, 17.059303283691463], [-61.67791748046869, 17.05819320678711], [-61.6776390075683, 17.05819320678711], [-61.6776390075683, 17.057916641235465], [-61.67708206176752, 17.057916641235465], [-61.67708206176752, 17.057638168334904], [-61.67680740356434, 17.057638168334904], [-61.67680740356434, 17.057081222534123], [-61.67708206176752, 17.057081222534123], [-61.67708206176752, 17.05652809143072], [-61.67736053466791, 17.05652809143072], [-61.67736053466791, 17.05624961853033], [-61.6776390075683, 17.05624961853033], [-61.6776390075683, 17.055694580078182], [-61.67736053466791, 17.055694580078182], [-61.67736053466791, 17.05541610717779], [-61.67708206176752, 17.05541610717779], [-61.67708206176752, 17.05485916137701], [-61.67680740356434, 17.05485916137701], [-61.67680740356434, 17.054582595825252], [-61.67652893066406, 17.054582595825252], [-61.67652893066406, 17.054306030273438], [-61.67597198486328, 17.054306030273438], [-61.67597198486328, 17.054027557373047], [-61.674304962158146, 17.054027557373047], [-61.674304962158146, 17.053749084472656], [-61.674026489257756, 17.053749084472656], [-61.674026489257756, 17.0534725189209], [-61.67347335815418, 17.0534725189209], [-61.67347335815418, 17.052637100219727], [-61.67375183105463, 17.052637100219727], [-61.67375183105463, 17.052360534667912], [-61.674304962158146, 17.052360534667912], [-61.674304962158146, 17.052083969116325], [-61.67458343505854, 17.052083969116325], [-61.67458343505854, 17.051805496215934], [-61.675140380859375, 17.051805496215934], [-61.675140380859375, 17.05152893066412], [-61.6754150390625, 17.05152893066412], [-61.6754150390625, 17.050971984863395], [-61.67569351196289, 17.050971984863395], [-61.67569351196289, 17.050693511963004], [-61.6754150390625, 17.050693511963004], [-61.6754150390625, 17.049306869506836], [-61.67597198486328, 17.049306869506836], [-61.67597198486328, 17.049028396606445], [-61.67680740356434, 17.049028396606445], [-61.67680740356434, 17.048749923706055], [-61.67708206176752, 17.048749923706055], [-61.67708206176752, 17.04847145080572], [-61.67736053466791, 17.04847145080572], [-61.67736053466791, 17.047916412353516], [-61.6776390075683, 17.047916412353516], [-61.6776390075683, 17.047361373901367], [-61.67680740356434, 17.047361373901367], [-61.67680740356434, 17.047084808349723], [-61.67597198486328, 17.047084808349723], [-61.67597198486328, 17.046806335449332], [-61.675140380859375, 17.046806335449332], [-61.675140380859375, 17.04624938964838], [-61.674304962158146, 17.04624938964838], [-61.674304962158146, 17.046806335449332], [-61.67375183105463, 17.046806335449332], [-61.67375183105463, 17.047361373901367], [-61.672916412353516, 17.047361373901367], [-61.672916412353516, 17.04624938964838], [-61.673194885253906, 17.04624938964838], [-61.673194885253906, 17.045692443847656], [-61.67347335815418, 17.045692443847656], [-61.67347335815418, 17.045415878296012], [-61.67375183105463, 17.045415878296012], [-61.67375183105463, 17.045139312744197], [-61.674026489257756, 17.045139312744197], [-61.674026489257756, 17.044860839843864], [-61.674304962158146, 17.044860839843864], [-61.674304962158146, 17.044582366943473], [-61.67458343505854, 17.044582366943473], [-61.67458343505854, 17.04430580139166], [-61.675140380859375, 17.04430580139166], [-61.675140380859375, 17.044027328491268], [-61.6754150390625, 17.044027328491268], [-61.6754150390625, 17.043752670288086], [-61.67597198486328, 17.043752670288086], [-61.67597198486328, 17.043470382690487], [-61.67652893066406, 17.043470382690487], [-61.67652893066406, 17.04319381713873], [-61.67680740356434, 17.04319381713873], [-61.67680740356434, 17.042917251586914], [-61.67708206176752, 17.042917251586914], [-61.67708206176752, 17.042638778686523], [-61.67736053466791, 17.042638778686523], [-61.67736053466791, 17.042083740234375], [-61.6776390075683, 17.042083740234375], [-61.6776390075683, 17.041805267333984], [-61.678470611572266, 17.041805267333984], [-61.678470611572266, 17.04319381713873], [-61.67819595336914, 17.04319381713873], [-61.67819595336914, 17.044027328491268], [-61.678470611572266, 17.044027328491268], [-61.678470611572266, 17.04430580139166], [-61.67902755737305, 17.04430580139166], [-61.67902755737305, 17.044582366943473], [-61.67958450317383, 17.044582366943473], [-61.67958450317383, 17.044860839843864], [-61.679862976074105, 17.044860839843864], [-61.679862976074105, 17.045139312744197], [-61.68041610717768, 17.045139312744197], [-61.68041610717768, 17.045415878296012], [-61.68208312988281, 17.045415878296012], [-61.68208312988281, 17.044582366943473], [-61.6823616027832, 17.044582366943473], [-61.6823616027832, 17.044027328491268], [-61.682640075683594, 17.044027328491268], [-61.682640075683594, 17.043752670288086], [-61.6823616027832, 17.043752670288086], [-61.6823616027832, 17.043470382690487], [-61.682918548583984, 17.043470382690487], [-61.682918548583984, 17.04125022888178], [-61.682640075683594, 17.04125022888178], [-61.682640075683594, 17.040971755981445], [-61.6823616027832, 17.040971755981445], [-61.6823616027832, 17.0406951904298], [-61.682918548583984, 17.0406951904298], [-61.682918548583984, 17.04013824462885], [-61.68319320678705, 17.04013824462885], [-61.68319320678705, 17.039861679077262], [-61.683750152587834, 17.039861679077262], [-61.683750152587834, 17.03958320617687], [-61.684307098388615, 17.03958320617687], [-61.684307098388615, 17.03930473327648], [-61.6845817565918, 17.03930473327648], [-61.6845817565918, 17.038749694824276], [-61.68541717529297, 17.038749694824276], [-61.68541717529297, 17.03930473327648], [-61.68597412109375, 17.03930473327648], [-61.68597412109375, 17.039861679077262], [-61.68624877929676, 17.039861679077262], [-61.68624877929676, 17.03958320617687], [-61.6868057250976, 17.03958320617687], [-61.6868057250976, 17.039861679077262], [-61.68736267089838, 17.039861679077262], [-61.68736267089838, 17.03958320617687], [-61.68763732910156, 17.03958320617687], [-61.68763732910156, 17.039028167724666], [-61.688194274902344, 17.039028167724666], [-61.688194274902344, 17.03930473327648], [-61.688751220703125, 17.03930473327648], [-61.688751220703125, 17.039028167724666], [-61.68902587890625, 17.039028167724666], [-61.68902587890625, 17.037361145019588], [-61.68930435180653, 17.037361145019588], [-61.68930435180653, 17.036527633666992], [-61.68902587890625, 17.036527633666992], [-61.68902587890625, 17.035972595214844], [-61.688472747802734, 17.035972595214844], [-61.688472747802734, 17.035694122314453], [-61.688194274902344, 17.035694122314453], [-61.688194274902344, 17.03541755676264], [-61.6868057250976, 17.03541755676264], [-61.6868057250976, 17.035694122314453], [-61.68652725219721, 17.035694122314453], [-61.68652725219721, 17.035972595214844], [-61.68597412109375, 17.035972595214844], [-61.68597412109375, 17.0362491607666], [-61.68541717529297, 17.0362491607666], [-61.68541717529297, 17.035694122314453], [-61.6845817565918, 17.035694122314453], [-61.6845817565918, 17.03541755676264], [-61.684307098388615, 17.03541755676264], [-61.684307098388615, 17.034025192260742], [-61.68486022949219, 17.034025192260742], [-61.68486022949219, 17.03347206115734], [-61.68513870239258, 17.03347206115734], [-61.68513870239258, 17.032917022705135], [-61.68541717529297, 17.032917022705135], [-61.68541717529297, 17.032638549804744], [-61.68597412109375, 17.032638549804744], [-61.68597412109375, 17.032917022705135], [-61.68708419799799, 17.032917022705135], [-61.68708419799799, 17.033195495605526], [-61.68902587890625, 17.033195495605526], [-61.68902587890625, 17.032917022705135], [-61.68930435180653, 17.032917022705135], [-61.68930435180653, 17.032638549804744], [-61.689582824706974, 17.032638549804744], [-61.689582824706974, 17.032363891601562], [-61.690418243408146, 17.032363891601562], [-61.690418243408146, 17.032917022705135], [-61.69069290161133, 17.032917022705135], [-61.69069290161133, 17.033195495605526], [-61.69097137451172, 17.033195495605526], [-61.69097137451172, 17.03347206115734], [-61.6915283203125, 17.03347206115734], [-61.6915283203125, 17.032363891601562], [-61.69097137451172, 17.032363891601562], [-61.69097137451172, 17.032085418701172], [-61.69069290161133, 17.032085418701172], [-61.69069290161133, 17.03180313110363], [-61.690418243408146, 17.03180313110363], [-61.690418243408146, 17.030693054199276], [-61.69069290161133, 17.030693054199276], [-61.69069290161133, 17.03041648864746], [-61.69097137451172, 17.03041648864746], [-61.69097137451172, 17.03013801574707], [-61.69124984741211, 17.03013801574707], [-61.69124984741211, 17.029861450195312], [-61.692081451416016, 17.029861450195312], [-61.692081451416016, 17.03013801574707], [-61.69263839721668, 17.03013801574707], [-61.69263839721668, 17.030693054199276], [-61.694026947021484, 17.030693054199276], [-61.694026947021484, 17.030971527099666], [-61.694862365722656, 17.030971527099666], [-61.694862365722656, 17.03125], [-61.69791793823242, 17.03125], [-61.69791793823242, 17.03152847290039], [-61.699028015136605, 17.03152847290039], [-61.699028015136605, 17.03180313110363], [-61.70236206054682, 17.03180313110363], [-61.70236206054682, 17.03152847290039], [-61.708194732666016, 17.03152847290039], [-61.708194732666016, 17.03125], [-61.70847320556629, 17.03125], [-61.70847320556629, 17.030971527099666], [-61.710693359375, 17.030971527099666], [-61.710693359375, 17.03125], [-61.71125030517578, 17.03125], [-61.71125030517578, 17.03152847290039], [-61.71208190917963, 17.03152847290039], [-61.71208190917963, 17.03180313110363], [-61.713470458984375, 17.03180313110363], [-61.713470458984375, 17.032085418701172], [-61.71430587768555, 17.032085418701172], [-61.71430587768555, 17.032363891601562], [-61.715137481689396, 17.032363891601562], [-61.715137481689396, 17.032638549804744], [-61.71569442749018, 17.032638549804744], [-61.71569442749018, 17.032917022705135], [-61.716251373291016, 17.032917022705135], [-61.716251373291016, 17.033195495605526], [-61.71708297729492, 17.033195495605526], [-61.71708297729492, 17.03347206115734], [-61.7176399230957, 17.03347206115734], [-61.7176399230957, 17.03375053405773], [-61.717918395996094, 17.03375053405773], [-61.717918395996094, 17.034025192260742], [-61.71847152709955, 17.034025192260742], [-61.71847152709955, 17.03430557250988], [-61.71874999999994, 17.03430557250988], [-61.71874999999994, 17.034585952758846], [-61.719306945800724, 17.034585952758846], [-61.719306945800724, 17.034860610961857], [-61.719581604003906, 17.034860610961857], [-61.719581604003906, 17.035139083862248], [-61.7198600769043, 17.035139083862248], [-61.7198600769043, 17.03541755676264], [-61.72041702270508, 17.03541755676264], [-61.72041702270508, 17.035694122314453], [-61.72097396850586, 17.035694122314453], [-61.72097396850586, 17.035972595214844], [-61.72152709960932, 17.035972595214844], [-61.72152709960932, 17.0362491607666], [-61.7220840454101, 17.0362491607666], [-61.7220840454101, 17.036527633666992], [-61.72236251831049, 17.036527633666992], [-61.72236251831049, 17.036806106567383], [-61.72291564941406, 17.036806106567383], [-61.72291564941406, 17.037082672119197], [-61.723472595214844, 17.037082672119197], [-61.723472595214844, 17.037361145019588], [-61.724029541015625, 17.037361145019588], [-61.724029541015625, 17.037639617919922], [-61.724304199218636, 17.037639617919922], [-61.724304199218636, 17.037916183471737], [-61.725139617919865, 17.037916183471737], [-61.725139617919865, 17.038194656372127], [-61.725418090820256, 17.038194656372127], [-61.725418090820256, 17.038473129272518], [-61.72597122192383, 17.038473129272518], [-61.72597122192383, 17.038749694824276], [-61.726806640625, 17.038749694824276], [-61.726806640625, 17.039028167724666], [-61.727359771728516, 17.039028167724666], [-61.727359771728516, 17.03930473327648], [-61.72763824462879, 17.03930473327648], [-61.72763824462879, 17.039028167724666], [-61.72791671752924, 17.039028167724666], [-61.72791671752924, 17.03930473327648], [-61.72819519042963, 17.03930473327648], [-61.72819519042963, 17.03958320617687], [-61.72847366333002, 17.03958320617687], [-61.72847366333002, 17.04013824462885], [-61.728748321533146, 17.04013824462885], [-61.728748321533146, 17.04041671752941], [-61.729583740234375, 17.04041671752941], [-61.729583740234375, 17.0406951904298], [-61.731250762939396, 17.0406951904298], [-61.731250762939396, 17.04152870178217], [-61.73152923583979, 17.04152870178217], [-61.73152923583979, 17.041805267333984], [-61.73180389404291, 17.041805267333984], [-61.73180389404291, 17.042083740234375], [-61.73236083984375, 17.042083740234375], [-61.73236083984375, 17.042360305786133], [-61.73319625854492, 17.042360305786133], [-61.73319625854492, 17.042638778686523], [-61.73458480834955, 17.042638778686523], [-61.73458480834955, 17.042917251586914], [-61.735416412353516, 17.042917251586914], [-61.735416412353516, 17.04319381713873], [-61.73625183105469, 17.04319381713873], [-61.73625183105469, 17.043470382690487], [-61.73764038085932, 17.043470382690487], [-61.73764038085932, 17.04319381713873], [-61.738193511962834, 17.04319381713873], [-61.738193511962834, 17.042917251586914], [-61.73847198486328, 17.042917251586914], [-61.73847198486328, 17.042638778686523], [-61.73875045776367, 17.042638778686523], [-61.73875045776367, 17.042360305786133], [-61.73902893066406, 17.042360305786133], [-61.73902893066406, 17.042083740234375], [-61.73958206176758, 17.042083740234375], [-61.73958206176758, 17.041805267333984], [-61.74013900756836, 17.041805267333984], [-61.74013900756836, 17.042083740234375], [-61.740417480468636, 17.042083740234375], [-61.740417480468636, 17.042360305786133], [-61.740695953369084, 17.042360305786133], [-61.740695953369084, 17.042917251586914], [-61.74097061157221, 17.042917251586914], [-61.74097061157221, 17.04319381713873], [-61.7412490844726, 17.04319381713873], [-61.7412490844726, 17.043470382690487], [-61.74152755737299, 17.043470382690487], [-61.74152755737299, 17.043752670288086], [-61.74236297607422, 17.043752670288086], [-61.74236297607422, 17.043470382690487], [-61.74311065673828, 17.043470382690487]]], [[[-61.7220840454101, 17.10097312927246], [-61.7220840454101, 17.100696563720646], [-61.72152709960932, 17.100696563720646], [-61.72152709960932, 17.099584579467887], [-61.72180557250971, 17.099584579467887], [-61.72180557250971, 17.099027633666935], [-61.7220840454101, 17.099027633666935], [-61.7220840454101, 17.098474502563533], [-61.72291564941406, 17.098474502563533], [-61.72291564941406, 17.09819221496582], [-61.723751068115234, 17.09819221496582], [-61.723751068115234, 17.09763908386236], [-61.725139617919865, 17.09763908386236], [-61.725139617919865, 17.098749160766545], [-61.724861145019474, 17.098749160766545], [-61.724861145019474, 17.099027633666935], [-61.724304199218636, 17.099027633666935], [-61.724304199218636, 17.09930419921875], [-61.723751068115234, 17.09930419921875], [-61.723751068115234, 17.099584579467887], [-61.723472595214844, 17.099584579467887], [-61.723472595214844, 17.100696563720646], [-61.72291564941406, 17.100696563720646], [-61.72291564941406, 17.10097312927246], [-61.7220840454101, 17.10097312927246]]], [[[-61.672359466552734, 17.073749542236385], [-61.672359466552734, 17.073474884033203], [-61.67152786254877, 17.073474884033203], [-61.67152786254877, 17.07319259643566], [-61.67124938964838, 17.07319259643566], [-61.67124938964838, 17.07291412353527], [-61.67097091674799, 17.07291412353527], [-61.67097091674799, 17.07263946533203], [-61.670696258544865, 17.07263946533203], [-61.670696258544865, 17.072362899780273], [-61.67041778564442, 17.072362899780273], [-61.67041778564442, 17.072082519531307], [-61.67013931274414, 17.072082519531307], [-61.67013931274414, 17.071804046630916], [-61.668193817138615, 17.071804046630916], [-61.668193817138615, 17.0715274810791], [-61.66736221313471, 17.0715274810791], [-61.66736221313471, 17.071804046630916], [-61.6662483215332, 17.071804046630916], [-61.6662483215332, 17.072082519531307], [-61.66513824462885, 17.072082519531307], [-61.66513824462885, 17.071804046630916], [-61.664585113525334, 17.071804046630916], [-61.664585113525334, 17.0715274810791], [-61.66180419921869, 17.0715274810791], [-61.66180419921869, 17.07125282287609], [-61.66041564941406, 17.07125282287609], [-61.66041564941406, 17.0709743499757], [-61.659584045410156, 17.0709743499757], [-61.659584045410156, 17.070692062377987], [-61.659305572509766, 17.070692062377987], [-61.659305572509766, 17.070417404174748], [-61.65874862670893, 17.070417404174748], [-61.65874862670893, 17.070138931274357], [-61.659027099609375, 17.070138931274357], [-61.659027099609375, 17.06930541992199], [-61.65874862670893, 17.06930541992199], [-61.65874862670893, 17.069026947021598], [-61.6573600769043, 17.069026947021598], [-61.6573600769043, 17.06958389282238], [-61.65680694580078, 17.06958389282238], [-61.65680694580078, 17.06930541992199], [-61.65652847290039, 17.06930541992199], [-61.65652847290039, 17.067638397216854], [-61.657081604003906, 17.067638397216854], [-61.657081604003906, 17.067361831665096], [-61.65986251831055, 17.067361831665096], [-61.65986251831055, 17.067083358764705], [-61.66041564941406, 17.067083358764705], [-61.66041564941406, 17.066804885864315], [-61.66097259521479, 17.066804885864315], [-61.66097259521479, 17.06624984741211], [-61.66180419921869, 17.06624984741211], [-61.66180419921869, 17.065971374511776], [-61.66236114501953, 17.065971374511776], [-61.66236114501953, 17.06569480895996], [-61.664028167724496, 17.06569480895996], [-61.664028167724496, 17.065971374511776], [-61.66430664062494, 17.065971374511776], [-61.66430664062494, 17.06624984741211], [-61.664585113525334, 17.06624984741211], [-61.664585113525334, 17.0665283203125], [-61.66430664062494, 17.0665283203125], [-61.66430664062494, 17.067361831665096], [-61.664028167724496, 17.067361831665096], [-61.664028167724496, 17.067638397216854], [-61.66374969482422, 17.067638397216854], [-61.66374969482422, 17.067916870117244], [-61.664028167724496, 17.067916870117244], [-61.664028167724496, 17.06847190856945], [-61.66485977172846, 17.06847190856945], [-61.66485977172846, 17.06875038146984], [-61.664585113525334, 17.06875038146984], [-61.664585113525334, 17.06958389282238], [-61.66430664062494, 17.06958389282238], [-61.66430664062494, 17.070138931274357], [-61.6654167175293, 17.070138931274357], [-61.6654167175293, 17.069860458373967], [-61.6662483215332, 17.069860458373967], [-61.6662483215332, 17.06958389282238], [-61.66708374023426, 17.06958389282238], [-61.66708374023426, 17.06930541992199], [-61.66736221313471, 17.06930541992199], [-61.66736221313471, 17.068195343017635], [-61.6676406860351, 17.068195343017635], [-61.6676406860351, 17.067638397216854], [-61.667915344238224, 17.067638397216854], [-61.667915344238224, 17.067361831665096], [-61.66930389404297, 17.067361831665096], [-61.66930389404297, 17.067916870117244], [-61.66986083984375, 17.067916870117244], [-61.66986083984375, 17.068195343017635], [-61.67041778564442, 17.068195343017635], [-61.67041778564442, 17.06847190856945], [-61.670696258544865, 17.06847190856945], [-61.670696258544865, 17.069026947021598], [-61.67097091674799, 17.069026947021598], [-61.67097091674799, 17.06930541992199], [-61.670696258544865, 17.06930541992199], [-61.670696258544865, 17.070138931274357], [-61.67152786254877, 17.070138931274357], [-61.67152786254877, 17.069860458373967], [-61.67180633544922, 17.069860458373967], [-61.67180633544922, 17.06958389282238], [-61.674026489257756, 17.06958389282238], [-61.674026489257756, 17.070138931274357], [-61.67458343505854, 17.070138931274357], [-61.67458343505854, 17.06958389282238], [-61.675140380859375, 17.06958389282238], [-61.675140380859375, 17.070692062377987], [-61.674861907958984, 17.070692062377987], [-61.674861907958984, 17.07125282287609], [-61.67458343505854, 17.07125282287609], [-61.67458343505854, 17.0715274810791], [-61.674304962158146, 17.0715274810791], [-61.674304962158146, 17.072362899780273], [-61.67458343505854, 17.072362899780273], [-61.67458343505854, 17.07291412353527], [-61.674304962158146, 17.07291412353527], [-61.674304962158146, 17.07319259643566], [-61.67347335815418, 17.07319259643566], [-61.67347335815418, 17.07291412353527], [-61.672637939453125, 17.07291412353527], [-61.672637939453125, 17.07319259643566], [-61.672916412353516, 17.07319259643566], [-61.672916412353516, 17.073749542236385], [-61.672359466552734, 17.073749542236385]]], [[[-61.66736221313471, 17.054582595825252], [-61.66736221313471, 17.054306030273438], [-61.66708374023426, 17.054306030273438], [-61.66708374023426, 17.052637100219727], [-61.66736221313471, 17.052637100219727], [-61.66736221313471, 17.052360534667912], [-61.6676406860351, 17.052360534667912], [-61.6676406860351, 17.052083969116325], [-61.667915344238224, 17.052083969116325], [-61.667915344238224, 17.051805496215934], [-61.668193817138615, 17.051805496215934], [-61.668193817138615, 17.05152893066412], [-61.66875076293945, 17.05152893066412], [-61.66875076293945, 17.051805496215934], [-61.66930389404297, 17.051805496215934], [-61.66930389404297, 17.052083969116325], [-61.66958236694336, 17.052083969116325], [-61.66958236694336, 17.051805496215934], [-61.66986083984375, 17.051805496215934], [-61.66986083984375, 17.051250457763786], [-61.670696258544865, 17.051250457763786], [-61.670696258544865, 17.052083969116325], [-61.67097091674799, 17.052083969116325], [-61.67097091674799, 17.0534725189209], [-61.670696258544865, 17.0534725189209], [-61.670696258544865, 17.054306030273438], [-61.67041778564442, 17.054306030273438], [-61.67041778564442, 17.054582595825252], [-61.66736221313471, 17.054582595825252]]], [[[-61.67930603027344, 17.041805267333984], [-61.67930603027344, 17.04125022888178], [-61.67902755737305, 17.04125022888178], [-61.67902755737305, 17.040971755981445], [-61.678749084472656, 17.040971755981445], [-61.678749084472656, 17.04041671752941], [-61.67902755737305, 17.04041671752941], [-61.67902755737305, 17.039861679077262], [-61.67930603027344, 17.039861679077262], [-61.67930603027344, 17.03958320617687], [-61.67958450317383, 17.03958320617687], [-61.67958450317383, 17.03930473327648], [-61.68041610717768, 17.03930473327648], [-61.68041610717768, 17.039028167724666], [-61.68069458007807, 17.039028167724666], [-61.68069458007807, 17.040971755981445], [-61.68097305297846, 17.040971755981445], [-61.68097305297846, 17.041805267333984], [-61.67930603027344, 17.041805267333984]]]]}}]}