{"type": "FeatureCollection", "features": [{"type": "Feature", "properties": {"country": "Antigua", "pcode": "AG03", "name": "Saint George"}, "geometry": {"type": "MultiPolygon", "coordinates": [[[[-61.77736282348633, 17.11194229125988], [-61.77774429321289, 17.111820220947266], [-61.78438949584961, 17.111820220947266], [-61.78424072265625, 17.09799766540533], [-61.78340911865229, 17.09739303588873], [-61.78257751464844, 17.096561431884766], [-61.781368255615234, 17.096183776855582], [-61.78106689453125, 17.09044456481928], [-61.78144454956055, 17.090219497680664], [-61.783180236816406, 17.090066909790096], [-61.78544616699219, 17.089462280273494], [-61.786579132079964, 17.08893394470209], [-61.78741073608393, 17.08802604675293], [-61.79118728637695, 17.0875759124757], [-61.79133987426752, 17.083948135376033], [-61.79133987426752, 17.081983566284237], [-61.79156494140625, 17.08100128173828], [-61.792549133300724, 17.079111099243107], [-61.79262924194336, 17.078872680664006], [-61.79352951049799, 17.07936859130865], [-61.79512405395502, 17.080209732055778], [-61.79697036743153, 17.080375671386832], [-61.80099868774414, 17.080291748046932], [-61.80334854125971, 17.080291748046932], [-61.8036003112793, 17.08062744140625], [-61.804813385009766, 17.082349777221737], [-61.80900955200195, 17.08779907226574], [-61.810184478759766, 17.089815139770508], [-61.80766677856445, 17.100976943969783], [-61.80665969848633, 17.104749679565373], [-61.80573654174799, 17.108610153198242], [-61.80489730834961, 17.112047195434684], [-61.80825424194336, 17.112131118774414], [-61.80854797363281, 17.116119384765625], [-61.808631896972656, 17.12140464782715], [-61.80905151367182, 17.13189315795904], [-61.809471130371094, 17.14162635803234], [-61.81341552734375, 17.14196205139166], [-61.816520690917855, 17.14263343811035], [-61.816604614257756, 17.145402908325252], [-61.816604614257756, 17.151947021484375], [-61.816604614257756, 17.154966354370117], [-61.80644989013672, 17.15572166442871], [-61.806365966796875, 17.15740013122553], [-61.800579071044865, 17.157062530517635], [-61.801166534423714, 17.160589218139762], [-61.80234146118164, 17.166210174560604], [-61.80267715454096, 17.168643951416016], [-61.80234146118164, 17.169734954834098], [-61.80208206176758, 17.170139312744084], [-61.801250457763615, 17.170139312744084], [-61.801250457763615, 17.16819572448736], [-61.800971984863224, 17.16819572448736], [-61.800971984863224, 17.16763877868658], [-61.80069351196278, 17.16763877868658], [-61.80069351196278, 17.166250228881893], [-61.8004150390625, 17.166250228881893], [-61.8004150390625, 17.165138244628906], [-61.800140380859375, 17.165138244628906], [-61.800140380859375, 17.164581298828182], [-61.799583435058594, 17.164581298828182], [-61.799583435058594, 17.164028167724553], [-61.7993049621582, 17.164028167724553], [-61.7993049621582, 17.163749694824162], [-61.79875183105463, 17.163749694824162], [-61.79875183105463, 17.163471221923828], [-61.79847335815424, 17.163471221923828], [-61.79847335815424, 17.162916183471793], [-61.79819488525385, 17.162916183471793], [-61.79819488525385, 17.16235923767084], [-61.79791641235346, 17.16235923767084], [-61.79791641235346, 17.162082672119254], [-61.79763793945301, 17.162082672119254], [-61.79763793945301, 17.16152763366705], [-61.79708480834961, 17.16152763366705], [-61.79708480834961, 17.16124916076666], [-61.79680633544922, 17.16124916076666], [-61.79680633544922, 17.16069412231451], [-61.79624938964844, 17.16069412231451], [-61.79624938964844, 17.160417556762695], [-61.79597091674805, 17.160417556762695], [-61.79597091674805, 17.160139083862305], [-61.795417785644474, 17.160139083862305], [-61.795417785644474, 17.15986061096197], [-61.7945823669433, 17.15986061096197], [-61.7945823669433, 17.159584045410156], [-61.79208374023432, 17.159584045410156], [-61.79208374023432, 17.159305572509766], [-61.79069519042969, 17.159305572509766], [-61.79069519042969, 17.159027099609375], [-61.7904167175293, 17.159027099609375], [-61.7904167175293, 17.158750534057617], [-61.789859771728516, 17.158750534057617], [-61.789859771728516, 17.158472061157227], [-61.78958511352539, 17.158472061157227], [-61.78958511352539, 17.157918930053825], [-61.78930664062494, 17.157918930053825], [-61.78930664062494, 17.157083511352653], [-61.78958511352539, 17.157083511352653], [-61.78958511352539, 17.156806945800838], [-61.789859771728516, 17.156806945800838], [-61.789859771728516, 17.156250000000114], [-61.790138244628906, 17.156250000000114], [-61.790138244628906, 17.155971527099723], [-61.79069519042969, 17.155971527099723], [-61.79069519042969, 17.154584884643555], [-61.7904167175293, 17.154584884643555], [-61.7904167175293, 17.153749465942383], [-61.78958511352539, 17.153749465942383], [-61.78958511352539, 17.152360916137695], [-61.78930664062494, 17.152360916137695], [-61.78930664062494, 17.152082443237305], [-61.78847122192377, 17.152082443237305], [-61.78847122192377, 17.152360916137695], [-61.78819274902338, 17.152360916137695], [-61.78819274902338, 17.15263938903803], [-61.78763961791992, 17.15263938903803], [-61.78763961791992, 17.152360916137695], [-61.78680419921875, 17.152360916137695], [-61.78680419921875, 17.151252746582088], [-61.78708267211914, 17.151252746582088], [-61.78708267211914, 17.15097236633312], [-61.78736114501953, 17.15097236633312], [-61.78736114501953, 17.150417327880916], [-61.78791809082031, 17.150417327880916], [-61.78791809082031, 17.150138854980526], [-61.78847122192377, 17.150138854980526], [-61.78847122192377, 17.149860382080192], [-61.78874969482416, 17.149860382080192], [-61.78874969482416, 17.149026870727596], [-61.78847122192377, 17.149026870727596], [-61.78847122192377, 17.148750305175838], [-61.78819274902338, 17.148750305175838], [-61.78819274902338, 17.148471832275447], [-61.78791809082031, 17.148471832275447], [-61.78791809082031, 17.14763832092285], [-61.78763961791992, 17.14763832092285], [-61.78763961791992, 17.147361755371094], [-61.78708267211914, 17.147361755371094], [-61.78708267211914, 17.147083282470703], [-61.785694122314396, 17.147083282470703], [-61.785694122314396, 17.146804809570312], [-61.78486251831043, 17.146804809570312], [-61.78486251831043, 17.146528244018498], [-61.784584045410156, 17.146528244018498], [-61.784584045410156, 17.146249771118107], [-61.784305572509766, 17.146249771118107], [-61.784305572509766, 17.145971298217773], [-61.784027099609375, 17.145971298217773], [-61.784027099609375, 17.14569473266613], [-61.78347396850586, 17.14569473266613], [-61.78347396850586, 17.14541625976574], [-61.78291702270502, 17.14541625976574], [-61.78291702270502, 17.14513969421398], [-61.78236007690424, 17.14513969421398], [-61.78236007690424, 17.14486122131359], [-61.78180694580067, 17.14486122131359], [-61.78180694580067, 17.1445827484132], [-61.78097152709961, 17.1445827484132], [-61.78097152709961, 17.144306182861385], [-61.78069305419922, 17.144306182861385], [-61.78069305419922, 17.144027709960994], [-61.780418395996094, 17.144027709960994], [-61.780418395996094, 17.143749237060604], [-61.77986145019531, 17.143749237060604], [-61.77986145019531, 17.143472671508846], [-61.779026031494084, 17.143472671508846], [-61.779026031494084, 17.143194198608455], [-61.777915954589844, 17.143194198608455], [-61.777915954589844, 17.14291763305664], [-61.77763748168945, 17.14291763305664], [-61.77763748168945, 17.14263916015625], [-61.77736282348633, 17.14263916015625], [-61.77736282348633, 17.1420841217041], [-61.77708435058594, 17.1420841217041], [-61.77708435058594, 17.14180564880371], [-61.77597045898432, 17.14180564880371], [-61.77597045898432, 17.141525268554744], [-61.77569580078119, 17.141525268554744], [-61.77569580078119, 17.141250610351562], [-61.775417327880746, 17.141250610351562], [-61.775417327880746, 17.140972137451172], [-61.77375030517578, 17.140972137451172], [-61.77375030517578, 17.140138626098576], [-61.77347183227539, 17.140138626098576], [-61.77347183227539, 17.13986206054699], [-61.77291488647455, 17.13986206054699], [-61.77291488647455, 17.138193130493278], [-61.77347183227539, 17.138193130493278], [-61.77347183227539, 17.137916564941463], [-61.77375030517578, 17.137916564941463], [-61.77375030517578, 17.137638092041072], [-61.77347183227539, 17.137638092041072], [-61.77347183227539, 17.13652801513672], [-61.77402877807617, 17.13652801513672], [-61.77402877807617, 17.136249542236328], [-61.77430725097656, 17.136249542236328], [-61.77430725097656, 17.135971069335994], [-61.77458190917969, 17.135971069335994], [-61.77458190917969, 17.13569450378418], [-61.77486038208008, 17.13569450378418], [-61.77486038208008, 17.135139465331974], [-61.77513885498047, 17.135139465331974], [-61.77513885498047, 17.134859085083008], [-61.775417327880746, 17.134859085083008], [-61.775417327880746, 17.13458251953125], [-61.77569580078119, 17.13458251953125], [-61.77569580078119, 17.134305953979606], [-61.77708435058594, 17.134305953979606], [-61.77708435058594, 17.13458251953125], [-61.77736282348633, 17.13458251953125], [-61.77736282348633, 17.134859085083008], [-61.77847290039051, 17.134859085083008], [-61.77847290039051, 17.135139465331974], [-61.777915954589844, 17.135139465331974], [-61.777915954589844, 17.13541603088379], [-61.77763748168945, 17.13541603088379], [-61.77763748168945, 17.136249542236328], [-61.777915954589844, 17.136249542236328], [-61.777915954589844, 17.13652801513672], [-61.778194427490234, 17.13652801513672], [-61.778194427490234, 17.13680648803711], [-61.77875137329096, 17.13680648803711], [-61.77875137329096, 17.137081146240348], [-61.779582977294865, 17.137081146240348], [-61.779582977294865, 17.137361526489315], [-61.7801399230957, 17.137361526489315], [-61.7801399230957, 17.137081146240348], [-61.780418395996094, 17.137081146240348], [-61.780418395996094, 17.13680648803711], [-61.78069305419922, 17.13680648803711], [-61.78069305419922, 17.136249542236328], [-61.78097152709961, 17.136249542236328], [-61.78097152709961, 17.13541603088379], [-61.78125, 17.13541603088379], [-61.78125, 17.13458251953125], [-61.78180694580067, 17.13458251953125], [-61.78180694580067, 17.134027481079045], [-61.78097152709961, 17.134027481079045], [-61.78097152709961, 17.134305953979606], [-61.779304504394474, 17.134305953979606], [-61.779304504394474, 17.133472442627067], [-61.78069305419922, 17.133472442627067], [-61.78069305419922, 17.133193969726676], [-61.78097152709961, 17.133193969726676], [-61.78097152709961, 17.13291740417486], [-61.78125, 17.13291740417486], [-61.78125, 17.131250381469783], [-61.78097152709961, 17.131250381469783], [-61.78097152709961, 17.130971908569393], [-61.78069305419922, 17.130971908569393], [-61.78069305419922, 17.130695343017578], [-61.780418395996094, 17.130695343017578], [-61.780418395996094, 17.130418777465763], [-61.78069305419922, 17.130418777465763], [-61.78069305419922, 17.130138397216797], [-61.78208160400385, 17.130138397216797], [-61.78208160400385, 17.12986183166504], [-61.78291702270502, 17.12986183166504], [-61.78291702270502, 17.12958335876465], [-61.78319549560547, 17.12958335876465], [-61.78319549560547, 17.129306793212834], [-61.78347396850586, 17.129306793212834], [-61.78347396850586, 17.128749847412053], [-61.785137176513615, 17.128749847412053], [-61.785137176513615, 17.129028320312443], [-61.785415649414006, 17.129028320312443], [-61.785415649414006, 17.128749847412053], [-61.78597259521479, 17.128749847412053], [-61.78597259521479, 17.12847137451172], [-61.786251068115234, 17.12847137451172], [-61.786251068115234, 17.12819671630865], [-61.78680419921875, 17.12819671630865], [-61.78680419921875, 17.127914428710938], [-61.78708267211914, 17.127914428710938], [-61.78708267211914, 17.127639770507926], [-61.78736114501953, 17.127639770507926], [-61.78736114501953, 17.127361297607536], [-61.78763961791992, 17.127361297607536], [-61.78763961791992, 17.12680625915533], [-61.78819274902338, 17.12680625915533], [-61.78819274902338, 17.12652778625494], [-61.78847122192377, 17.12652778625494], [-61.78847122192377, 17.124027252197266], [-61.78819274902338, 17.124027252197266], [-61.78819274902338, 17.12263870239252], [-61.78791809082031, 17.12263870239252], [-61.78791809082031, 17.12236022949213], [-61.78708267211914, 17.12236022949213], [-61.78708267211914, 17.12263870239252], [-61.78680419921875, 17.12263870239252], [-61.78680419921875, 17.122917175292912], [-61.786529541015625, 17.122917175292912], [-61.786529541015625, 17.123193740844727], [-61.786251068115234, 17.123193740844727], [-61.786251068115234, 17.123750686645508], [-61.78597259521479, 17.123750686645508], [-61.78597259521479, 17.124027252197266], [-61.785694122314396, 17.124027252197266], [-61.785694122314396, 17.124305725097656], [-61.785415649414006, 17.124305725097656], [-61.785415649414006, 17.124027252197266], [-61.785137176513615, 17.124027252197266], [-61.785137176513615, 17.124305725097656], [-61.784305572509766, 17.124305725097656], [-61.784305572509766, 17.123750686645508], [-61.784027099609375, 17.123750686645508], [-61.784027099609375, 17.123470306396484], [-61.784305572509766, 17.123470306396484], [-61.784305572509766, 17.122917175292912], [-61.784584045410156, 17.122917175292912], [-61.784584045410156, 17.12236022949213], [-61.785137176513615, 17.12236022949213], [-61.785137176513615, 17.122083663940543], [-61.785415649414006, 17.122083663940543], [-61.785415649414006, 17.121528625488338], [-61.78597259521479, 17.121528625488338], [-61.78597259521479, 17.121250152588004], [-61.786251068115234, 17.121250152588004], [-61.786251068115234, 17.1206951141358], [-61.786529541015625, 17.1206951141358], [-61.786529541015625, 17.120138168335018], [-61.78597259521479, 17.120138168335018], [-61.78597259521479, 17.12041664123541], [-61.785137176513615, 17.12041664123541], [-61.785137176513615, 17.1206951141358], [-61.78486251831043, 17.1206951141358], [-61.78486251831043, 17.120971679687614], [-61.784584045410156, 17.120971679687614], [-61.784584045410156, 17.121528625488338], [-61.784305572509766, 17.121528625488338], [-61.784305572509766, 17.122083663940543], [-61.783748626708984, 17.122083663940543], [-61.783748626708984, 17.12263870239252], [-61.78319549560547, 17.12263870239252], [-61.78319549560547, 17.122917175292912], [-61.78263854980463, 17.122917175292912], [-61.78263854980463, 17.123193740844727], [-61.78208160400385, 17.123193740844727], [-61.78208160400385, 17.123470306396484], [-61.78152847290039, 17.123470306396484], [-61.78152847290039, 17.123193740844727], [-61.7801399230957, 17.123193740844727], [-61.7801399230957, 17.123470306396484], [-61.77986145019531, 17.123470306396484], [-61.77986145019531, 17.124027252197266], [-61.779304504394474, 17.124027252197266], [-61.779304504394474, 17.124305725097656], [-61.778194427490234, 17.124305725097656], [-61.778194427490234, 17.12458229064947], [-61.77736282348633, 17.12458229064947], [-61.77736282348633, 17.124305725097656], [-61.77708435058594, 17.124305725097656], [-61.77708435058594, 17.121805191040153], [-61.77736282348633, 17.121805191040153], [-61.77736282348633, 17.12041664123541], [-61.77708435058594, 17.12041664123541], [-61.77708435058594, 17.120138168335018], [-61.77680587768555, 17.120138168335018], [-61.77680587768555, 17.11958312988287], [-61.77624893188471, 17.11958312988287], [-61.77624893188471, 17.11930465698248], [-61.77569580078119, 17.11930465698248], [-61.77569580078119, 17.119028091430664], [-61.775417327880746, 17.119028091430664], [-61.775417327880746, 17.118473052978516], [-61.77569580078119, 17.118473052978516], [-61.77569580078119, 17.117916107177734], [-61.77597045898432, 17.117916107177734], [-61.77597045898432, 17.11763954162592], [-61.7765274047851, 17.11763954162592], [-61.7765274047851, 17.117361068725586], [-61.77708435058594, 17.117361068725586], [-61.77708435058594, 17.117082595825195], [-61.77736282348633, 17.117082595825195], [-61.77736282348633, 17.115417480468807], [-61.77763748168945, 17.115417480468807], [-61.77763748168945, 17.114860534668082], [-61.777915954589844, 17.114860534668082], [-61.777915954589844, 17.11236381530773], [-61.77763748168945, 17.11236381530773], [-61.77763748168945, 17.112081527710018], [-61.77736282348633, 17.112081527710018], [-61.77736282348633, 17.11194229125988]]], [[[-61.75708389282221, 17.16180610656744], [-61.75708389282221, 17.16124916076666], [-61.7573623657226, 17.16124916076666], [-61.7573623657226, 17.160417556762695], [-61.75708389282221, 17.160417556762695], [-61.75708389282221, 17.160139083862305], [-61.75680541992182, 17.160139083862305], [-61.75680541992182, 17.15986061096197], [-61.75652694702143, 17.15986061096197], [-61.75652694702143, 17.159584045410156], [-61.75624847412098, 17.159584045410156], [-61.75624847412098, 17.159305572509766], [-61.7551383972168, 17.159305572509766], [-61.7551383972168, 17.159027099609375], [-61.754859924316406, 17.159027099609375], [-61.754859924316406, 17.158750534057617], [-61.754581451416016, 17.158750534057617], [-61.754581451416016, 17.159305572509766], [-61.75402832031244, 17.159305572509766], [-61.75402832031244, 17.159584045410156], [-61.75347137451166, 17.159584045410156], [-61.75347137451166, 17.160139083862305], [-61.75374984741205, 17.160139083862305], [-61.75374984741205, 17.160417556762695], [-61.75402832031244, 17.160417556762695], [-61.75402832031244, 17.16124916076666], [-61.75319290161127, 17.16124916076666], [-61.75319290161127, 17.1609725952149], [-61.75263977050781, 17.1609725952149], [-61.75263977050781, 17.16069412231451], [-61.75236129760742, 17.16069412231451], [-61.75236129760742, 17.160417556762695], [-61.75208282470703, 17.160417556762695], [-61.75208282470703, 17.160139083862305], [-61.75180435180664, 17.160139083862305], [-61.75180435180664, 17.15986061096197], [-61.75152587890625, 17.15986061096197], [-61.75152587890625, 17.159584045410156], [-61.751251220703125, 17.159584045410156], [-61.751251220703125, 17.159305572509766], [-61.75097274780268, 17.159305572509766], [-61.75097274780268, 17.159027099609375], [-61.74847412109375, 17.159027099609375], [-61.74847412109375, 17.158750534057617], [-61.74652862548828, 17.158750534057617], [-61.74652862548828, 17.158193588256836], [-61.74625015258789, 17.158193588256836], [-61.74625015258789, 17.157361984253043], [-61.7459716796875, 17.157361984253043], [-61.7459716796875, 17.156806945800838], [-61.74569320678711, 17.156806945800838], [-61.74569320678711, 17.156250000000114], [-61.745418548583984, 17.156250000000114], [-61.745418548583984, 17.154306411743164], [-61.74652862548828, 17.154306411743164], [-61.74652862548828, 17.15486145019537], [-61.74680709838856, 17.15486145019537], [-61.74680709838856, 17.154584884643555], [-61.74763870239252, 17.154584884643555], [-61.74763870239252, 17.154306411743164], [-61.74819564819336, 17.154306411743164], [-61.74819564819336, 17.154027938842773], [-61.749027252197266, 17.154027938842773], [-61.749027252197266, 17.15347480773937], [-61.749305725097656, 17.15347480773937], [-61.749305725097656, 17.15319252014166], [-61.74958419799805, 17.15319252014166], [-61.74958419799805, 17.15263938903803], [-61.750137329101506, 17.15263938903803], [-61.750137329101506, 17.152360916137695], [-61.750415802001896, 17.152360916137695], [-61.750415802001896, 17.152082443237305], [-61.751251220703125, 17.152082443237305], [-61.751251220703125, 17.15180587768566], [-61.75152587890625, 17.15180587768566], [-61.75152587890625, 17.151252746582088], [-61.75180435180664, 17.151252746582088], [-61.75180435180664, 17.15097236633312], [-61.75236129760742, 17.15097236633312], [-61.75236129760742, 17.151252746582088], [-61.75263977050781, 17.151252746582088], [-61.75263977050781, 17.15180587768566], [-61.75319290161127, 17.15180587768566], [-61.75319290161127, 17.150138854980526], [-61.7529182434082, 17.150138854980526], [-61.7529182434082, 17.149305343627987], [-61.75319290161127, 17.149305343627987], [-61.75319290161127, 17.148750305175838], [-61.75347137451166, 17.148750305175838], [-61.75347137451166, 17.148471832275447], [-61.754306793212834, 17.148471832275447], [-61.754306793212834, 17.149026870727596], [-61.754581451416016, 17.149026870727596], [-61.754581451416016, 17.15069389343273], [-61.754859924316406, 17.15069389343273], [-61.754859924316406, 17.1515274047851], [-61.7551383972168, 17.1515274047851], [-61.7551383972168, 17.15180587768566], [-61.75624847412098, 17.15180587768566], [-61.75624847412098, 17.1515274047851], [-61.75680541992182, 17.1515274047851], [-61.75680541992182, 17.151252746582088], [-61.75708389282221, 17.151252746582088], [-61.75708389282221, 17.15097236633312], [-61.7573623657226, 17.15097236633312], [-61.7573623657226, 17.15069389343273], [-61.75763702392578, 17.15069389343273], [-61.75763702392578, 17.150138854980526], [-61.75791549682617, 17.150138854980526], [-61.75791549682617, 17.149583816528377], [-61.75819396972656, 17.149583816528377], [-61.75819396972656, 17.149305343627987], [-61.75847244262695, 17.149305343627987], [-61.75847244262695, 17.148750305175838], [-61.758750915527344, 17.148750305175838], [-61.758750915527344, 17.148471832275447], [-61.760139465331974, 17.148471832275447], [-61.760139465331974, 17.148750305175838], [-61.760417938232365, 17.148750305175838], [-61.760417938232365, 17.149026870727596], [-61.76069259643555, 17.149026870727596], [-61.76069259643555, 17.149583816528377], [-61.76097106933594, 17.149583816528377], [-61.76097106933594, 17.15069389343273], [-61.76124954223633, 17.15069389343273], [-61.76124954223633, 17.15097236633312], [-61.762359619140625, 17.15097236633312], [-61.762359619140625, 17.151252746582088], [-61.7626380920409, 17.151252746582088], [-61.7626380920409, 17.15180587768566], [-61.762359619140625, 17.15180587768566], [-61.762359619140625, 17.15263938903803], [-61.7620849609375, 17.15263938903803], [-61.7620849609375, 17.15319252014166], [-61.76180648803711, 17.15319252014166], [-61.76180648803711, 17.153749465942383], [-61.76152801513672, 17.153749465942383], [-61.76152801513672, 17.154027938842773], [-61.76097106933594, 17.154027938842773], [-61.76097106933594, 17.15513610839855], [-61.760417938232365, 17.15513610839855], [-61.760417938232365, 17.155416488647518], [-61.760139465331974, 17.155416488647518], [-61.760139465331974, 17.155696868896484], [-61.760417938232365, 17.155696868896484], [-61.760417938232365, 17.155971527099723], [-61.760139465331974, 17.155971527099723], [-61.760139465331974, 17.156806945800838], [-61.760417938232365, 17.156806945800838], [-61.760417938232365, 17.157083511352653], [-61.76069259643555, 17.157083511352653], [-61.76069259643555, 17.157361984253043], [-61.76097106933594, 17.157361984253043], [-61.76097106933594, 17.157918930053825], [-61.760417938232365, 17.157918930053825], [-61.760417938232365, 17.158193588256836], [-61.760139465331974, 17.158193588256836], [-61.760139465331974, 17.159305572509766], [-61.759029388427734, 17.159305572509766], [-61.759029388427734, 17.16180610656744], [-61.759304046630746, 17.16180610656744], [-61.759304046630746, 17.16235923767084], [-61.75819396972656, 17.16235923767084], [-61.75819396972656, 17.162639617920036], [-61.75680541992182, 17.162639617920036], [-61.75680541992182, 17.16180610656744], [-61.75708389282221, 17.16180610656744]]], [[[-61.764305114746094, 17.150138854980526], [-61.764305114746094, 17.149860382080192], [-61.7640266418457, 17.149860382080192], [-61.7640266418457, 17.149026870727596], [-61.763748168945256, 17.149026870727596], [-61.763748168945256, 17.148471832275447], [-61.7640266418457, 17.148471832275447], [-61.7640266418457, 17.147916793823242], [-61.763748168945256, 17.147916793823242], [-61.763748168945256, 17.14763832092285], [-61.76347351074213, 17.14763832092285], [-61.76347351074213, 17.147083282470703], [-61.76319503784174, 17.147083282470703], [-61.76319503784174, 17.146804809570312], [-61.76291656494135, 17.146804809570312], [-61.76291656494135, 17.146249771118107], [-61.7626380920409, 17.146249771118107], [-61.7626380920409, 17.145971298217773], [-61.762359619140625, 17.145971298217773], [-61.762359619140625, 17.14569473266613], [-61.7620849609375, 17.14569473266613], [-61.7620849609375, 17.14541625976574], [-61.76180648803711, 17.14541625976574], [-61.76180648803711, 17.144306182861385], [-61.7620849609375, 17.144306182861385], [-61.7620849609375, 17.143749237060604], [-61.762359619140625, 17.143749237060604], [-61.762359619140625, 17.14291763305664], [-61.7626380920409, 17.14291763305664], [-61.7626380920409, 17.14263916015625], [-61.76291656494135, 17.14263916015625], [-61.76291656494135, 17.1420841217041], [-61.76347351074213, 17.1420841217041], [-61.76347351074213, 17.142360687255916], [-61.763748168945256, 17.142360687255916], [-61.763748168945256, 17.14263916015625], [-61.7640266418457, 17.14263916015625], [-61.7640266418457, 17.143472671508846], [-61.764305114746094, 17.143472671508846], [-61.764305114746094, 17.1445827484132], [-61.764583587646484, 17.1445827484132], [-61.764583587646484, 17.14513969421398], [-61.764862060546875, 17.14513969421398], [-61.764862060546875, 17.14569473266613], [-61.764583587646484, 17.14569473266613], [-61.764583587646484, 17.145971298217773], [-61.764305114746094, 17.145971298217773], [-61.764305114746094, 17.146249771118107], [-61.764583587646484, 17.146249771118107], [-61.764583587646484, 17.146804809570312], [-61.764862060546875, 17.146804809570312], [-61.764862060546875, 17.147083282470703], [-61.765140533447266, 17.147083282470703], [-61.765140533447266, 17.147361755371094], [-61.76541519165039, 17.147361755371094], [-61.76541519165039, 17.149305343627987], [-61.765140533447266, 17.149305343627987], [-61.765140533447266, 17.149860382080192], [-61.764862060546875, 17.149860382080192], [-61.764862060546875, 17.150138854980526], [-61.764305114746094, 17.150138854980526]]]]}}]}