{"type": "FeatureCollection", "features": [{"type": "Feature", "properties": {"country": "Antigua", "pcode": "AG07", "name": "Saint Peter"}, "geometry": {"type": "MultiPolygon", "coordinates": [[[[-61.723472595214844, 17.149305343627987], [-61.723472595214844, 17.149026870727596], [-61.72319412231445, 17.149026870727596], [-61.72319412231445, 17.148195266723633], [-61.72291564941406, 17.148195266723633], [-61.72291564941406, 17.14486122131359], [-61.72319412231445, 17.14486122131359], [-61.72319412231445, 17.144027709960994], [-61.723472595214844, 17.144027709960994], [-61.723472595214844, 17.143749237060604], [-61.723751068115234, 17.143749237060604], [-61.723751068115234, 17.143194198608455], [-61.724304199218636, 17.143194198608455], [-61.724304199218636, 17.143749237060604], [-61.724582672119084, 17.143749237060604], [-61.724582672119084, 17.144306182861385], [-61.724861145019474, 17.144306182861385], [-61.724861145019474, 17.144027709960994], [-61.725139617919865, 17.144027709960994], [-61.725139617919865, 17.143472671508846], [-61.725418090820256, 17.143472671508846], [-61.725418090820256, 17.143194198608455], [-61.72569274902344, 17.143194198608455], [-61.72569274902344, 17.14263916015625], [-61.72763824462879, 17.14263916015625], [-61.72763824462879, 17.143472671508846], [-61.72708511352539, 17.143472671508846], [-61.72708511352539, 17.143749237060604], [-61.726806640625, 17.143749237060604], [-61.726806640625, 17.144027709960994], [-61.72624969482422, 17.144027709960994], [-61.72624969482422, 17.144306182861385], [-61.726806640625, 17.144306182861385], [-61.726806640625, 17.1445827484132], [-61.727359771728516, 17.1445827484132], [-61.727359771728516, 17.14486122131359], [-61.72763824462879, 17.14486122131359], [-61.72763824462879, 17.14541625976574], [-61.727359771728516, 17.14541625976574], [-61.727359771728516, 17.145971298217773], [-61.726806640625, 17.145971298217773], [-61.726806640625, 17.146249771118107], [-61.72597122192383, 17.146249771118107], [-61.72597122192383, 17.145971298217773], [-61.725418090820256, 17.145971298217773], [-61.725418090820256, 17.14569473266613], [-61.724861145019474, 17.14569473266613], [-61.724861145019474, 17.14541625976574], [-61.724582672119084, 17.14541625976574], [-61.724582672119084, 17.14513969421398], [-61.724304199218636, 17.14513969421398], [-61.724304199218636, 17.14541625976574], [-61.724029541015625, 17.14541625976574], [-61.724029541015625, 17.14569473266613], [-61.724304199218636, 17.14569473266613], [-61.724304199218636, 17.146528244018498], [-61.724029541015625, 17.146528244018498], [-61.724029541015625, 17.147083282470703], [-61.724304199218636, 17.147083282470703], [-61.724304199218636, 17.147916793823242], [-61.724582672119084, 17.147916793823242], [-61.724582672119084, 17.148471832275447], [-61.724304199218636, 17.148471832275447], [-61.724304199218636, 17.149305343627987], [-61.723472595214844, 17.149305343627987]]], [[[-61.73041534423828, 17.137916564941463], [-61.73041534423828, 17.137361526489315], [-61.730140686035156, 17.137361526489315], [-61.730140686035156, 17.13680648803711], [-61.729862213134766, 17.13680648803711], [-61.729862213134766, 17.135139465331974], [-61.73041534423828, 17.135139465331974], [-61.73041534423828, 17.13458251953125], [-61.729305267333984, 17.13458251953125], [-61.729305267333984, 17.135139465331974], [-61.728748321533146, 17.135139465331974], [-61.728748321533146, 17.134859085083008], [-61.72847366333002, 17.134859085083008], [-61.72847366333002, 17.134305953979606], [-61.728748321533146, 17.134305953979606], [-61.728748321533146, 17.133750915527457], [-61.729026794433594, 17.133750915527457], [-61.729026794433594, 17.133193969726676], [-61.729305267333984, 17.133193969726676], [-61.729305267333984, 17.13291740417486], [-61.729583740234375, 17.13291740417486], [-61.729583740234375, 17.13263893127447], [-61.730140686035156, 17.13263893127447], [-61.730140686035156, 17.13291740417486], [-61.73041534423828, 17.13291740417486], [-61.73041534423828, 17.133472442627067], [-61.73069381713856, 17.133472442627067], [-61.73069381713856, 17.133750915527457], [-61.73152923583979, 17.133750915527457], [-61.73152923583979, 17.134305953979606], [-61.73180389404291, 17.134305953979606], [-61.73180389404291, 17.137081146240348], [-61.73152923583979, 17.137081146240348], [-61.73152923583979, 17.137361526489315], [-61.731250762939396, 17.137361526489315], [-61.731250762939396, 17.137916564941463], [-61.73041534423828, 17.137916564941463]]], [[[-61.73331832885742, 17.090139389038086], [-61.733932495117074, 17.0884685516358], [-61.73494338989258, 17.086141586303768], [-61.73949432373047, 17.086444854736328], [-61.73969650268555, 17.08497810363781], [-61.74060821533192, 17.08270263671875], [-61.74131393432617, 17.080730438232422], [-61.74207305908203, 17.080274581909237], [-61.742427825927734, 17.078250885009766], [-61.74252700805664, 17.074306488037166], [-61.74313735961914, 17.072130203247127], [-61.74392700195307, 17.069824218750057], [-61.7451286315918, 17.067230224609318], [-61.74653625488281, 17.064470291137695], [-61.74664306640625, 17.064260482788143], [-61.756065368652344, 17.064451217651424], [-61.758087158203125, 17.063945770263672], [-61.762134552001896, 17.062175750732365], [-61.76510620117182, 17.06097412109375], [-61.766242980956974, 17.060403823852482], [-61.76718902587885, 17.0598983764649], [-61.7682647705077, 17.0600261688233], [-61.769657135009766, 17.060911178588867], [-61.77060317993164, 17.061037063598633], [-61.77202606201172, 17.06132125854498], [-61.774429321289006, 17.061574935913143], [-61.77550506591791, 17.061637878418026], [-61.77588272094721, 17.062461853027287], [-61.781761169433594, 17.062774658203182], [-61.786567687988224, 17.063028335571403], [-61.78890609741211, 17.06321716308588], [-61.79263687133789, 17.06365966796875], [-61.794532775878906, 17.063976287841854], [-61.794841766357365, 17.06412124633789], [-61.79477691650379, 17.06608581542963], [-61.7943229675293, 17.06933212280279], [-61.7943229675293, 17.07167243957514], [-61.79402160644531, 17.072656631469727], [-61.79405975341797, 17.074884414672965], [-61.79337692260742, 17.076620101928768], [-61.79262924194336, 17.078872680664006], [-61.792549133300724, 17.079111099243107], [-61.79156494140625, 17.08100128173828], [-61.79133987426752, 17.081983566284237], [-61.79133987426752, 17.083948135376033], [-61.79118728637695, 17.0875759124757], [-61.78741073608393, 17.08802604675293], [-61.786579132079964, 17.08893394470209], [-61.78544616699219, 17.089462280273494], [-61.783180236816406, 17.090066909790096], [-61.78144454956055, 17.090219497680664], [-61.78106689453125, 17.09044456481928], [-61.781368255615234, 17.096183776855582], [-61.78257751464844, 17.096561431884766], [-61.78340911865229, 17.09739303588873], [-61.78424072265625, 17.09799766540533], [-61.78438949584961, 17.111820220947266], [-61.77774429321289, 17.111820220947266], [-61.77736282348633, 17.11194229125988], [-61.77736282348633, 17.111803054809627], [-61.77680587768555, 17.111803054809627], [-61.77680587768555, 17.11152839660639], [-61.7765274047851, 17.11152839660639], [-61.7765274047851, 17.111249923705998], [-61.77569580078119, 17.111249923705998], [-61.77569580078119, 17.11152839660639], [-61.775417327880746, 17.11152839660639], [-61.775417327880746, 17.111803054809627], [-61.77486038208008, 17.111803054809627], [-61.77486038208008, 17.112081527710018], [-61.77402877807617, 17.112081527710018], [-61.77402877807617, 17.11236381530773], [-61.77347183227539, 17.11236381530773], [-61.77347183227539, 17.112638473510742], [-61.77291488647455, 17.112638473510742], [-61.77291488647455, 17.112916946411133], [-61.77264022827143, 17.112916946411133], [-61.77264022827143, 17.113473892211914], [-61.77236175537104, 17.113473892211914], [-61.77236175537104, 17.11375045776373], [-61.77208328247059, 17.11375045776373], [-61.77208328247059, 17.11402511596691], [-61.77152633666992, 17.11402511596691], [-61.77152633666992, 17.1143035888673], [-61.770973205566406, 17.1143035888673], [-61.770973205566406, 17.114585876464844], [-61.770416259765625, 17.114585876464844], [-61.770416259765625, 17.114860534668082], [-61.77013778686518, 17.114860534668082], [-61.77013778686518, 17.115417480468807], [-61.768470764160156, 17.115417480468807], [-61.768470764160156, 17.115139007568416], [-61.76736068725586, 17.115139007568416], [-61.76736068725586, 17.114860534668082], [-61.76680374145502, 17.114860534668082], [-61.76680374145502, 17.114585876464844], [-61.766529083251896, 17.114585876464844], [-61.766529083251896, 17.11375045776373], [-61.76680374145502, 17.11375045776373], [-61.76680374145502, 17.113473892211914], [-61.76708221435547, 17.113473892211914], [-61.76708221435547, 17.113195419311523], [-61.76763916015625, 17.113195419311523], [-61.76763916015625, 17.112916946411133], [-61.76819610595703, 17.112916946411133], [-61.76819610595703, 17.112638473510742], [-61.769027709960824, 17.112638473510742], [-61.769027709960824, 17.11236381530773], [-61.76958465576166, 17.11236381530773], [-61.76958465576166, 17.112081527710018], [-61.76985931396479, 17.112081527710018], [-61.76985931396479, 17.111249923705998], [-61.77013778686518, 17.111249923705998], [-61.77013778686518, 17.11069488525402], [-61.76930618286127, 17.11069488525402], [-61.76930618286127, 17.110971450805664], [-61.76791763305664, 17.110971450805664], [-61.76791763305664, 17.111249923705998], [-61.76736068725586, 17.111249923705998], [-61.76736068725586, 17.11152839660639], [-61.766529083251896, 17.11152839660639], [-61.766529083251896, 17.111803054809627], [-61.76569366455067, 17.111803054809627], [-61.76569366455067, 17.112081527710018], [-61.765140533447266, 17.112081527710018], [-61.765140533447266, 17.11236381530773], [-61.76291656494135, 17.11236381530773], [-61.76291656494135, 17.112081527710018], [-61.7626380920409, 17.112081527710018], [-61.7626380920409, 17.111803054809627], [-61.76124954223633, 17.111803054809627], [-61.76124954223633, 17.112081527710018], [-61.76069259643555, 17.112081527710018], [-61.76069259643555, 17.11375045776373], [-61.760417938232365, 17.11375045776373], [-61.760417938232365, 17.114585876464844], [-61.760139465331974, 17.114585876464844], [-61.760139465331974, 17.11652755737299], [-61.760417938232365, 17.11652755737299], [-61.760417938232365, 17.116807937622127], [-61.760139465331974, 17.116807937622127], [-61.760139465331974, 17.117082595825195], [-61.760417938232365, 17.117082595825195], [-61.760417938232365, 17.117916107177734], [-61.76069259643555, 17.117916107177734], [-61.76069259643555, 17.119028091430664], [-61.760417938232365, 17.119028091430664], [-61.760417938232365, 17.11986160278326], [-61.76069259643555, 17.11986160278326], [-61.76069259643555, 17.12041664123541], [-61.76097106933594, 17.12041664123541], [-61.76097106933594, 17.120971679687614], [-61.76124954223633, 17.120971679687614], [-61.76124954223633, 17.121528625488338], [-61.76152801513672, 17.121528625488338], [-61.76152801513672, 17.121805191040153], [-61.762359619140625, 17.121805191040153], [-61.762359619140625, 17.121528625488338], [-61.7626380920409, 17.121528625488338], [-61.7626380920409, 17.121250152588004], [-61.76291656494135, 17.121250152588004], [-61.76291656494135, 17.120971679687614], [-61.764583587646484, 17.120971679687614], [-61.764583587646484, 17.121528625488338], [-61.764862060546875, 17.121528625488338], [-61.764862060546875, 17.12263870239252], [-61.764583587646484, 17.12263870239252], [-61.764583587646484, 17.122917175292912], [-61.764305114746094, 17.122917175292912], [-61.764305114746094, 17.123470306396484], [-61.7640266418457, 17.123470306396484], [-61.7640266418457, 17.123750686645508], [-61.76347351074213, 17.123750686645508], [-61.76347351074213, 17.124027252197266], [-61.76291656494135, 17.124027252197266], [-61.76291656494135, 17.124305725097656], [-61.7626380920409, 17.124305725097656], [-61.7626380920409, 17.12458229064947], [-61.76180648803711, 17.12458229064947], [-61.76180648803711, 17.12486076354986], [-61.76152801513672, 17.12486076354986], [-61.76152801513672, 17.12541580200201], [-61.76124954223633, 17.12541580200201], [-61.76124954223633, 17.125974655151367], [-61.76097106933594, 17.125974655151367], [-61.76097106933594, 17.12624931335455], [-61.760139465331974, 17.12624931335455], [-61.760139465331974, 17.12652778625494], [-61.75958251953119, 17.12652778625494], [-61.75958251953119, 17.12680625915533], [-61.758750915527344, 17.12680625915533], [-61.758750915527344, 17.12708473205572], [-61.75819396972656, 17.12708473205572], [-61.75819396972656, 17.127361297607536], [-61.7573623657226, 17.127361297607536], [-61.7573623657226, 17.127639770507926], [-61.75680541992182, 17.127639770507926], [-61.75680541992182, 17.12819671630865], [-61.75652694702143, 17.12819671630865], [-61.75652694702143, 17.129028320312443], [-61.75624847412098, 17.129028320312443], [-61.75624847412098, 17.12958335876465], [-61.7551383972168, 17.12958335876465], [-61.7551383972168, 17.129306793212834], [-61.754306793212834, 17.129306793212834], [-61.754306793212834, 17.12958335876465], [-61.75402832031244, 17.12958335876465], [-61.75402832031244, 17.130138397216797], [-61.75374984741205, 17.130138397216797], [-61.75374984741205, 17.130418777465763], [-61.75347137451166, 17.130418777465763], [-61.75347137451166, 17.130695343017578], [-61.75319290161127, 17.130695343017578], [-61.75319290161127, 17.130971908569393], [-61.7529182434082, 17.130971908569393], [-61.7529182434082, 17.131528854370117], [-61.75263977050781, 17.131528854370117], [-61.75263977050781, 17.131805419921932], [-61.75208282470703, 17.131805419921932], [-61.75208282470703, 17.132083892822322], [-61.75180435180664, 17.132083892822322], [-61.75180435180664, 17.13263893127447], [-61.75152587890625, 17.13263893127447], [-61.75152587890625, 17.13291740417486], [-61.751251220703125, 17.13291740417486], [-61.751251220703125, 17.133750915527457], [-61.75097274780268, 17.133750915527457], [-61.75097274780268, 17.135139465331974], [-61.751251220703125, 17.135139465331974], [-61.751251220703125, 17.13541603088379], [-61.75152587890625, 17.13541603088379], [-61.75152587890625, 17.136249542236328], [-61.751251220703125, 17.136249542236328], [-61.751251220703125, 17.13652801513672], [-61.750415802001896, 17.13652801513672], [-61.750415802001896, 17.136249542236328], [-61.74958419799805, 17.136249542236328], [-61.74958419799805, 17.13652801513672], [-61.749305725097656, 17.13652801513672], [-61.749305725097656, 17.137081146240348], [-61.749027252197266, 17.137081146240348], [-61.749027252197266, 17.137638092041072], [-61.74791717529291, 17.137638092041072], [-61.74791717529291, 17.137081146240348], [-61.74763870239252, 17.137081146240348], [-61.74763870239252, 17.13680648803711], [-61.74791717529291, 17.13680648803711], [-61.74791717529291, 17.13541603088379], [-61.74819564819336, 17.13541603088379], [-61.74819564819336, 17.134027481079045], [-61.74763870239252, 17.134027481079045], [-61.74763870239252, 17.133750915527457], [-61.74736022949213, 17.133750915527457], [-61.74736022949213, 17.133472442627067], [-61.74680709838856, 17.133472442627067], [-61.74680709838856, 17.133193969726676], [-61.74652862548828, 17.133193969726676], [-61.74652862548828, 17.13263893127447], [-61.74625015258789, 17.13263893127447], [-61.74625015258789, 17.132083892822322], [-61.7459716796875, 17.132083892822322], [-61.7459716796875, 17.131528854370117], [-61.74569320678711, 17.131528854370117], [-61.74569320678711, 17.12986183166504], [-61.74708175659174, 17.12986183166504], [-61.74708175659174, 17.130138397216797], [-61.74736022949213, 17.130138397216797], [-61.74736022949213, 17.12958335876465], [-61.74763870239252, 17.12958335876465], [-61.74763870239252, 17.129306793212834], [-61.74791717529291, 17.129306793212834], [-61.74791717529291, 17.129028320312443], [-61.74819564819336, 17.129028320312443], [-61.74819564819336, 17.12847137451172], [-61.748748779296875, 17.12847137451172], [-61.748748779296875, 17.127914428710938], [-61.749305725097656, 17.127914428710938], [-61.749305725097656, 17.127639770507926], [-61.74958419799805, 17.127639770507926], [-61.74958419799805, 17.12708473205572], [-61.750137329101506, 17.12708473205572], [-61.750137329101506, 17.12680625915533], [-61.750415802001896, 17.12680625915533], [-61.750415802001896, 17.12652778625494], [-61.75069427490229, 17.12652778625494], [-61.75069427490229, 17.12624931335455], [-61.751251220703125, 17.12624931335455], [-61.751251220703125, 17.125974655151367], [-61.75208282470703, 17.125974655151367], [-61.75208282470703, 17.125692367553825], [-61.75263977050781, 17.125692367553825], [-61.75263977050781, 17.12541580200201], [-61.7529182434082, 17.12541580200201], [-61.7529182434082, 17.125139236450195], [-61.75319290161127, 17.125139236450195], [-61.75319290161127, 17.12486076354986], [-61.75347137451166, 17.12486076354986], [-61.75347137451166, 17.124027252197266], [-61.75374984741205, 17.124027252197266], [-61.75374984741205, 17.123470306396484], [-61.75402832031244, 17.123470306396484], [-61.75402832031244, 17.12236022949213], [-61.75374984741205, 17.12236022949213], [-61.75374984741205, 17.120971679687614], [-61.75319290161127, 17.120971679687614], [-61.75319290161127, 17.1206951141358], [-61.75263977050781, 17.1206951141358], [-61.75263977050781, 17.12041664123541], [-61.75208282470703, 17.12041664123541], [-61.75208282470703, 17.120138168335018], [-61.75180435180664, 17.120138168335018], [-61.75180435180664, 17.119028091430664], [-61.75208282470703, 17.119028091430664], [-61.75208282470703, 17.117916107177734], [-61.75180435180664, 17.117916107177734], [-61.75180435180664, 17.117082595825195], [-61.75152587890625, 17.117082595825195], [-61.75152587890625, 17.115695953369197], [-61.751251220703125, 17.115695953369197], [-61.751251220703125, 17.115139007568416], [-61.75097274780268, 17.115139007568416], [-61.75097274780268, 17.114585876464844], [-61.750415802001896, 17.114585876464844], [-61.750415802001896, 17.11402511596691], [-61.750137329101506, 17.11402511596691], [-61.750137329101506, 17.1143035888673], [-61.749862670898324, 17.1143035888673], [-61.749862670898324, 17.114585876464844], [-61.74958419799805, 17.114585876464844], [-61.74958419799805, 17.114860534668082], [-61.749027252197266, 17.114860534668082], [-61.749027252197266, 17.115139007568416], [-61.74847412109375, 17.115139007568416], [-61.74847412109375, 17.114860534668082], [-61.74763870239252, 17.114860534668082], [-61.74763870239252, 17.115139007568416], [-61.74708175659174, 17.115139007568416], [-61.74708175659174, 17.115695953369197], [-61.74680709838856, 17.115695953369197], [-61.74680709838856, 17.116807937622127], [-61.74652862548828, 17.116807937622127], [-61.74652862548828, 17.11763954162592], [-61.74625015258789, 17.11763954162592], [-61.74625015258789, 17.118194580078125], [-61.74652862548828, 17.118194580078125], [-61.74652862548828, 17.120971679687614], [-61.74625015258789, 17.120971679687614], [-61.74625015258789, 17.121250152588004], [-61.745418548583984, 17.121250152588004], [-61.745418548583984, 17.120971679687614], [-61.745140075683594, 17.120971679687614], [-61.745140075683594, 17.1206951141358], [-61.7448616027832, 17.1206951141358], [-61.7448616027832, 17.120138168335018], [-61.7434730529784, 17.120138168335018], [-61.7434730529784, 17.12041664123541], [-61.742916107177734, 17.12041664123541], [-61.742916107177734, 17.1206951141358], [-61.742637634277344, 17.1206951141358], [-61.742637634277344, 17.120971679687614], [-61.74208450317383, 17.120971679687614], [-61.74208450317383, 17.121250152588004], [-61.74152755737299, 17.121250152588004], [-61.74152755737299, 17.121528625488338], [-61.74097061157221, 17.121528625488338], [-61.74097061157221, 17.121805191040153], [-61.73958206176758, 17.121805191040153], [-61.73958206176758, 17.121528625488338], [-61.73902893066406, 17.121528625488338], [-61.73902893066406, 17.121250152588004], [-61.73708343505848, 17.121250152588004], [-61.73708343505848, 17.121528625488338], [-61.7368049621582, 17.121528625488338], [-61.7368049621582, 17.121805191040153], [-61.73652648925781, 17.121805191040153], [-61.73652648925781, 17.122083663940543], [-61.73625183105469, 17.122083663940543], [-61.73625183105469, 17.12236022949213], [-61.7359733581543, 17.12236022949213], [-61.7359733581543, 17.12263870239252], [-61.735694885253906, 17.12263870239252], [-61.735694885253906, 17.122917175292912], [-61.735416412353516, 17.122917175292912], [-61.735416412353516, 17.123470306396484], [-61.73513793945307, 17.123470306396484], [-61.73513793945307, 17.123750686645508], [-61.73485946655268, 17.123750686645508], [-61.73485946655268, 17.124027252197266], [-61.73458480834955, 17.124027252197266], [-61.73458480834955, 17.124305725097656], [-61.734027862548714, 17.124305725097656], [-61.734027862548714, 17.12458229064947], [-61.73374938964844, 17.12458229064947], [-61.73374938964844, 17.125139236450195], [-61.73347091674805, 17.125139236450195], [-61.73347091674805, 17.12541580200201], [-61.73319625854492, 17.12541580200201], [-61.73319625854492, 17.125692367553825], [-61.73291778564453, 17.125692367553825], [-61.73291778564453, 17.125974655151367], [-61.73263931274414, 17.125974655151367], [-61.73263931274414, 17.12541580200201], [-61.73236083984375, 17.12541580200201], [-61.73236083984375, 17.12486076354986], [-61.73180389404291, 17.12486076354986], [-61.73180389404291, 17.12458229064947], [-61.73069381713856, 17.12458229064947], [-61.73069381713856, 17.12486076354986], [-61.730140686035156, 17.12486076354986], [-61.730140686035156, 17.125692367553825], [-61.729862213134766, 17.125692367553825], [-61.729862213134766, 17.125974655151367], [-61.729583740234375, 17.125974655151367], [-61.729583740234375, 17.12624931335455], [-61.72791671752924, 17.12624931335455], [-61.72791671752924, 17.12680625915533], [-61.72763824462879, 17.12680625915533], [-61.72763824462879, 17.127361297607536], [-61.727359771728516, 17.127361297607536], [-61.727359771728516, 17.130971908569393], [-61.72708511352539, 17.130971908569393], [-61.72708511352539, 17.131250381469783], [-61.72569274902344, 17.131250381469783], [-61.72569274902344, 17.131528854370117], [-61.725139617919865, 17.131528854370117], [-61.725139617919865, 17.131805419921932], [-61.724861145019474, 17.131805419921932], [-61.724861145019474, 17.132083892822322], [-61.724029541015625, 17.132083892822322], [-61.724029541015625, 17.131805419921932], [-61.723751068115234, 17.131805419921932], [-61.723751068115234, 17.130695343017578], [-61.72263717651367, 17.130695343017578], [-61.72263717651367, 17.130418777465763], [-61.72152709960932, 17.130418777465763], [-61.72152709960932, 17.130695343017578], [-61.72041702270508, 17.130695343017578], [-61.72041702270508, 17.130418777465763], [-61.7198600769043, 17.130418777465763], [-61.7198600769043, 17.12986183166504], [-61.719028472900334, 17.12986183166504], [-61.719028472900334, 17.12958335876465], [-61.71874999999994, 17.12958335876465], [-61.71874999999994, 17.129028320312443], [-61.71847152709955, 17.129028320312443], [-61.71847152709955, 17.128749847412053], [-61.71819305419916, 17.128749847412053], [-61.71819305419916, 17.127361297607536], [-61.71847152709955, 17.127361297607536], [-61.71847152709955, 17.12708473205572], [-61.71874999999994, 17.12708473205572], [-61.71874999999994, 17.12680625915533], [-61.719306945800724, 17.12680625915533], [-61.719306945800724, 17.12652778625494], [-61.7198600769043, 17.12652778625494], [-61.7198600769043, 17.12624931335455], [-61.72069549560547, 17.12624931335455], [-61.72069549560547, 17.125974655151367], [-61.72124862670887, 17.125974655151367], [-61.72124862670887, 17.125692367553825], [-61.72180557250971, 17.125692367553825], [-61.72180557250971, 17.12541580200201], [-61.7220840454101, 17.12541580200201], [-61.7220840454101, 17.125139236450195], [-61.72236251831049, 17.125139236450195], [-61.72236251831049, 17.12486076354986], [-61.72263717651367, 17.12486076354986], [-61.72263717651367, 17.12458229064947], [-61.72319412231445, 17.12458229064947], [-61.72319412231445, 17.124305725097656], [-61.724029541015625, 17.124305725097656], [-61.724029541015625, 17.124027252197266], [-61.724304199218636, 17.124027252197266], [-61.724304199218636, 17.123750686645508], [-61.725139617919865, 17.123750686645508], [-61.725139617919865, 17.123193740844727], [-61.725418090820256, 17.123193740844727], [-61.725418090820256, 17.122917175292912], [-61.72569274902344, 17.122917175292912], [-61.72569274902344, 17.121805191040153], [-61.72624969482422, 17.121805191040153], [-61.72624969482422, 17.121528625488338], [-61.72652816772461, 17.121528625488338], [-61.72652816772461, 17.121250152588004], [-61.72791671752924, 17.121250152588004], [-61.72791671752924, 17.1206951141358], [-61.72819519042963, 17.1206951141358], [-61.72819519042963, 17.12041664123541], [-61.72847366333002, 17.12041664123541], [-61.72847366333002, 17.120138168335018], [-61.728748321533146, 17.120138168335018], [-61.728748321533146, 17.11986160278326], [-61.729026794433594, 17.11986160278326], [-61.729026794433594, 17.11958312988287], [-61.729862213134766, 17.11958312988287], [-61.729862213134766, 17.11930465698248], [-61.730972290039006, 17.11930465698248], [-61.730972290039006, 17.119028091430664], [-61.73152923583979, 17.119028091430664], [-61.73152923583979, 17.118749618530273], [-61.73208236694336, 17.118749618530273], [-61.73208236694336, 17.118473052978516], [-61.73263931274414, 17.118473052978516], [-61.73263931274414, 17.118194580078125], [-61.73291778564453, 17.118194580078125], [-61.73291778564453, 17.117916107177734], [-61.73485946655268, 17.117916107177734], [-61.73485946655268, 17.118194580078125], [-61.735416412353516, 17.118194580078125], [-61.735416412353516, 17.118473052978516], [-61.7359733581543, 17.118473052978516], [-61.7359733581543, 17.118194580078125], [-61.73736190795893, 17.118194580078125], [-61.73736190795893, 17.117916107177734], [-61.73791503906244, 17.117916107177734], [-61.73791503906244, 17.11763954162592], [-61.73847198486328, 17.11763954162592], [-61.73847198486328, 17.117361068725586], [-61.73875045776367, 17.117361068725586], [-61.73875045776367, 17.117082595825195], [-61.73902893066406, 17.117082595825195], [-61.73902893066406, 17.116807937622127], [-61.73958206176758, 17.116807937622127], [-61.73958206176758, 17.11652755737299], [-61.73986053466797, 17.11652755737299], [-61.73986053466797, 17.1162490844726], [-61.740695953369084, 17.1162490844726], [-61.740695953369084, 17.115972518921012], [-61.74097061157221, 17.115972518921012], [-61.74097061157221, 17.115695953369197], [-61.742637634277344, 17.115695953369197], [-61.742637634277344, 17.115972518921012], [-61.742916107177734, 17.115972518921012], [-61.742916107177734, 17.1162490844726], [-61.7434730529784, 17.1162490844726], [-61.7434730529784, 17.115972518921012], [-61.74375152587885, 17.115972518921012], [-61.74375152587885, 17.115695953369197], [-61.744026184081974, 17.115695953369197], [-61.744026184081974, 17.115417480468807], [-61.744304656982365, 17.115417480468807], [-61.744304656982365, 17.115139007568416], [-61.744583129882756, 17.115139007568416], [-61.744583129882756, 17.114860534668082], [-61.745140075683594, 17.114860534668082], [-61.745140075683594, 17.115139007568416], [-61.74625015258789, 17.115139007568416], [-61.74625015258789, 17.1143035888673], [-61.7459716796875, 17.1143035888673], [-61.7459716796875, 17.11402511596691], [-61.74569320678711, 17.11402511596691], [-61.74569320678711, 17.112638473510742], [-61.745418548583984, 17.112638473510742], [-61.745418548583984, 17.112081527710018], [-61.745140075683594, 17.112081527710018], [-61.745140075683594, 17.111803054809627], [-61.7448616027832, 17.111803054809627], [-61.7448616027832, 17.111249923705998], [-61.744583129882756, 17.111249923705998], [-61.744583129882756, 17.110971450805664], [-61.744304656982365, 17.110971450805664], [-61.744304656982365, 17.11069488525402], [-61.744026184081974, 17.11069488525402], [-61.744026184081974, 17.11041641235363], [-61.74375152587885, 17.11041641235363], [-61.74375152587885, 17.110137939453068], [-61.743194580078125, 17.110137939453068], [-61.743194580078125, 17.10986137390148], [-61.742916107177734, 17.10986137390148], [-61.742916107177734, 17.10958290100109], [-61.74013900756836, 17.10958290100109], [-61.74013900756836, 17.10986137390148], [-61.73958206176758, 17.10986137390148], [-61.73958206176758, 17.10958290100109], [-61.73736190795893, 17.10958290100109], [-61.73736190795893, 17.109306335449276], [-61.7359733581543, 17.109306335449276], [-61.7359733581543, 17.10958290100109], [-61.735694885253906, 17.10958290100109], [-61.735694885253906, 17.110137939453068], [-61.73513793945307, 17.110137939453068], [-61.73513793945307, 17.11041641235363], [-61.73485946655268, 17.11041641235363], [-61.73485946655268, 17.110137939453068], [-61.73458480834955, 17.110137939453068], [-61.73458480834955, 17.10986137390148], [-61.73430633544916, 17.10986137390148], [-61.73430633544916, 17.10958290100109], [-61.734027862548714, 17.10958290100109], [-61.734027862548714, 17.110137939453068], [-61.73430633544916, 17.110137939453068], [-61.73430633544916, 17.11041641235363], [-61.73458480834955, 17.11041641235363], [-61.73458480834955, 17.110971450805664], [-61.73319625854492, 17.110971450805664], [-61.73319625854492, 17.11069488525402], [-61.73291778564453, 17.11069488525402], [-61.73291778564453, 17.11041641235363], [-61.73263931274414, 17.11041641235363], [-61.73263931274414, 17.110137939453068], [-61.730972290039006, 17.110137939453068], [-61.730972290039006, 17.11041641235363], [-61.729862213134766, 17.11041641235363], [-61.729862213134766, 17.11069488525402], [-61.729583740234375, 17.11069488525402], [-61.729583740234375, 17.110137939453068], [-61.729862213134766, 17.110137939453068], [-61.729862213134766, 17.10986137390148], [-61.73041534423828, 17.10986137390148], [-61.73041534423828, 17.10958290100109], [-61.73069381713856, 17.10958290100109], [-61.73069381713856, 17.108472824096737], [-61.73041534423828, 17.108472824096737], [-61.73041534423828, 17.108194351196346], [-61.730140686035156, 17.108194351196346], [-61.730140686035156, 17.107915878295955], [-61.729583740234375, 17.107915878295955], [-61.729583740234375, 17.108472824096737], [-61.729305267333984, 17.108472824096737], [-61.729305267333984, 17.108749389648494], [-61.728748321533146, 17.108749389648494], [-61.728748321533146, 17.108472824096737], [-61.72847366333002, 17.108472824096737], [-61.72847366333002, 17.10763931274414], [-61.72791671752924, 17.10763931274414], [-61.72791671752924, 17.107360839843807], [-61.72708511352539, 17.107360839843807], [-61.72708511352539, 17.107084274291992], [-61.72597122192383, 17.107084274291992], [-61.72597122192383, 17.106250762939453], [-61.72624969482422, 17.106250762939453], [-61.72624969482422, 17.105417251586857], [-61.72652816772461, 17.105417251586857], [-61.72652816772461, 17.105138778686467], [-61.726806640625, 17.105138778686467], [-61.726806640625, 17.104860305786076], [-61.727359771728516, 17.104860305786076], [-61.727359771728516, 17.10458374023449], [-61.72791671752924, 17.10458374023449], [-61.72791671752924, 17.104305267334098], [-61.729305267333984, 17.104305267334098], [-61.729305267333984, 17.104028701782283], [-61.730140686035156, 17.104028701782283], [-61.730140686035156, 17.10375022888195], [-61.730972290039006, 17.10375022888195], [-61.730972290039006, 17.103195190429744], [-61.731250762939396, 17.103195190429744], [-61.731250762939396, 17.102916717529354], [-61.730972290039006, 17.102916717529354], [-61.730972290039006, 17.101806640625], [-61.73069381713856, 17.101806640625], [-61.73069381713856, 17.10124969482422], [-61.73041534423828, 17.10124969482422], [-61.73041534423828, 17.10097312927246], [-61.730140686035156, 17.10097312927246], [-61.730140686035156, 17.100696563720646], [-61.729583740234375, 17.100696563720646], [-61.729583740234375, 17.099584579467887], [-61.730972290039006, 17.099584579467887], [-61.730972290039006, 17.09930419921875], [-61.73208236694336, 17.09930419921875], [-61.73208236694336, 17.099027633666935], [-61.73236083984375, 17.099027633666935], [-61.73236083984375, 17.098749160766545], [-61.73263931274414, 17.098749160766545], [-61.73263931274414, 17.09819221496582], [-61.73291778564453, 17.09819221496582], [-61.73291778564453, 17.097360610962028], [-61.73319625854492, 17.097360610962028], [-61.73319625854492, 17.096805572509822], [-61.73291778564453, 17.096805572509822], [-61.73291778564453, 17.096527099609432], [-61.73263931274414, 17.096527099609432], [-61.73263931274414, 17.09597015380865], [-61.73236083984375, 17.09597015380865], [-61.73236083984375, 17.095693588256893], [-61.73263931274414, 17.095693588256893], [-61.73263931274414, 17.095138549804688], [-61.73291778564453, 17.095138549804688], [-61.73291778564453, 17.09430503845215], [-61.73319625854492, 17.09430503845215], [-61.73319625854492, 17.093194961547965], [-61.73347091674805, 17.093194961547965], [-61.73347091674805, 17.090139389038086], [-61.73331832885742, 17.090139389038086]]], [[[-61.71263885498041, 17.11236381530773], [-61.71263885498041, 17.112081527710018], [-61.71236038208002, 17.112081527710018], [-61.71236038208002, 17.11152839660639], [-61.71263885498041, 17.11152839660639], [-61.71263885498041, 17.111249923705998], [-61.71319580078125, 17.111249923705998], [-61.71319580078125, 17.11069488525402], [-61.713470458984375, 17.11069488525402], [-61.713470458984375, 17.10986137390148], [-61.713748931884766, 17.10986137390148], [-61.713748931884766, 17.109306335449276], [-61.715137481689396, 17.109306335449276], [-61.715137481689396, 17.108749389648494], [-61.71569442749018, 17.108749389648494], [-61.71569442749018, 17.108472824096737], [-61.71597290039057, 17.108472824096737], [-61.71597290039057, 17.108194351196346], [-61.716251373291016, 17.108194351196346], [-61.716251373291016, 17.107915878295955], [-61.71652603149414, 17.107915878295955], [-61.71652603149414, 17.10763931274414], [-61.71736145019531, 17.10763931274414], [-61.71736145019531, 17.107360839843807], [-61.719306945800724, 17.107360839843807], [-61.719306945800724, 17.107084274291992], [-61.719581604003906, 17.107084274291992], [-61.719581604003906, 17.1068058013916], [-61.72013854980469, 17.1068058013916], [-61.72013854980469, 17.107084274291992], [-61.72041702270508, 17.107084274291992], [-61.72041702270508, 17.107360839843807], [-61.72152709960932, 17.107360839843807], [-61.72152709960932, 17.10763931274414], [-61.7220840454101, 17.10763931274414], [-61.7220840454101, 17.107360839843807], [-61.72236251831049, 17.107360839843807], [-61.72236251831049, 17.107084274291992], [-61.72291564941406, 17.107084274291992], [-61.72291564941406, 17.1068058013916], [-61.723472595214844, 17.1068058013916], [-61.723472595214844, 17.10652732849121], [-61.724029541015625, 17.10652732849121], [-61.724029541015625, 17.105972290039062], [-61.725418090820256, 17.105972290039062], [-61.725418090820256, 17.107360839843807], [-61.724861145019474, 17.107360839843807], [-61.724861145019474, 17.10763931274414], [-61.724304199218636, 17.10763931274414], [-61.724304199218636, 17.108749389648494], [-61.724582672119084, 17.108749389648494], [-61.724582672119084, 17.110137939453068], [-61.723751068115234, 17.110137939453068], [-61.723751068115234, 17.10986137390148], [-61.723472595214844, 17.10986137390148], [-61.723472595214844, 17.109306335449276], [-61.72319412231445, 17.109306335449276], [-61.72319412231445, 17.109027862548885], [-61.72236251831049, 17.109027862548885], [-61.72236251831049, 17.108749389648494], [-61.72180557250971, 17.108749389648494], [-61.72180557250971, 17.108472824096737], [-61.72152709960932, 17.108472824096737], [-61.72152709960932, 17.108194351196346], [-61.72041702270508, 17.108194351196346], [-61.72041702270508, 17.109027862548885], [-61.72013854980469, 17.109027862548885], [-61.72013854980469, 17.110137939453068], [-61.719028472900334, 17.110137939453068], [-61.719028472900334, 17.10958290100109], [-61.71874999999994, 17.10958290100109], [-61.71874999999994, 17.109027862548885], [-61.71847152709955, 17.109027862548885], [-61.71847152709955, 17.11041641235363], [-61.71819305419916, 17.11041641235363], [-61.71819305419916, 17.11069488525402], [-61.71708297729492, 17.11069488525402], [-61.71708297729492, 17.11041641235363], [-61.71680450439453, 17.11041641235363], [-61.71680450439453, 17.110137939453068], [-61.71652603149414, 17.110137939453068], [-61.71652603149414, 17.10986137390148], [-61.71569442749018, 17.10986137390148], [-61.71569442749018, 17.11041641235363], [-61.714862823486214, 17.11041641235363], [-61.714862823486214, 17.111249923705998], [-61.71458435058594, 17.111249923705998], [-61.71458435058594, 17.11152839660639], [-61.71430587768555, 17.11152839660639], [-61.71430587768555, 17.111803054809627], [-61.713748931884766, 17.111803054809627], [-61.713748931884766, 17.112081527710018], [-61.71319580078125, 17.112081527710018], [-61.71319580078125, 17.11236381530773], [-61.71263885498041, 17.11236381530773]]]]}}]}