{"type": "FeatureCollection", "features": [{"type": "Feature", "properties": {"country": "Comoros", "pcode": "KM114", "name": "Koni", "island": "Anjouan (Ndzouani)"}, "geometry": {"type": "Polygon", "coordinates": [[[44.520928000000026, -12.213649999999916], [44.521099000000106, -12.214540999999826], [44.521236999999985, -12.214817999999923], [44.521599000000094, -12.214919999999836], [44.52163200000018, -12.215201999999977], [44.5220240000001, -12.21521399999989], [44.52202300000005, -12.215393999999947], [44.521992000000125, -12.215625999999872], [44.522119000000146, -12.2158849999999], [44.522089000000165, -12.216076999999927], [44.521895000000086, -12.216228999999942], [44.52156100000019, -12.216481999999928], [44.52128500000009, -12.216711999999973], [44.52113800000018, -12.216925999999887], [44.52116000000001, -12.217145999999957], [44.521293000000185, -12.217484999999954], [44.52185300000019, -12.217524999999966], [44.521917000000144, -12.21765499999998], [44.52185200000008, -12.217784999999935], [44.52163400000018, -12.21802699999995], [44.521615, -12.218409999999949], [44.521745000000124, -12.219103999999959], [44.52185900000012, -12.219605999999942], [44.522254000000146, -12.219966999999883], [44.522504000000026, -12.220221999999922], [44.52289500000006, -12.220261999999877], [44.52316300000018, -12.220374999999876], [44.523565000000076, -12.220561999999916], [44.524225000000115, -12.220596999999884], [44.52441700000003, -12.220749999999839], [44.52458500000006, -12.22102099999995], [44.52470500000004, -12.221443999999963], [44.52482400000014, -12.222086999999874], [44.5250190000001, -12.222842999999898], [44.52520900000019, -12.223293999999896], [44.52538300000003, -12.223491999999965], [44.52619900000002, -12.22382099999993], [44.52646500000003, -12.224396999999954], [44.52684000000016, -12.225157999999965], [44.52727500000009, -12.225655999999958], [44.527714000000174, -12.225514999999916], [44.52782500000012, -12.225565999999958], [44.5280570000001, -12.225842999999884], [44.52837700000015, -12.226125999999852], [44.528439000000105, -12.226565999999934], [44.52873199999999, -12.227276999999958], [44.528742000000136, -12.227603999999928], [44.52854100000019, -12.228076999999871], [44.52828800000003, -12.22850499999987], [44.52789400000012, -12.228994999999827], [44.52765900000003, -12.229089999999871], [44.52745000000016, -12.22897699999993], [44.52725600000008, -12.22909999999996], [44.5270670000001, -12.229443999999944], [44.52679500000016, -12.230142999999941], [44.52665800000017, -12.230547999999885], [44.52662200000003, -12.230795999999884], [44.52652100000006, -12.231122999999968], [44.526560000000075, -12.23146099999991], [44.52686, -12.232098999999948], [44.527027000000146, -12.23252199999996], [44.52709500000009, -12.232927999999902], [44.52478500000012, -12.23276999999996], [44.52208000000013, -12.234291999999982], [44.520371000000125, -12.234670999999878], [44.516147000000046, -12.235140999999942], [44.511563000000194, -12.23570599999988], [44.50769800000012, -12.236175999999944], [44.505455000000154, -12.235886999999934], [44.4854620000001, -12.243772999999976], [44.47522400000014, -12.243946999999878], [44.4730790000001, -12.242416999999875], [44.46967000000012, -12.24202999999983], [44.46707400000008, -12.240880999999888], [44.46457000000004, -12.239349999999945], [44.464039000000184, -12.238299999999924], [44.46334200000007, -12.235245999999847], [44.46000000000009, -12.230610999999953], [44.45853400000016, -12.229513999999938], [44.46387500000009, -12.223607999999956], [44.468806000000086, -12.218138999999894], [44.47473800000006, -12.211508999999978], [44.47975000000014, -12.213901999999962], [44.48368800000003, -12.215720999999917], [44.489140000000134, -12.21935499999995], [44.50817700000016, -12.21948199999997], [44.515377000000115, -12.217298999999855], [44.51666700000004, -12.213443999999924], [44.52038900000019, -12.213332999999977], [44.520928000000026, -12.213649999999916]]]}}]}