{"type": "FeatureCollection", "features": [{"type": "Feature", "properties": {"country": "Comoros", "pcode": "KM111", "name": "Bambao Mtsanga", "island": "Anjouan (Ndzouani)"}, "geometry": {"type": "Polygon", "coordinates": [[[44.520928000000026, -12.213649999999916], [44.52038900000019, -12.213332999999977], [44.51666700000004, -12.213443999999924], [44.515377000000115, -12.217298999999855], [44.50817700000016, -12.21948199999997], [44.489140000000134, -12.21935499999995], [44.48368800000003, -12.215720999999917], [44.47975000000014, -12.213901999999962], [44.47473800000006, -12.211508999999978], [44.47476500000016, -12.207787999999937], [44.481173000000126, -12.203218999999876], [44.486503000000084, -12.198934999999892], [44.48815300000018, -12.19426199999998], [44.49230600000004, -12.191120999999953], [44.49268600000005, -12.188163999999972], [44.49047200000018, -12.187332999999967], [44.48452800000007, -12.181249999999977], [44.47938500000015, -12.17717099999993], [44.477150000000165, -12.175735999999915], [44.47376100000008, -12.172391999999945], [44.47317544300017, -12.171397344999946], [44.47095271900014, -12.167621721999922], [44.469769000000156, -12.165610999999899], [44.46771899999999, -12.163413999999932], [44.46683200000018, -12.161885999999981], [44.47528700000004, -12.160086999999919], [44.484733000000176, -12.157716999999934], [44.497145000000046, -12.154970999999932], [44.500402000000065, -12.153842999999938], [44.50078600000006, -12.154119999999864], [44.50086699999997, -12.154277999999977], [44.50097200000016, -12.155258999999944], [44.501063000000045, -12.155676999999969], [44.50120700000008, -12.15614499999998], [44.50143700000007, -12.156697999999892], [44.50179000000014, -12.157419999999945], [44.50208900000018, -12.158170999999925], [44.502595000000156, -12.158554999999978], [44.502939000000026, -12.158752999999933], [44.503083000000004, -12.15900199999993], [44.503076000000135, -12.1592839999999], [44.50302600000009, -12.15977399999997], [44.503125000000125, -12.15997699999997], [44.502859000000115, -12.160438999999826], [44.502897000000075, -12.161013999999966], [44.50298100000009, -12.161662999999919], [44.50308200000012, -12.162417999999946], [44.504182000000185, -12.164196999999888], [44.50473200000005, -12.166182999999933], [44.5048230000001, -12.166548999999975], [44.505531000000076, -12.168467999999962], [44.50641300000001, -12.170611999999892], [44.50705300000004, -12.171982999999898], [44.50776600000006, -12.173089999999945], [44.508213000000126, -12.17352499999987], [44.50911500000012, -12.174191999999891], [44.50945700000017, -12.174541999999917], [44.50959000000017, -12.174874999999929], [44.50972800000005, -12.175241999999912], [44.51008200000001, -12.175699999999892], [44.51051700000016, -12.176196999999888], [44.51100000000014, -12.176614999999913], [44.511884000000066, -12.177202999999906], [44.51229700000016, -12.177479999999889], [44.512699, -12.177779999999927], [44.51312900000005, -12.178056999999967], [44.51362400000016, -12.178457999999921], [44.51377200000019, -12.180239999999912], [44.513841000000184, -12.180420999999967], [44.51416900000015, -12.181232999999906], [44.51439899999997, -12.181859999999915], [44.514749000000165, -12.183083999999951], [44.51484000000005, -12.183438999999908], [44.51508200000018, -12.184025999999903], [44.515286, -12.1842299999999], [44.51557000000008, -12.184500999999955], [44.515855000000045, -12.184782999999925], [44.51604100000014, -12.184856999999909], [44.51620400000013, -12.18495299999995], [44.51631500000008, -12.185127999999963], [44.516366000000005, -12.185392999999976], [44.51642800000019, -12.185736999999904], [44.516456000000176, -12.1859859999999], [44.51666400000016, -12.186391999999842], [44.516774000000055, -12.18657799999994], [44.51689500000009, -12.186752999999953], [44.51702899999998, -12.186939999999879], [44.51722600000011, -12.187108999999907], [44.51736700000009, -12.187041999999963], [44.51761299999998, -12.18694599999992], [44.517771000000096, -12.186946999999918], [44.51797400000004, -12.187031999999931], [44.518043000000034, -12.18733599999996], [44.51817700000015, -12.187375999999972], [44.518346000000065, -12.187539999999956], [44.51835600000004, -12.187759999999969], [44.51841900000005, -12.187894999999855], [44.51829600000019, -12.188052999999968], [44.51844100000011, -12.188266999999883], [44.518347000000176, -12.188328999999953], [44.5182880000001, -12.188492999999937], [44.51852000000008, -12.188791999999978], [44.518519000000026, -12.188983999999891], [44.51820700000013, -12.189360999999906], [44.5181530000001, -12.189534999999921], [44.518264000000045, -12.189653999999905], [44.51805900000011, -12.189771999999891], [44.517748000000154, -12.189979999999878], [44.517823000000135, -12.19007599999992], [44.51820300000014, -12.190093999999874], [44.518436000000065, -12.190262999999959], [44.51851000000016, -12.190522999999871], [44.518433000000186, -12.190685999999857], [44.518350000000055, -12.190877999999941], [44.51851200000016, -12.19117099999994], [44.51866900000016, -12.191278999999895], [44.51889100000005, -12.19130199999995], [44.51909600000016, -12.191312999999866], [44.519159, -12.191380999999978], [44.51922300000018, -12.19144899999992], [44.519310000000075, -12.191533999999933], [44.519497000000115, -12.191533999999933], [44.51966700000014, -12.191466999999818], [44.51980100000003, -12.191494999999975], [44.519841000000156, -12.191652999999917], [44.519788000000176, -12.191793999999959], [44.51991600000014, -12.191901999999914], [44.519915000000026, -12.192025999999885], [44.519844000000035, -12.192160999999942], [44.51976800000011, -12.192267999999899], [44.51984900000008, -12.192363999999941], [44.5198190000001, -12.192498999999941], [44.51972000000006, -12.192560999999898], [44.519807000000185, -12.192633999999828], [44.51982800000013, -12.192960999999968], [44.51916000000011, -12.193449999999928], [44.51893700000011, -12.19363599999997], [44.518743000000086, -12.19371499999994], [44.51859800000017, -12.1936859999999], [44.51835799999998, -12.193724999999858], [44.51820000000009, -12.193712999999946], [44.51804900000019, -12.193656999999916], [44.517820000000086, -12.193875999999932], [44.51785100000018, -12.194512999999972], [44.51803100000012, -12.194716999999969], [44.51823999999999, -12.19504999999998], [44.51837200000011, -12.195365999999922], [44.518574000000115, -12.195833999999934], [44.51880500000004, -12.196262999999874], [44.519008000000156, -12.196573999999941], [44.51929300000012, -12.196872999999925], [44.51967100000013, -12.19713899999988], [44.52000900000019, -12.197268999999892], [44.520195000000115, -12.197393999999917], [44.52063100000015, -12.197687999999914], [44.52082800000011, -12.19797599999987], [44.52096500000005, -12.198573999999951], [44.521072000000004, -12.199272999999891], [44.521065000000135, -12.19953199999992], [44.52097500000019, -12.20002299999993], [44.52090199999998, -12.200574999999958], [44.52094299999999, -12.201550999999881], [44.52078300000011, -12.201938999999925], [44.52064200000018, -12.202175999999838], [44.52035400000011, -12.202422999999953], [44.52007800000001, -12.202709999999968], [44.51976000000019, -12.203143999999895], [44.51950100000005, -12.203531999999939], [44.5193230000001, -12.203931999999895], [44.51919200000009, -12.204404999999952], [44.51911500000011, -12.20469799999995], [44.51910200000009, -12.207015999999896], [44.51920100000012, -12.207122999999967], [44.51934000000006, -12.207348999999908], [44.519313000000125, -12.20904599999983], [44.519463000000144, -12.209367999999927], [44.51973600000014, -12.209508999999855], [44.519893000000025, -12.209632999999883], [44.520352000000116, -12.210231999999905], [44.52039200000007, -12.210327999999947], [44.520461000000125, -12.210547999999847], [44.52054800000019, -12.211692999999968], [44.52077500000013, -12.212933999999905], [44.520928000000026, -12.213649999999916]]]}}]}