{"type": "FeatureCollection", "features": [{"type": "Feature", "properties": {"country": "Comoros", "pcode": "KM131", "name": "Bandrani Ya Chironkamba", "island": "Anjouan (Ndzouani)"}, "geometry": {"type": "Polygon", "coordinates": [[[44.40735900000004, -12.214093999999875], [44.396897000000195, -12.218528999999933], [44.382091000000116, -12.21850499999988], [44.359855000000096, -12.215698999999972], [44.34952400000009, -12.21489099999991], [44.33947200000006, -12.21408299999996], [44.33482200000009, -12.21328399999993], [44.339232000000095, -12.208640999999886], [44.33953300000013, -12.205673999999874], [44.33992100000006, -12.203398999999933], [44.34482800000018, -12.194403999999906], [44.344588000000044, -12.187984999999912], [44.34497500000009, -12.187770999999884], [44.34513800000008, -12.187827999999968], [44.34526599999998, -12.187850999999853], [44.34535000000005, -12.187399999999911], [44.34548900000016, -12.187693999999908], [44.345676000000026, -12.187727999999879], [44.34588500000007, -12.187874999999963], [44.34595300000018, -12.188212999999962], [44.34603500000003, -12.188224999999875], [44.346198000000186, -12.188416999999959], [44.34640700000011, -12.18854099999993], [44.3468860000001, -12.188519999999869], [44.34734300000008, -12.188373999999953], [44.347438000000125, -12.188080999999954], [44.347696000000155, -12.187889999999982], [44.34813100000008, -12.187371999999925], [44.34849400000013, -12.187236999999925], [44.34896000000009, -12.18753199999992], [44.34908800000005, -12.187542999999948], [44.34927700000003, -12.18723899999992], [44.34938200000005, -12.187261999999976], [44.34943800000008, -12.187543999999946], [44.349893000000066, -12.187803999999971], [44.349986000000115, -12.187736999999913], [44.35019600000004, -12.187917999999968], [44.35042900000013, -12.18798599999991], [44.35052200000001, -12.188109999999881], [44.35045100000019, -12.188188999999909], [44.35042699999997, -12.188368999999966], [44.350461000000166, -12.18860599999988], [44.350542000000075, -12.18868499999985], [44.351043000000175, -12.18888899999996], [44.351651000000174, -12.188878999999929], [44.35360400000013, -12.188487999999893], [44.35368600000015, -12.188420999999948], [44.35402600000003, -12.188105999999891], [44.35466900000017, -12.188106999999889], [44.355196000000035, -12.187938999999915], [44.355559000000085, -12.187691999999913], [44.35571300000004, -12.187297999999942], [44.35597100000007, -12.18721899999997], [44.35620600000016, -12.186869999999942], [44.35671000000008, -12.18654399999997], [44.35705000000013, -12.186375999999939], [44.357576000000165, -12.186240999999939], [44.35825500000004, -12.186084999999935], [44.35895700000003, -12.18587199999996], [44.35919100000018, -12.185872999999958], [44.359634000000085, -12.185963999999956], [44.361176000000114, -12.185977999999977], [44.36166700000007, -12.185877999999946], [44.36202900000018, -12.185934999999972], [44.36249600000008, -12.185935999999856], [44.36276600000008, -12.185811999999885], [44.363246000000174, -12.185632999999939], [44.36360800000011, -12.185543999999936], [44.36412300000006, -12.185476999999878], [44.36571299999997, -12.185231999999871], [44.36778200000015, -12.184920999999974], [44.368729000000144, -12.184775999999886], [44.36928000000006, -12.184585999999967], [44.36965400000014, -12.18440599999991], [44.36992400000008, -12.184293999999966], [44.37022700000011, -12.184327999999937], [44.37048400000003, -12.184362999999905], [44.37080100000014, -12.184148999999877], [44.37181900000019, -12.187108999999907], [44.37403900000004, -12.190642999999852], [44.375991000000056, -12.193889999999897], [44.37937400000004, -12.197997999999927], [44.38285000000019, -12.2017239999999], [44.38695600000011, -12.205260999999894], [44.390977000000134, -12.207938999999897], [44.39303300000006, -12.209372999999971], [44.39769800000005, -12.209952999999928], [44.40155900000008, -12.210054999999898], [44.40865400000007, -12.209970999999882], [44.40837400000015, -12.211400999999967], [44.40735900000004, -12.214093999999875]]]}}]}