{"type": "FeatureCollection", "features": [{"type": "Feature", "properties": {"country": "Comoros", "pcode": "KM134", "name": "Mutsamudu", "island": "Anjouan (Ndzouani)"}, "geometry": {"type": "Polygon", "coordinates": [[[44.420224000000076, -12.174498999999912], [44.425058000000035, -12.176605999999879], [44.42900100000014, -12.177756999999929], [44.43250100000017, -12.17804899999993], [44.435098000000096, -12.179102999999884], [44.436895000000106, -12.179009999999948], [44.43957500000016, -12.18092299999995], [44.44117700000004, -12.182928999999945], [44.44249200000013, -12.18741499999993], [44.444074000000114, -12.192282999999918], [44.44512400000008, -12.196100999999885], [44.445807000000116, -12.20106299999992], [44.435804000000076, -12.208104999999932], [44.42236600000001, -12.212040999999942], [44.41201100000018, -12.21469499999995], [44.40735900000004, -12.214093999999875], [44.40837400000015, -12.211400999999967], [44.40865400000007, -12.209970999999882], [44.40155900000008, -12.210054999999898], [44.39769800000005, -12.209952999999928], [44.39303300000006, -12.209372999999971], [44.390977000000134, -12.207938999999897], [44.38695600000011, -12.205260999999894], [44.38285000000019, -12.2017239999999], [44.37937400000004, -12.197997999999927], [44.375991000000056, -12.193889999999897], [44.37403900000004, -12.190642999999852], [44.37181900000019, -12.187108999999907], [44.37080100000014, -12.184148999999877], [44.37139800000017, -12.183935999999846], [44.37255600000009, -12.183644999999899], [44.37394900000004, -12.183117999999922], [44.37432400000017, -12.182847999999979], [44.374945000000025, -12.182533999999919], [44.37542500000012, -12.18227499999989], [44.37580100000014, -12.182038999999918], [44.37611700000019, -12.181802999999945], [44.37656400000003, -12.181363999999917], [44.376962000000105, -12.181116999999915], [44.377713000000085, -12.18064499999997], [44.378146000000186, -12.18045399999994], [44.37843900000013, -12.180217999999968], [44.37893200000002, -12.17974599999991], [44.37910800000003, -12.17968999999988], [44.37962300000004, -12.179442999999878], [44.38004500000011, -12.179307999999878], [44.380560000000116, -12.179083999999932], [44.38093500000019, -12.178869999999904], [44.38140500000003, -12.178453999999931], [44.38173400000005, -12.178025999999875], [44.382168999999976, -12.177598999999873], [44.382673000000125, -12.17717099999993], [44.3832220000001, -12.17719499999987], [44.38325800000001, -12.177013999999815], [44.38375100000013, -12.176597999999956], [44.38397400000014, -12.17639599999984], [44.38418700000017, -12.17597899999987], [44.38443500000005, -12.175527999999872], [44.38470600000011, -12.175167999999928], [44.38523500000019, -12.174514999999815], [44.38550500000014, -12.174188999999842], [44.385658000000035, -12.173963999999955], [44.38605800000005, -12.173546999999928], [44.38655100000017, -12.1731079999999], [44.386868000000106, -12.172905999999898], [44.38730200000015, -12.172545999999954], [44.387689000000194, -12.172320999999897], [44.38812200000012, -12.172096999999951], [44.3889650000001, -12.171725999999978], [44.39006600000005, -12.171187999999972], [44.390394000000185, -12.171097999999972], [44.390827000000115, -12.170872999999915], [44.39118000000019, -12.170580999999913], [44.39163700000017, -12.170333999999912], [44.391895000000034, -12.170142999999825], [44.39205900000013, -12.169995999999912], [44.392224000000056, -12.16975999999994], [44.39235400000018, -12.169500999999912], [44.392413999999974, -12.16918499999997], [44.39239400000014, -12.168643999999972], [44.39239700000019, -12.168000999999947], [44.39246900000012, -12.167752999999948], [44.392811000000165, -12.167020999999977], [44.392814000000044, -12.166501999999923], [44.39333099999999, -12.165950999999893], [44.394293000000005, -12.165253999999948], [44.39469200000019, -12.164881999999977], [44.39586500000007, -12.164049999999975], [44.396405000000186, -12.163599999999974], [44.396968000000186, -12.163161999999886], [44.39703900000006, -12.163003999999944], [44.397779000000185, -12.162328999999886], [44.398014000000046, -12.162103999999943], [44.398167000000115, -12.161867999999913], [44.398742000000084, -12.161338999999941], [44.39906000000008, -12.160955999999885], [44.39923700000003, -12.16065199999997], [44.399168000000145, -12.160448999999858], [44.39966700000008, -12.160527999999886], [44.40154100000001, -12.16244799999987], [44.404576000000134, -12.16502899999989], [44.40686100000005, -12.166499999999928], [44.41056600000019, -12.168758999999966], [44.41655500000007, -12.172680999999955], [44.420224000000076, -12.174498999999912]]]}}]}