{"type": "FeatureCollection", "features": [{"type": "Feature", "properties": {"country": "Comoros", "pcode": "KM124", "name": "Mr\u00e9mani", "island": "Anjouan (Ndzouani)"}, "geometry": {"type": "Polygon", "coordinates": [[[44.49828500000007, -12.330504999999903], [44.50112200000012, -12.33444099999997], [44.50152000000003, -12.337295999999924], [44.504253000000176, -12.339011999999911], [44.507667000000026, -12.341416999999922], [44.50822200000016, -12.342582999999877], [44.506491000000096, -12.343200999999851], [44.50183400000009, -12.343320999999833], [44.49945000000014, -12.342935999999952], [44.4949170000001, -12.343888999999933], [44.4923280000001, -12.345460999999887], [44.48981300000003, -12.346534999999903], [44.487683000000175, -12.34787899999992], [44.48749800000013, -12.34760799999998], [44.48713700000013, -12.347336999999925], [44.48687000000007, -12.347143999999957], [44.48659100000009, -12.346883999999932], [44.48626600000017, -12.346499999999878], [44.48605700000013, -12.346206999999879], [44.48591800000014, -12.345980999999938], [44.48559200000017, -12.345720999999969], [44.48514800000004, -12.345742999999857], [44.48444800000004, -12.345729999999946], [44.48420400000009, -12.34546999999992], [44.48390200000017, -12.345130999999924], [44.48348300000015, -12.344825999999898], [44.48316900000009, -12.344644999999957], [44.48288900000017, -12.344451999999876], [44.48242300000015, -12.344304999999963], [44.481979000000194, -12.34429299999988], [44.48168700000019, -12.34426899999994], [44.481336999999996, -12.34417899999994], [44.48109200000016, -12.344076999999857], [44.48073100000016, -12.34382799999986], [44.48049900000012, -12.343702999999891], [44.48016100000007, -12.343544999999892], [44.479940000000056, -12.343363999999838], [44.47975300000007, -12.343227999999954], [44.47959100000014, -12.34308099999987], [44.47946300000007, -12.342888999999957], [44.47922100000011, -12.342425999999932], [44.47883900000011, -12.34165899999988], [44.47875900000008, -12.34146699999991], [44.47852700000004, -12.34101499999997], [44.47836600000005, -12.340698999999972], [44.47815600000007, -12.340540999999916], [44.477900000000034, -12.340370999999891], [44.47765500000003, -12.340268999999978], [44.477329000000054, -12.340098999999952], [44.47706200000016, -12.339906999999869], [44.47688700000009, -12.339737999999954], [44.47674900000004, -12.3394219999999], [44.47669200000007, -12.339116999999874], [44.476589000000104, -12.338800999999933], [44.47650700000008, -12.338834999999904], [44.47598100000005, -12.338844999999935], [44.47572500000018, -12.33866399999988], [44.475528000000054, -12.338448999999969], [44.47538900000012, -12.33814499999994], [44.475121000000115, -12.338064999999972], [44.47488800000002, -12.337883999999917], [44.48263400000002, -12.326502999999889], [44.48264700000004, -12.324721999999895], [44.48182300000008, -12.322741999999948], [44.48082999999997, -12.318288999999822], [44.47995600000013, -12.31037299999997], [44.47997900000013, -12.307107999999914], [44.488815000000045, -12.308704999999975], [44.49544000000003, -12.306736999999941], [44.50443000000007, -12.306098999999904], [44.50501300000019, -12.30793899999992], [44.504825000000096, -12.309206999999958], [44.50191700000016, -12.311860999999965], [44.500750000000096, -12.313582999999824], [44.50339900000006, -12.316687999999942], [44.50445200000013, -12.319606999999962], [44.50425800000005, -12.321635999999899], [44.501979000000176, -12.323153999999931], [44.50197000000014, -12.324485999999979], [44.50231300000007, -12.326579999999979], [44.49828500000007, -12.330504999999903]]]}}]}