{"type": "FeatureCollection", "features": [{"type": "Feature", "properties": {"country": "Comoros", "pcode": "KM291", "name": "Crat\u00e8re du Karthala", "island": "Grande Comore (Ngazidja)"}, "geometry": {"type": "Polygon", "coordinates": [[[43.36653800000005, -11.754805999999974], [43.366511000000116, -11.75570899999991], [43.36629000000016, -11.756469999999922], [43.366190000000074, -11.757159999999885], [43.36633500000016, -11.757848999999965], [43.36645700000014, -11.758110999999872], [43.3669440000001, -11.758656999999971], [43.367309999999975, -11.75898999999987], [43.367725000000064, -11.759203999999897], [43.368140000000096, -11.759322999999881], [43.368580000000065, -11.759131999999909], [43.36904500000003, -11.758655999999974], [43.369511000000045, -11.758203999999864], [43.37014600000015, -11.757941999999957], [43.370855000000006, -11.757679999999937], [43.37154000000004, -11.757513999999958], [43.37195500000007, -11.7575369999999], [43.37261400000011, -11.757631999999944], [43.37332200000003, -11.757892999999967], [43.37400600000018, -11.758010999999954], [43.374933999999996, -11.75836699999985], [43.375519999999995, -11.758580999999879], [43.37605600000012, -11.759008999999935], [43.37661700000018, -11.759531999999979], [43.377104000000145, -11.76026799999994], [43.37737100000004, -11.760743999999875], [43.37761500000016, -11.761218999999926], [43.37780900000007, -11.761717999999917], [43.37810100000007, -11.762240999999847], [43.378247000000044, -11.762621999999908], [43.3782710000001, -11.762858999999821], [43.37831900000015, -11.76331099999993], [43.378318000000036, -11.763690999999824], [43.37814500000013, -11.764333999999906], [43.37780100000009, -11.765189999999961], [43.3777520000001, -11.765426999999931], [43.37767800000006, -11.765807999999936], [43.37745700000005, -11.766378999999915], [43.37716200000017, -11.766830999999911], [43.376966000000095, -11.767210999999918], [43.376892, -11.767400999999836], [43.376671000000044, -11.767995999999926], [43.37647500000014, -11.768471999999974], [43.376278000000184, -11.768946999999855], [43.37591000000015, -11.769636999999932], [43.375469000000066, -11.770254999999963], [43.374978999999996, -11.770802999999944], [43.374343000000124, -11.77125499999994], [43.37358500000016, -11.771468999999968], [43.37312100000014, -11.771611999999891], [43.37270500000017, -11.77180199999998], [43.372607000000016, -11.771944999999846], [43.37260600000013, -11.772230999999977], [43.37250800000004, -11.77251599999994], [43.37243400000011, -11.772681999999975], [43.37238500000012, -11.772919999999942], [43.372383000000184, -11.773799999999937], [43.37238100000019, -11.774679999999933], [43.372331000000145, -11.77520299999992], [43.37220800000006, -11.775749999999903], [43.372084000000086, -11.77624899999995], [43.371937, -11.776533999999913], [43.3717170000001, -11.77677199999988], [43.37137400000017, -11.777176999999938], [43.37100600000008, -11.777747999999917], [43.370859000000166, -11.77808099999993], [43.37076100000007, -11.778151999999977], [43.37046800000019, -11.778246999999908], [43.36980800000009, -11.77843799999988], [43.36902600000002, -11.778556999999978], [43.36851200000012, -11.778652999999906], [43.3680480000001, -11.778842999999938], [43.36729000000014, -11.779128999999955], [43.36684900000006, -11.779390999999976], [43.36640900000003, -11.77950999999996], [43.36606700000016, -11.77950999999996], [43.36538400000018, -11.779438999999968], [43.36452900000012, -11.779391999999973], [43.36372300000005, -11.779201999999884], [43.36321100000015, -11.778869999999927], [43.36282000000011, -11.778512999999975], [43.362577000000044, -11.778227999999956], [43.36240700000002, -11.777870999999891], [43.36235900000014, -11.777395999999953], [43.362237000000164, -11.77713499999993], [43.36184700000007, -11.776920999999959], [43.36152900000002, -11.776896999999963], [43.361260000000186, -11.776920999999959], [43.36074800000006, -11.776516999999956], [43.360261000000094, -11.776160999999888], [43.359992000000034, -11.776041999999904], [43.359455000000025, -11.77594699999986], [43.359235000000126, -11.775804999999934], [43.359089000000154, -11.775590999999963], [43.35869900000017, -11.775352999999825], [43.358406000000116, -11.775305999999944], [43.35804000000019, -11.775163999999904], [43.35782000000012, -11.774830999999892], [43.357625000000155, -11.774663999999916], [43.3573090000001, -11.77402299999983], [43.35694400000011, -11.773451999999907], [43.35670000000016, -11.773142999999948], [43.356530000000134, -11.772928999999976], [43.35638400000016, -11.772572999999909], [43.35631200000006, -11.772144999999966], [43.35633700000017, -11.771645999999976], [43.356362000000104, -11.771312999999964], [43.35663200000005, -11.770955999999899], [43.35680400000007, -11.770693999999878], [43.35700000000014, -11.77045599999991], [43.35724400000004, -11.770241999999882], [43.357464000000164, -11.770217999999943], [43.357538000000034, -11.769980999999973], [43.357539000000145, -11.769766999999945], [43.35734400000018, -11.769480999999871], [43.35719800000015, -11.769243999999901], [43.35700300000019, -11.768957999999941], [43.356833000000165, -11.768553999999938], [43.35661400000015, -11.768078999999886], [43.35651700000011, -11.767721999999935], [43.356396000000075, -11.767293999999936], [43.35632300000009, -11.766937999999982], [43.35639800000007, -11.766152999999974], [43.35649700000005, -11.765748999999914], [43.35649800000016, -11.76515499999988], [43.35659700000019, -11.764726999999937], [43.3567680000001, -11.764630999999952], [43.35720800000013, -11.764630999999952], [43.35742800000003, -11.764606999999955], [43.35786800000017, -11.764487999999972], [43.35816100000011, -11.76429799999994], [43.35838200000006, -11.763892999999939], [43.35870100000017, -11.763488999999879], [43.358995000000164, -11.763107999999818], [43.358995000000164, -11.762846999999965], [43.35884900000019, -11.762537999999893], [43.358484000000146, -11.762061999999958], [43.35814300000004, -11.761562999999967], [43.357655000000136, -11.761301999999944], [43.35753300000016, -11.76104099999992], [43.357803000000104, -11.76065999999986], [43.35795000000002, -11.760326999999904], [43.357756000000165, -11.759922999999901], [43.35729300000003, -11.759518999999955], [43.3569030000001, -11.759114999999838], [43.3566350000001, -11.758686999999952], [43.35639100000003, -11.758306999999945], [43.35609900000003, -11.75811699999997], [43.35548900000015, -11.757736999999963], [43.35509900000005, -11.757356999999956], [43.35483000000016, -11.757118999999875], [43.354734000000064, -11.756761999999924], [43.35466100000002, -11.756215999999938], [43.35471200000018, -11.755668999999898], [43.35449300000016, -11.755192999999963], [43.35420100000016, -11.754479999999944], [43.354300000000194, -11.754075999999884], [43.35457000000014, -11.753504999999905], [43.35479000000004, -11.753147999999953], [43.3550350000001, -11.752814999999941], [43.35542700000019, -11.752458999999874], [43.35572100000019, -11.752148999999974], [43.35599000000002, -11.751958999999886], [43.35623500000008, -11.751649999999927], [43.356358000000114, -11.75124499999987], [43.35672600000004, -11.750650999999948], [43.35677600000008, -11.750269999999944], [43.35711900000018, -11.749627999999916], [43.35734000000019, -11.749318999999957], [43.357707000000175, -11.749056999999937], [43.35826900000012, -11.748699999999872], [43.35890500000016, -11.748437999999965], [43.359687000000065, -11.748365999999976], [43.36037100000016, -11.748341999999923], [43.36083500000018, -11.748365999999976], [43.36149500000005, -11.748483999999962], [43.361958000000186, -11.74874599999987], [43.36266600000016, -11.749125999999876], [43.36352000000011, -11.74945799999989], [43.364057000000116, -11.749766999999963], [43.36469099999999, -11.750360999999941], [43.3650310000001, -11.750978999999973], [43.365249000000176, -11.751905999999963], [43.36573600000014, -11.752808999999957], [43.36600400000009, -11.753307999999947], [43.36622100000011, -11.75416399999989], [43.36653800000005, -11.754805999999974]]]}}]}