{"type": "FeatureCollection", "features": [{"type": "Feature", "properties": {"country": "Comoros", "pcode": "KM113", "name": "Jimlim\u00e9", "island": "Anjouan (Ndzouani)"}, "geometry": {"type": "Polygon", "coordinates": [[[44.48619400000007, -12.115121999999815], [44.486462000000074, -12.1154259999999], [44.48648300000019, -12.115729999999928], [44.48664900000006, -12.11621799999989], [44.486875999999995, -12.11661399999997], [44.487119000000064, -12.116935999999896], [44.48716999999999, -12.11731999999995], [44.487115000000074, -12.117696999999964], [44.48700100000008, -12.118209999999976], [44.487052000000176, -12.118469999999888], [44.48727900000017, -12.118745999999817], [44.487772000000064, -12.119366999999954], [44.48805200000015, -12.119367999999952], [44.48835600000007, -12.119345999999894], [44.488863000000094, -12.119600999999932], [44.489032000000066, -12.119583999999975], [44.48924200000005, -12.1196359999999], [44.48984800000005, -12.12001499999991], [44.4903250000001, -12.120342999999878], [44.490690000000086, -12.12076599999989], [44.49097500000005, -12.12097499999993], [44.49139400000007, -12.121314999999925], [44.49167900000003, -12.12163099999998], [44.49168800000007, -12.122047999999893], [44.49174600000009, -12.122143999999935], [44.49188700000019, -12.122036999999978], [44.49238400000013, -12.121812999999918], [44.493161999999984, -12.121695999999929], [44.49336600000004, -12.1216849999999], [44.49371100000013, -12.121747999999968], [44.493764000000056, -12.121612999999968], [44.49415500000009, -12.12173699999994], [44.49439300000006, -12.121951999999965], [44.49441300000012, -12.122453999999948], [44.49477500000006, -12.12260699999996], [44.49528700000013, -12.122838999999885], [44.495273000000054, -12.12330199999991], [44.49530000000016, -12.123661999999968], [44.49524600000012, -12.123971999999924], [44.49504100000007, -12.124078999999824], [44.49485400000003, -12.12410099999994], [44.49452800000006, -12.123829999999828], [44.49441200000007, -12.123812999999927], [44.493925000000104, -12.124211999999886], [44.493644000000074, -12.124301999999886], [44.49331000000018, -12.124486999999931], [44.49325700000003, -12.124627999999973], [44.493332000000066, -12.12473499999993], [44.49388700000014, -12.124752999999885], [44.49401500000005, -12.124877999999853], [44.494130000000155, -12.12510299999991], [44.49428200000011, -12.125131999999894], [44.49440500000003, -12.125080999999966], [44.49457300000006, -12.125250999999878], [44.49472600000007, -12.125137999999936], [44.49494700000008, -12.125223999999946], [44.49556400000017, -12.125630999999885], [44.495631000000174, -12.126171999999883], [44.495576000000085, -12.12655499999994], [44.49534900000015, -12.126565999999968], [44.495214000000146, -12.126604999999927], [44.49480300000005, -12.127072999999939], [44.49509200000017, -12.12746199999998], [44.49504300000001, -12.127980999999977], [44.495281000000034, -12.128290999999876], [44.49539100000004, -12.128477999999916], [44.495266000000186, -12.128860999999972], [44.495486000000085, -12.129170999999872], [44.49538600000017, -12.12935699999997], [44.49512199999998, -12.129502999999886], [44.49492300000003, -12.129541999999844], [44.49463700000018, -12.129501999999889], [44.49447900000007, -12.129614999999944], [44.49457700000005, -12.129783999999972], [44.49471, -12.130088999999884], [44.49449900000013, -12.13016199999987], [44.49434200000013, -12.130160999999873], [44.494183000000135, -12.130228999999929], [44.49402000000015, -12.130216999999902], [44.49381500000004, -12.130261999999902], [44.49367400000011, -12.130463999999904], [44.493521000000044, -12.13057699999996], [44.49348600000019, -12.130683999999917], [44.49357300000008, -12.130830999999887], [44.49372900000003, -12.131061999999929], [44.493944000000056, -12.131180999999913], [44.49447600000019, -12.131153999999981], [44.495142000000044, -12.131171999999879], [44.49585400000018, -12.131257999999889], [44.496543000000145, -12.131321999999955], [44.4972140000001, -12.13144699999998], [44.497721000000126, -12.131577999999877], [44.49808300000001, -12.13175299999989], [44.498216000000184, -12.131905999999958], [44.498261000000184, -12.132209999999873], [44.498288000000116, -12.132604999999955], [44.49842500000011, -12.133168999999896], [44.49835900000011, -12.133473999999921], [44.498378000000116, -12.134352999999976], [44.49833000000007, -12.13456199999996], [44.49811800000009, -12.134797999999876], [44.498000000000104, -12.13503499999996], [44.49805800000007, -12.135180999999932], [44.4982490000001, -12.135406999999816], [44.49854600000015, -12.135559999999941], [44.49884300000019, -12.13574699999998], [44.49902300000019, -12.135887999999909], [44.49915700000008, -12.136085999999864], [44.499270000000195, -12.136649999999975], [44.49933300000009, -12.136869999999874], [44.49964200000005, -12.137016999999958], [44.499741000000085, -12.137185999999929], [44.49965700000007, -12.137445999999954], [44.49941000000007, -12.137737999999956], [44.498951999999974, -12.138283999999828], [44.49881600000009, -12.138570999999956], [44.498859000000095, -12.139140999999938], [44.49885800000004, -12.139377999999908], [44.49871600000017, -12.139749999999879], [44.49860300000006, -12.140081999999893], [44.49839700000007, -12.140363999999977], [44.49823200000009, -12.140627999999879], [44.49834100000004, -12.141039999999862], [44.49879100000015, -12.141034999999874], [44.4989470000001, -12.14123899999987], [44.49925000000013, -12.141368999999884], [44.49957699999999, -12.14138099999991], [44.49977400000017, -12.141668999999922], [44.49969100000004, -12.141950999999835], [44.49925000000013, -12.142349999999965], [44.498992999999984, -12.142444999999952], [44.49893800000007, -12.14280599999995], [44.49875600000013, -12.143002999999908], [44.49872200000016, -12.143904999999961], [44.49889600000017, -12.144096999999931], [44.49898800000011, -12.14434499999993], [44.498945000000106, -12.1448299999999], [44.49903599999999, -12.14520199999987], [44.49929400000002, -12.146008999999935], [44.499416, -12.14625199999989], [44.49966100000006, -12.146223999999961], [44.49980700000003, -12.146269999999959], [44.50005200000004, -12.146365999999887], [44.500185000000045, -12.14661999999987], [44.50018400000016, -12.14682299999987], [44.50002500000011, -12.147036999999898], [44.499911999999995, -12.147272999999927], [44.499968000000194, -12.147729999999967], [44.500066000000174, -12.14809699999995], [44.50014600000003, -12.14834499999995], [44.50032599999997, -12.148480999999947], [44.500629000000174, -12.148616999999888], [44.50109500000019, -12.148887999999943], [44.50141500000001, -12.149147999999968], [44.50164700000005, -12.14941899999991], [44.50179800000012, -12.149650999999949], [44.501889000000176, -12.149955999999918], [44.50187600000015, -12.150332999999875], [44.501728000000185, -12.150541999999916], [44.501429000000144, -12.150878999999918], [44.50135700000004, -12.151126999999917], [44.50136100000003, -12.151532999999972], [44.50143500000007, -12.1518319999999], [44.50129900000019, -12.152102999999954], [44.50109900000018, -12.152304999999956], [44.50077000000016, -12.152659999999855], [44.50045299999999, -12.152985999999828], [44.50032399999998, -12.153182999999956], [44.50031500000017, -12.153644999999926], [44.500402000000065, -12.153842999999938], [44.497145000000046, -12.154970999999932], [44.484733000000176, -12.157716999999934], [44.47528700000004, -12.160086999999919], [44.46683200000018, -12.161885999999981], [44.46510300000011, -12.15253399999989], [44.46244300000012, -12.147853999999938], [44.458929000000126, -12.136972999999955], [44.45841500000006, -12.133441999999945], [44.45611500000018, -12.128667999999891], [44.45202800000004, -12.122555999999918], [44.44838300000009, -12.117397999999923], [44.44589100000013, -12.114244999999926], [44.44178600000015, -12.110612999999944], [44.43964900000009, -12.108128999999963], [44.43959600000011, -12.102881999999966], [44.44034000000005, -12.099352999999894], [44.44018699999998, -12.095727999999895], [44.439763000000085, -12.092196999999942], [44.436651000000154, -12.087803999999949], [44.435023000000115, -12.08565099999987], [44.43612600000006, -12.085349999999835], [44.436554000000115, -12.085046999999975], [44.436768000000086, -12.084949999999935], [44.437242000000026, -12.084711999999968], [44.43753500000014, -12.084495999999945], [44.43771700000008, -12.08417099999997], [44.438000000000045, -12.083823999999936], [44.43815800000016, -12.083628999999974], [44.43846200000007, -12.083553999999822], [44.43868600000013, -12.08360899999991], [44.439001000000076, -12.083630999999968], [44.43949600000019, -12.08346899999998], [44.43972100000019, -12.083523999999898], [44.43996800000019, -12.083556999999871], [44.44044100000008, -12.083275999999898], [44.44088100000005, -12.08304899999996], [44.44159100000019, -12.082681999999977], [44.44201900000007, -12.082486999999901], [44.44264900000013, -12.08232599999991], [44.442819000000156, -12.08216399999992], [44.44299000000012, -12.081697999999903], [44.44320600000003, -12.081176999999968], [44.44346600000006, -12.080895999999882], [44.443973000000085, -12.080668999999943], [44.44454700000017, -12.080496999999923], [44.44517700000006, -12.080432999999971], [44.44524500000017, -12.08026999999987], [44.44548300000014, -12.080020999999874], [44.44567500000005, -12.07984799999997], [44.44620400000014, -12.079588999999942], [44.44648800000016, -12.079035999999917], [44.446827000000155, -12.078678999999966], [44.447099000000094, -12.07840799999991], [44.44749400000006, -12.078115999999909], [44.44799000000012, -12.077845999999965], [44.44883400000009, -12.077641999999969], [44.449318000000176, -12.077468999999951], [44.44980200000009, -12.077220999999952], [44.45015300000017, -12.076884999999947], [44.45021200000008, -12.076320999999894], [44.45066200000019, -12.076300999999944], [44.45088900000013, -12.075899999999876], [44.450947000000156, -12.075411999999915], [44.45100500000018, -12.075183999999979], [44.45112000000006, -12.074782999999911], [44.451312000000144, -12.074554999999975], [44.45182000000011, -12.0741119999999], [44.451944000000026, -12.074008999999933], [44.452116000000046, -12.07345099999992], [44.45249900000016, -12.07317999999998], [44.45300700000007, -12.072790999999938], [44.453312000000096, -12.072606999999891], [44.45410100000015, -12.072196999999903], [44.45415700000018, -12.072087999999951], [44.45425000000006, -12.071599999999819], [44.45439700000014, -12.071480999999835], [44.454667000000086, -12.071394999999825], [44.45553300000017, -12.071276999999895], [44.45583700000009, -12.07108299999993], [44.45662400000003, -12.071181999999965], [44.456826000000035, -12.071160999999904], [44.45724400000017, -12.070835999999929], [44.45762800000011, -12.070500999999922], [44.45796700000011, -12.070164999999918], [44.45817000000005, -12.070034999999905], [44.45862000000017, -12.06984099999994], [44.45957700000008, -12.069593999999938], [44.461085000000026, -12.069249999999954], [44.46188200000006, -12.06924099999992], [44.46255700000012, -12.069111999999905], [44.463199000000145, -12.068928999999969], [44.464179, -12.068593999999962], [44.465057, -12.068226999999979], [44.465484000000174, -12.068195999999887], [44.46571000000006, -12.068022999999869], [44.46594600000003, -12.067979999999977], [44.46685500000012, -12.068295999999918], [44.46701300000001, -12.068241999999884], [44.46739500000018, -12.06826499999994], [44.46803400000016, -12.068406999999866], [44.468943000000195, -12.068636999999967], [44.46940300000006, -12.068789999999922], [44.47002000000015, -12.069039999999916], [44.47054700000007, -12.069279999999878], [44.471185000000105, -12.069671999999969], [44.47154400000011, -12.069813999999838], [44.47208300000011, -12.069966999999963], [44.47315900000018, -12.070434999999975], [44.47340500000007, -12.07058799999993], [44.4736180000001, -12.070793999999921], [44.473818000000165, -12.071184999999957], [44.47413100000011, -12.071434999999951], [44.47461300000003, -12.071707999999944], [44.47485800000004, -12.071978999999828], [44.475172999999984, -12.07201299999997], [44.47544000000005, -12.072446999999897], [44.47562900000008, -12.072913999999912], [44.47605300000015, -12.073315999999977], [44.47653500000007, -12.073631999999975], [44.47681400000005, -12.073913999999945], [44.47720700000008, -12.074099999999817], [44.477666000000056, -12.074295999999947], [44.477901000000145, -12.074566999999888], [44.47799500000008, -12.075803999999948], [44.47822000000002, -12.075771999999972], [44.478418999999974, -12.076314999999852], [44.47858700000006, -12.076412999999945], [44.47887800000012, -12.076608999999905], [44.47889900000007, -12.076977999999883], [44.479066000000046, -12.07717299999996], [44.479212000000075, -12.07730399999997], [44.479425000000106, -12.077390999999977], [44.47971200000006, -12.078269999999975], [44.479880000000094, -12.078421999999932], [44.479970000000094, -12.07842299999993], [44.48038700000012, -12.078151999999875], [44.480791000000124, -12.07818599999996], [44.48089200000015, -12.078272999999854], [44.481049000000155, -12.078337999999974], [44.481240000000184, -12.078359999999861], [44.4814300000001, -12.078533999999934], [44.48159600000014, -12.07892499999997], [44.48189800000006, -12.079207999999937], [44.481987000000174, -12.079445999999905], [44.48196200000007, -12.079771999999878], [44.48206000000016, -12.080433999999968], [44.48198100000019, -12.080552999999952], [44.481811000000164, -12.08077999999989], [44.48188800000014, -12.081083999999976], [44.482279000000176, -12.081496999999956], [44.48244500000004, -12.081887999999822], [44.48291500000005, -12.082344999999975], [44.48312499999997, -12.082832999999937], [44.48340300000007, -12.083451999999909], [44.48381600000016, -12.083940999999868], [44.48418500000014, -12.084342999999933], [44.48441800000006, -12.084777999999915], [44.4846740000001, -12.085352999999884], [44.485400000000084, -12.085994999999912], [44.485659000000055, -12.086027999999885], [44.48575700000015, -12.086623999999972], [44.485868000000096, -12.086819999999932], [44.48632800000013, -12.086874999999964], [44.48677700000019, -12.086962999999969], [44.487146000000166, -12.087277999999912], [44.487425000000144, -12.087636999999972], [44.48775000000006, -12.087810999999874], [44.48800700000015, -12.088179999999966], [44.48808400000013, -12.08842999999996], [44.488296000000105, -12.088646999999867], [44.488340000000164, -12.088831999999968], [44.48860700000006, -12.089287999999954], [44.48861800000009, -12.089352999999903], [44.488471000000175, -12.089504999999974], [44.488502000000096, -12.090155999999922], [44.48940600000009, -12.091252999999938], [44.48953999999998, -12.091415999999981], [44.48953799999998, -12.091632999999945], [44.490052000000105, -12.092175999999824], [44.49015300000008, -12.09232899999995], [44.49024100000008, -12.09263199999998], [44.490037000000086, -12.09292499999998], [44.48999100000003, -12.093076999999937], [44.49050199999999, -12.094107999999892], [44.49070300000011, -12.094487999999899], [44.490937000000145, -12.094726999999864], [44.49125200000009, -12.094792999999981], [44.49152100000015, -12.094901999999934], [44.491598000000124, -12.095129999999813], [44.49181200000004, -12.095140999999899], [44.491968000000156, -12.095379999999977], [44.49200000000013, -12.095694999999921], [44.49230200000011, -12.095912999999939], [44.492379000000085, -12.096085999999957], [44.49241100000006, -12.096508999999969], [44.492879000000016, -12.097193999999945], [44.49292100000014, -12.097670999999934], [44.49278300000009, -12.098234999999931], [44.492816000000175, -12.098462999999981], [44.49301600000018, -12.098907999999938], [44.49297100000018, -12.100925999999959], [44.492853000000025, -12.10179299999993], [44.49288300000018, -12.102519999999913], [44.49278900000007, -12.10321399999998], [44.49258300000008, -12.103950999999938], [44.49241100000006, -12.104612999999915], [44.49213900000012, -12.105067999999903], [44.492091000000016, -12.10554499999995], [44.49174000000011, -12.10597799999988], [44.49143500000014, -12.106237999999962], [44.491378, -12.106453999999928], [44.490926000000115, -12.106865999999968], [44.49067800000017, -12.107049999999845], [44.49061999999998, -12.107309999999927], [44.49050700000009, -12.107547999999838], [44.49024800000012, -12.10762399999993], [44.490190000000155, -12.107948999999962], [44.48985100000016, -12.108208999999817], [44.489514000000156, -12.108250999999939], [44.48945600000013, -12.108478999999932], [44.489253000000076, -12.108597999999915], [44.48902600000008, -12.109009999999898], [44.48857500000008, -12.10938799999991], [44.488516000000175, -12.109843999999896], [44.488333000000125, -12.11049399999996], [44.488162000000045, -12.11078699999996], [44.487847000000045, -12.110980999999924], [44.48757600000005, -12.11114399999991], [44.48744000000016, -12.1113059999999], [44.487213, -12.111662999999965], [44.48717700000003, -12.11212999999998], [44.487063000000035, -12.112454999999954], [44.48687100000012, -12.112692999999922], [44.48678000000007, -12.112790999999959], [44.486768000000154, -12.112942999999916], [44.48667600000016, -12.113278999999977], [44.48631500000016, -12.11365799999993], [44.486234000000195, -12.114079999999944], [44.48613000000012, -12.114578999999935], [44.48619400000007, -12.115121999999815]]]}}]}