{"type": "FeatureCollection", "features": [{"type": "Feature", "properties": {"country": "Comoros", "pcode": "KM311", "name": "Djando", "island": "Moh\u00e9li (Mwali)"}, "geometry": {"type": "Polygon", "coordinates": [[[43.77803400000016, -12.380747999999926], [43.77268800000013, -12.368641999999966], [43.77229900000009, -12.368335999999942], [43.76746600000007, -12.355530999999871], [43.76455599999997, -12.352516999999978], [43.76118000000008, -12.351120999999921], [43.75884900000011, -12.34963799999997], [43.75713700000006, -12.348985999999968], [43.75218799999999, -12.346724999999935], [43.74874400000016, -12.345835999999906], [43.74641000000014, -12.344891999999959], [43.7453900000001, -12.343178999999964], [43.74446000000006, -12.340593999999953], [43.763527000000124, -12.328825999999822], [43.779327000000194, -12.329502999999875], [43.78463199999999, -12.333724999999959], [43.785382000000084, -12.333974999999953], [43.79434800000013, -12.334290999999894], [43.80316200000004, -12.32177699999994], [43.80330600000019, -12.321917999999869], [43.80360800000017, -12.322172999999907], [43.80375400000014, -12.322370999999976], [43.80395800000014, -12.322663999999975], [43.80398700000006, -12.322776999999974], [43.804017000000044, -12.32318099999992], [43.80431800000008, -12.323530999999946], [43.80462900000009, -12.323738999999932], [43.8048720000001, -12.323795999999902], [43.8050760000001, -12.323900999999978], [43.80527100000006, -12.324023999999952], [43.80636800000008, -12.324028999999939], [43.80648400000007, -12.323869999999829], [43.80665000000016, -12.323851999999931], [43.80665000000016, -12.323945999999978], [43.806562000000156, -12.324029999999937], [43.80655300000012, -12.32409599999994], [43.80666000000008, -12.324170999999865], [43.80698000000007, -12.324172999999917], [43.80733000000009, -12.32415599999996], [43.80754300000012, -12.324165999999877], [43.8077770000001, -12.324232999999936], [43.80803900000012, -12.324205999999833], [43.808291, -12.324215999999922], [43.80844600000006, -12.324132999999904], [43.8085430000001, -12.324047999999891], [43.80862100000013, -12.32394499999998], [43.808747000000096, -12.323936999999944], [43.80876700000016, -12.323983999999939], [43.80885400000005, -12.323983999999939], [43.808971000000156, -12.32392799999991], [43.80898000000019, -12.323749999999848], [43.80903799999999, -12.323702999999966], [43.8091740000001, -12.323702999999966], [43.80926200000005, -12.323769999999968], [43.809359000000086, -12.323778999999945], [43.80956300000008, -12.323732999999947], [43.809767000000136, -12.323611999999969], [43.80992200000014, -12.323527999999953], [43.81006700000006, -12.323443999999938], [43.810203000000115, -12.323369999999954], [43.810203000000115, -12.323143999999957], [43.810028000000045, -12.322644999999966], [43.81005600000003, -12.322315999999944], [43.81029800000016, -12.32178099999993], [43.81039600000008, -12.321997999999837], [43.81036700000004, -12.322260999999912], [43.81045400000011, -12.322354999999959], [43.81054200000011, -12.322364999999934], [43.81074600000011, -12.322252999999876], [43.81100800000013, -12.322253999999873], [43.81115300000005, -12.32215199999996], [43.81137700000011, -12.322039999999959], [43.811503000000016, -12.32195599999983], [43.811600000000055, -12.32188999999994], [43.811697000000095, -12.321702999999957], [43.81182300000006, -12.321608999999967], [43.811910000000125, -12.321769999999958], [43.81194000000016, -12.321919999999977], [43.81207600000005, -12.32206199999996], [43.81214400000016, -12.322052999999926], [43.81252200000017, -12.321856999999966], [43.81268700000015, -12.321725999999956], [43.81274500000012, -12.321594999999888], [43.81274500000012, -12.321472999999912], [43.81262800000002, -12.32131199999992], [43.81263800000016, -12.321161999999958], [43.81277400000005, -12.3210499999999], [43.8129100000001, -12.3210499999999], [43.81292000000002, -12.321341999999902], [43.81308600000011, -12.321425999999917], [43.81303700000012, -12.321614999999952], [43.812755000000095, -12.321829999999977], [43.81264900000019, -12.322045999999887], [43.81264900000019, -12.322242999999958], [43.81274600000006, -12.322384999999883], [43.81286300000011, -12.322450999999944], [43.81299899999999, -12.322422999999901], [43.81317300000018, -12.322235999999975], [43.81335800000005, -12.321992999999964], [43.813377, -12.321747999999957], [43.81350300000014, -12.321522999999956], [43.81367800000004, -12.321589999999901], [43.81362000000007, -12.321739999999977], [43.81360100000006, -12.322143999999923], [43.81338700000015, -12.32230299999992], [43.81320299999999, -12.32243399999993], [43.81304800000015, -12.322592999999927], [43.81312500000013, -12.322630999999888], [43.813106000000175, -12.322780999999964], [43.81316400000014, -12.322799999999916], [43.81331000000017, -12.322678999999937], [43.81343600000008, -12.322697999999946], [43.81341700000013, -12.322941999999955], [43.8136310000001, -12.32304699999986], [43.813796000000025, -12.323178999999925], [43.81397100000015, -12.323386999999911], [43.81409800000017, -12.323537999999871], [43.814185000000066, -12.32373599999994], [43.814283000000046, -12.323933999999952], [43.814283000000046, -12.32408399999997], [43.81442900000019, -12.324263999999914], [43.81460400000009, -12.324442999999974], [43.814730000000054, -12.324518999999952], [43.81486600000011, -12.324537999999961], [43.814944000000025, -12.324434999999937], [43.815167000000145, -12.3244269999999], [43.815381000000116, -12.32450299999988], [43.81568200000015, -12.324607999999955], [43.815818000000036, -12.324748999999883], [43.815877000000114, -12.324890999999923], [43.81610000000006, -12.32489199999992], [43.81617700000004, -12.324769999999944], [43.81641000000013, -12.324770999999942], [43.816576000000055, -12.324799999999925], [43.81726500000019, -12.324915999999973], [43.81751800000018, -12.324991999999952], [43.81787700000001, -12.325143999999966], [43.817984000000195, -12.324975999999936], [43.81804200000016, -12.324975999999936], [43.81824599999999, -12.325117999999975], [43.81838200000004, -12.325118999999972], [43.81844000000007, -12.324883999999884], [43.81852800000007, -12.32484699999992], [43.81852800000007, -12.325043999999878], [43.818596000000184, -12.325034999999957], [43.81869300000005, -12.324893999999915], [43.81870200000009, -12.324686999999926], [43.818857000000094, -12.32452799999993], [43.81899299999998, -12.324509999999918], [43.819023000000186, -12.324632999999892], [43.81901300000004, -12.324791999999889], [43.81882900000011, -12.325026999999977], [43.81881900000019, -12.325242999999944], [43.81913000000014, -12.32535699999994], [43.81936400000012, -12.325404999999932], [43.81961600000005, -12.325236999999959], [43.81974200000013, -12.325274999999976], [43.81986899999998, -12.325557999999944], [43.81996800000019, -12.325520999999924], [43.82009200000016, -12.325370999999961], [43.82019800000006, -12.32494799999995], [43.82041200000015, -12.32493999999997], [43.820479000000034, -12.32476099999991], [43.82078000000007, -12.324583999999845], [43.820946000000106, -12.324819999999931], [43.82115900000014, -12.324773999999934], [43.82133400000009, -12.324990999999955], [43.82119900000009, -12.32529099999988], [43.82118000000014, -12.325572999999963], [43.82125800000017, -12.325639999999908], [43.821219000000156, -12.325845999999899], [43.82121000000012, -12.326080999999874], [43.82124900000014, -12.326212999999882], [43.82148200000006, -12.326382999999907], [43.821608000000026, -12.326458999999886], [43.821880000000135, -12.32627199999996], [43.82216100000011, -12.326282999999819], [43.82235600000007, -12.326358999999968], [43.822482000000036, -12.32640699999996], [43.82267700000017, -12.326595999999938], [43.82281300000005, -12.326652999999965], [43.823026000000084, -12.326737999999978], [43.82314300000019, -12.326729999999941], [43.82334700000018, -12.326692999999977], [43.823628000000156, -12.326768999999956], [43.82389100000006, -12.326807999999915], [43.824027000000115, -12.326723999999956], [43.824327000000096, -12.326452999999958], [43.82457000000011, -12.326321999999948], [43.824696000000074, -12.326266999999916], [43.82496800000018, -12.32649299999997], [43.82507500000014, -12.326625999999976], [43.82528900000011, -12.326842999999883], [43.82545400000009, -12.327002999999877], [43.82556100000005, -12.327097999999921], [43.825727000000086, -12.327088999999887], [43.82600800000006, -12.327127999999902], [43.826183000000185, -12.327166999999974], [43.826280000000054, -12.327326999999968], [43.8263970000001, -12.327514999999948], [43.82654300000013, -12.327656999999817], [43.82667900000018, -12.327788999999882], [43.82675700000004, -12.327873999999895], [43.82681500000007, -12.327987999999948], [43.82678600000014, -12.328165999999896], [43.82671900000014, -12.328353999999933], [43.826564000000076, -12.328568999999959], [43.82635000000016, -12.328840999999898], [43.82626300000004, -12.329084999999907], [43.826302000000055, -12.329197999999963], [43.826429000000076, -12.329311999999959], [43.826545000000124, -12.32938699999994], [43.82695300000012, -12.329539999999895], [43.82723800000008, -12.329560999999956], [43.82772000000017, -12.329599999999914], [43.827983000000074, -12.32959099999988], [43.82817700000015, -12.329413999999872], [43.828293000000144, -12.329310999999961], [43.828312000000096, -12.329141999999933], [43.828341000000194, -12.329009999999926], [43.828244000000154, -12.328633999999909], [43.828359999999975, -12.328389999999956], [43.828428000000144, -12.328276999999957], [43.828544000000136, -12.328192999999942], [43.82870900000012, -12.328296999999907], [43.82880600000016, -12.328212999999892], [43.82897100000008, -12.328166999999894], [43.82900100000012, -12.328580999999872], [43.828992000000085, -12.328777999999943], [43.828768000000025, -12.32893699999994], [43.82876900000008, -12.329049999999881], [43.828846000000055, -12.329058999999916], [43.82890400000008, -12.329002999999886], [43.829040000000134, -12.32902299999995], [43.82905100000016, -12.329276999999934], [43.82910900000013, -12.329379999999901], [43.829157000000066, -12.329389999999933], [43.829313000000184, -12.329286999999965], [43.829526000000044, -12.32907199999994], [43.82958400000018, -12.329024999999945], [43.82988500000005, -12.328894999999932], [43.82992400000006, -12.328922999999918], [43.82982700000008, -12.329035999999974], [43.82979800000015, -12.329138999999941], [43.82997300000005, -12.32949699999989], [43.83014800000012, -12.329506999999921], [43.83014800000012, -12.329657999999824], [43.83010000000007, -12.329685999999924], [43.830090000000155, -12.329779999999971], [43.83022600000004, -12.329770999999937], [43.83027499999997, -12.329686999999979], [43.83036200000009, -12.32972499999994], [43.83038200000016, -12.329836999999884], [43.830508000000066, -12.329856999999947], [43.83066300000013, -12.329866999999979], [43.83083800000003, -12.329792999999881], [43.83092500000015, -12.329736999999966], [43.830964000000165, -12.329651999999953], [43.83097400000008, -12.329548999999929], [43.83087600000016, -12.329444999999964], [43.83080800000005, -12.329387999999938], [43.83080800000005, -12.329161999999883], [43.83087600000016, -12.328983999999934], [43.83097300000003, -12.328833999999858], [43.831080000000156, -12.328787999999975], [43.83131300000008, -12.328759999999932], [43.83134200000018, -12.328938999999934], [43.83126400000009, -12.329013999999916], [43.831274000000064, -12.329135999999892], [43.831371000000104, -12.32914599999998], [43.83149700000001, -12.328892999999937], [43.83155600000009, -12.328911999999832], [43.83159500000016, -12.329080999999974], [43.83170100000001, -12.329081999999971], [43.831835000000126, -12.329080999999974], [43.83198300000009, -12.328857999999968], [43.8320710000001, -12.329035999999974], [43.83213800000016, -12.329083999999852], [43.83217600000006, -12.329201999999952], [43.832410000000095, -12.329094999999938], [43.832488000000126, -12.3291329999999], [43.832488000000126, -12.329216999999915], [43.83236199999999, -12.329404999999952], [43.83238200000005, -12.329441999999972], [43.832421000000124, -12.32944299999997], [43.83255600000007, -12.32938699999994], [43.83264400000007, -12.329424999999901], [43.83262500000012, -12.329565999999943], [43.83240100000006, -12.329752999999869], [43.83234300000004, -12.329893999999967], [43.832449999999994, -12.330053999999905], [43.832577000000015, -12.330119999999965], [43.8327900000001, -12.329979999999978], [43.83316900000017, -12.329783999999961], [43.83338200000003, -12.32972899999993], [43.83341200000001, -12.329860999999937], [43.833635000000186, -12.329927999999938], [43.83366400000011, -12.33017199999989], [43.83379100000013, -12.330200999999875], [43.833859000000075, -12.330304999999953], [43.83394600000014, -12.330323999999962], [43.834131000000184, -12.330220999999938], [43.834131000000184, -12.33036199999998], [43.834276999999986, -12.330400999999938], [43.834393000000034, -12.33041999999989], [43.834258000000034, -12.330776999999955], [43.83421900000019, -12.331029999999942], [43.83409300000005, -12.331330999999977], [43.83410300000003, -12.331612999999948], [43.834075000000155, -12.33191399999987], [43.834162000000106, -12.332017999999948], [43.83426900000006, -12.332205999999871], [43.83440500000012, -12.332319999999982], [43.83466800000019, -12.332367999999974], [43.83485200000018, -12.332584999999881], [43.83497900000003, -12.332631999999933], [43.83502700000008, -12.332641999999964], [43.83522100000016, -12.332651999999939], [43.83542500000016, -12.332634999999925], [43.83542500000016, -12.332417999999905], [43.835842000000184, -12.332052999999917], [43.8358520000001, -12.332372999999848], [43.835697000000096, -12.332513999999946], [43.835581000000104, -12.332615999999973], [43.835756000000174, -12.333284999999876], [43.83579500000019, -12.333425999999918], [43.83598000000006, -12.333689999999933], [43.83615500000013, -12.333859999999959], [43.836388000000056, -12.333851999999979], [43.83651400000019, -12.333814999999959], [43.836660000000165, -12.333862999999951], [43.83679600000005, -12.333890999999937], [43.83696100000003, -12.333966999999916], [43.83702900000014, -12.33387399999998], [43.83718500000009, -12.333892999999932], [43.837097000000085, -12.33408999999989], [43.83713700000004, -12.334381999999891], [43.83725300000003, -12.334579999999846], [43.837322000000086, -12.334626999999898], [43.837467000000174, -12.334617999999978], [43.83768100000009, -12.334647999999959], [43.83795300000003, -12.334723999999937], [43.83811800000001, -12.334818999999982], [43.838322000000005, -12.334913999999856], [43.83847800000012, -12.334989999999948], [43.838633000000186, -12.335196999999823], [43.83867200000003, -12.33535699999993], [43.83888700000006, -12.336091999999894], [43.83897400000018, -12.336232999999936], [43.83912000000015, -12.336308999999972], [43.83938200000017, -12.336328999999978], [43.83962500000018, -12.33648999999997], [43.83989800000006, -12.336838999999884], [43.84002399999997, -12.336989999999957], [43.8401990000001, -12.33713199999994], [43.84036500000013, -12.337292999999875], [43.840481000000125, -12.337405999999874], [43.84056900000013, -12.337481999999966], [43.84074400000003, -12.33760499999994], [43.84090900000001, -12.337708999999904], [43.84112300000015, -12.337803999999949], [43.841191000000094, -12.337794999999915], [43.841404000000125, -12.337541999999871], [43.841666000000146, -12.337552999999957], [43.84180200000003, -12.337684999999965], [43.842006000000026, -12.337816999999973], [43.84200700000008, -12.338042999999914], [43.84203600000018, -12.338193999999817], [43.84226000000007, -12.338372999999876], [43.84261900000013, -12.338628999999912], [43.84286200000014, -12.338855999999964], [43.84323200000006, -12.339195999999959], [43.84346500000015, -12.339299999999923], [43.84378600000002, -12.339470999999946], [43.84401900000012, -12.339603999999952], [43.844291000000055, -12.339726999999982], [43.84446600000018, -12.339878999999883], [43.84463100000016, -12.340066999999976], [43.84491300000019, -12.340331999999876], [43.84516600000018, -12.340661999999895], [43.84556400000008, -12.340795999999898], [43.845827000000156, -12.340890999999942], [43.84607900000003, -12.341013999999973], [43.846361000000115, -12.341222999999957], [43.846633000000054, -12.341411999999877], [43.84689600000013, -12.341628999999898], [43.84715800000015, -12.341865999999982], [43.84726500000011, -12.341940999999963], [43.847586000000035, -12.34209299999992], [43.84774200000015, -12.34221599999995], [43.847907000000134, -12.342348999999956], [43.84821800000009, -12.342443999999944], [43.84855799999997, -12.342539999999872], [43.84886900000015, -12.342634999999916], [43.84905300000008, -12.3426639999999], [43.84924700000016, -12.342636999999968], [43.84934400000003, -12.342599999999948], [43.84941200000014, -12.3425059999999], [43.84954800000003, -12.34233699999993], [43.84966400000019, -12.342158999999981], [43.84987800000016, -12.34193399999998], [43.850081000000046, -12.34179399999988], [43.850324000000114, -12.341691999999966], [43.850518000000136, -12.341664999999864], [43.85099400000013, -12.34167599999995], [43.851422000000184, -12.341762999999958], [43.851859000000104, -12.3418309999999], [43.85218900000007, -12.342019999999934], [43.852471000000094, -12.342218999999943], [43.852782000000104, -12.34242699999993], [43.85315100000008, -12.342682999999965], [43.85333600000007, -12.342965999999933], [43.85340400000001, -12.343219999999917], [43.85346300000009, -12.343417999999929], [43.85351300000019, -12.344179999999938], [43.85361, -12.344555999999955], [43.853727000000106, -12.344716999999946], [43.85383400000006, -12.344848999999954], [43.8539310000001, -12.3449149999999], [43.85406700000016, -12.344952999999862], [43.854213000000186, -12.344944999999825], [43.85429000000016, -12.344887999999969], [43.854582000000164, -12.344889999999964], [43.854582000000164, -12.345161999999902], [43.85473700000017, -12.345209999999895], [43.85473800000011, -12.345294999999908], [43.85468900000012, -12.345388999999955], [43.854709000000184, -12.345679999999959], [43.85502900000017, -12.345699999999852], [43.85503000000011, -12.345850999999982], [43.854952000000026, -12.346113999999886], [43.85484600000012, -12.34627299999994], [43.85487500000005, -12.346301999999923], [43.854933000000074, -12.346282999999971], [43.85503000000011, -12.346217999999965], [43.855263000000036, -12.346472999999946], [43.85516600000017, -12.346556999999962], [43.85509900000011, -12.346696999999835], [43.85499200000015, -12.347025999999971], [43.854963000000055, -12.347194999999829], [43.854964000000166, -12.347373999999888], [43.85502200000013, -12.34748699999983], [43.85510000000005, -12.347571999999843], [43.85520700000018, -12.347628999999927], [43.855479000000116, -12.347798999999952], [43.85574100000014, -12.347997999999905], [43.8559360000001, -12.348092999999949], [43.85604300000006, -12.348280999999872], [43.85613000000018, -12.34830999999997], [43.85619800000012, -12.34834799999993], [43.856412000000034, -12.348414999999875], [43.856577000000186, -12.348443999999972], [43.85678100000018, -12.348434999999938], [43.8569260000001, -12.348369999999875], [43.85702300000014, -12.348294999999894], [43.857373000000166, -12.34806199999997], [43.85745000000014, -12.348005999999941], [43.857596000000115, -12.347883999999965], [43.857858000000135, -12.347715999999934], [43.85823600000015, -12.34753899999987], [43.85835300000008, -12.347426999999925], [43.85839099999998, -12.347238999999888], [43.8585470000001, -12.347107999999821], [43.85863400000005, -12.346948999999881], [43.858721000000116, -12.347042999999928], [43.85882800000013, -12.347240999999883], [43.85903300000018, -12.347382999999923], [43.85907800000018, -12.347542999999916], [43.85902300000009, -12.347739999999874], [43.859043000000156, -12.34797599999996], [43.85899500000005, -12.348097999999936], [43.85882000000015, -12.348359999999957], [43.858519000000115, -12.34867799999995], [43.85823800000014, -12.349071999999978], [43.85801500000014, -12.349418999999898], [43.8580060000001, -12.349907999999857], [43.85792900000013, -12.350132999999914], [43.857861000000014, -12.350404999999967], [43.85796800000003, -12.350649999999973], [43.85806600000012, -12.350744999999904], [43.858202000000176, -12.350782999999979], [43.85835700000001, -12.350820999999883], [43.858444000000134, -12.350802999999928], [43.858639000000096, -12.350737999999978], [43.85880400000008, -12.350653999999963], [43.858959000000084, -12.350663999999881], [43.85914400000013, -12.350721999999962], [43.85928900000005, -12.35079799999994], [43.85938699999997, -12.350929999999948], [43.85947400000009, -12.351070999999877], [43.85960100000011, -12.351409999999873], [43.85969800000015, -12.35164599999996], [43.85981500000008, -12.351880999999935], [43.859883000000025, -12.351984999999956], [43.860136000000125, -12.35188299999993], [43.86026200000009, -12.35188299999993], [43.86055300000004, -12.352062999999816], [43.860709000000156, -12.352016999999933], [43.860719000000074, -12.35218599999996], [43.86040800000012, -12.352391999999952], [43.86019500000003, -12.35256899999996], [43.86021400000004, -12.35266399999989], [43.86029200000007, -12.352785999999867], [43.8604380000001, -12.35284299999995], [43.860652000000016, -12.352909999999895], [43.86072899999999, -12.352994999999908], [43.8607300000001, -12.353276999999878], [43.86052600000011, -12.353576999999916], [43.86042900000007, -12.353698999999892], [43.86037100000004, -12.353839999999934], [43.86028400000015, -12.354036999999892], [43.860178000000076, -12.354327999999896], [43.860013000000095, -12.354486999999892], [43.85982800000005, -12.35465499999998], [43.85982900000016, -12.355030999999883], [43.85993600000012, -12.355134999999962], [43.86011100000002, -12.355389999999943], [43.860237000000154, -12.35563499999995], [43.860413000000165, -12.355870999999922], [43.860578000000146, -12.356115999999872], [43.860704000000055, -12.35621999999995], [43.86108300000018, -12.356240999999898], [43.861549000000025, -12.356270999999822], [43.86205400000006, -12.35635799999983], [43.862695000000144, -12.356388999999979], [43.8628020000001, -12.35642699999994], [43.862968000000194, -12.356596999999965], [43.86304500000017, -12.356803999999954], [43.863036000000136, -12.356963999999948], [43.862997000000064, -12.357217999999932], [43.863387000000046, -12.358046999999942], [43.86353300000019, -12.358432999999934], [43.86366900000007, -12.358743999999888], [43.863738000000126, -12.358913999999913], [43.863816000000156, -12.359092999999973], [43.863913000000025, -12.359309999999937], [43.86421400000006, -12.359291999999925], [43.86421400000006, -12.359357999999872], [43.86398100000014, -12.359666999999945], [43.86398200000002, -12.359788999999921], [43.864147, -12.359911999999895], [43.86420500000003, -12.359977999999956], [43.86428300000006, -12.360128999999915], [43.86428400000017, -12.360589999999945], [43.86409000000009, -12.36088099999995], [43.8641090000001, -12.361068999999873], [43.86442100000011, -12.361426999999935], [43.8646930000001, -12.361729999999966], [43.86484800000011, -12.36179599999997], [43.86494500000015, -12.36175899999995], [43.86518800000016, -12.361769999999979], [43.865829000000076, -12.361818999999855], [43.86606300000011, -12.362008999999944], [43.86620800000003, -12.362027999999896], [43.86660700000016, -12.362179999999967], [43.86674300000004, -12.362180999999964], [43.86682000000019, -12.362077999999883], [43.86698500000017, -12.362078999999937], [43.8671020000001, -12.362323999999887], [43.86732600000016, -12.362700999999902], [43.86742300000003, -12.362757999999928], [43.86760800000002, -12.362786999999912], [43.86784100000011, -12.362721999999962], [43.86800600000009, -12.3626569999999], [43.868141000000094, -12.362544999999955], [43.86823800000013, -12.362413999999944], [43.86837400000019, -12.36225399999995], [43.86845200000005, -12.362254999999948], [43.86847200000011, -12.36267799999996], [43.868705000000034, -12.362847999999929], [43.868705000000034, -12.363026999999875], [43.86877300000015, -12.363130999999953], [43.86898700000012, -12.36326299999996], [43.86916200000019, -12.363348999999971], [43.869288000000154, -12.36346199999997], [43.869299000000126, -12.363715999999954], [43.869133999999974, -12.36389399999996], [43.86892999999998, -12.363986999999895], [43.868764999999996, -12.364117999999905], [43.868764999999996, -12.364531999999883], [43.868921000000114, -12.364701999999909], [43.86907700000006, -12.36484299999995], [43.86909600000007, -12.365002999999945], [43.86900900000012, -12.365190999999982], [43.869000000000085, -12.365378999999962], [43.869194000000164, -12.365680999999938], [43.869389000000126, -12.365850999999964], [43.86959300000012, -12.36602999999991], [43.86976800000008, -12.366077999999902], [43.86990400000013, -12.366172999999947], [43.86991400000005, -12.366802999999948], [43.869982000000164, -12.366971999999976], [43.87020600000005, -12.367076999999938], [43.87040000000013, -12.367161999999894], [43.87087600000007, -12.367154999999912], [43.871032000000184, -12.367258999999933], [43.871022000000096, -12.367465999999979], [43.870983000000024, -12.36756899999989], [43.87072100000006, -12.367595999999935], [43.87046900000013, -12.367566999999895], [43.87029400000006, -12.367528999999877], [43.869886000000065, -12.367498999999953], [43.86980800000015, -12.367648999999972], [43.86995500000006, -12.368128999999954], [43.87000300000011, -12.368213999999966], [43.869965000000036, -12.368316999999877], [43.869848000000104, -12.368325999999911], [43.86973200000011, -12.36828799999995], [43.86959600000006, -12.368314999999882], [43.86946100000006, -12.369527999999889], [43.869403000000034, -12.36960299999987], [43.86940500000003, -12.37109799999996], [43.86955100000006, -12.371539999999925], [43.86964900000015, -12.371822999999893], [43.869736000000046, -12.372095999999942], [43.869834000000026, -12.37237799999997], [43.869931000000065, -12.37263299999995], [43.870009000000096, -12.37274599999995], [43.87012600000003, -12.372877999999957], [43.87022300000007, -12.37296299999997], [43.870282000000145, -12.37348999999989], [43.87049600000006, -12.373650999999882], [43.87060300000002, -12.373763999999824], [43.870681000000104, -12.373895999999888], [43.87069100000002, -12.374083999999925], [43.870856000000174, -12.37421699999993], [43.87091400000003, -12.374357999999859], [43.87091400000003, -12.37446099999994], [43.87081800000004, -12.374639999999829], [43.8707500000001, -12.374676999999963], [43.870585000000176, -12.374750999999947], [43.87033200000019, -12.374928999999952], [43.87009000000006, -12.375021999999888], [43.869964000000095, -12.375152999999898], [43.869867000000056, -12.375405999999884], [43.86969200000016, -12.375734999999906], [43.869538000000034, -12.376165999999955], [43.869392000000005, -12.376447999999925], [43.869198000000154, -12.376794999999959], [43.86904300000009, -12.37709499999994], [43.86880100000013, -12.377516999999841], [43.86846200000019, -12.378032999999903], [43.86832600000014, -12.378228999999976], [43.86829700000004, -12.378435999999851], [43.86830800000007, -12.37887799999993], [43.86835600000012, -12.379009999999937], [43.8683860000001, -12.37928299999993], [43.868328000000076, -12.379423999999972], [43.86820200000017, -12.37954499999995], [43.868047000000104, -12.37978899999996], [43.86796900000007, -12.38001399999996], [43.867951000000176, -12.380897999999888], [43.86791200000016, -12.381207999999958], [43.867864000000054, -12.381301999999948], [43.86776700000007, -12.381498999999963], [43.867641000000106, -12.381648999999868], [43.86750500000005, -12.381807999999978], [43.86743800000016, -12.382211999999981], [43.86740100000014, -12.383725999999854], [43.86755599999998, -12.383848999999884], [43.86762500000003, -12.383886999999959], [43.86787700000008, -12.383887999999956], [43.86820700000004, -12.383898999999872], [43.86841100000004, -12.383927999999969], [43.86870300000004, -12.38399499999997], [43.8688580000001, -12.384014999999977], [43.86902300000003, -12.383948999999916], [43.86940200000015, -12.383969999999977], [43.86951800000014, -12.38402699999989], [43.869703000000186, -12.384187999999881], [43.86984899999999, -12.384328999999923], [43.86996600000009, -12.384414999999933], [43.86994600000003, -12.38457399999993], [43.869811000000084, -12.384667999999976], [43.869752000000176, -12.384723999999892], [43.86970400000007, -12.384995999999944], [43.86955900000015, -12.385098999999968], [43.86943200000013, -12.38507999999996], [43.86936400000019, -12.384994999999947], [43.869228000000135, -12.384908999999936], [43.86914100000007, -12.384748999999942], [43.86898500000012, -12.384616999999935], [43.86880000000008, -12.384474999999895], [43.86852800000014, -12.384256999999934], [43.868295000000046, -12.384171999999978], [43.86794500000019, -12.384066999999902], [43.867634000000066, -12.384064999999907], [43.86745000000013, -12.38409299999995], [43.86745000000013, -12.384289999999964], [43.86734400000006, -12.384477999999888], [43.86719800000003, -12.38474999999994], [43.86704400000008, -12.385237999999902], [43.86685, -12.385763999999881], [43.86678200000006, -12.385988999999938], [43.86679200000003, -12.386091999999962], [43.86687000000006, -12.386195999999927], [43.86705500000011, -12.386337999999967], [43.86731700000013, -12.386517999999853], [43.86754100000019, -12.386668999999927], [43.867745000000184, -12.386829999999975], [43.867988000000025, -12.38693499999988], [43.868201000000056, -12.387057999999854], [43.868347000000085, -12.387152999999898], [43.868406000000164, -12.387237999999911], [43.868533000000184, -12.388008999999954], [43.868601000000126, -12.38836699999996], [43.86864000000014, -12.388394999999889], [43.868678999999986, -12.388582999999926], [43.86880600000006, -12.388724999999852], [43.869019000000094, -12.388857999999914], [43.86917500000004, -12.389017999999908], [43.86925300000007, -12.389253999999937], [43.86934100000008, -12.389385999999831], [43.869438000000116, -12.389630999999952], [43.869448000000034, -12.389780999999914], [43.869400000000155, -12.389940999999908], [43.86934100000008, -12.390071999999918], [43.869225000000085, -12.390230999999915], [43.86915700000014, -12.39034399999997], [43.869041000000095, -12.390502999999967], [43.86902200000014, -12.39089799999988], [43.869187000000124, -12.391124999999931], [43.86930400000006, -12.39123799999993], [43.86945000000003, -12.391463999999814], [43.86954700000007, -12.391595999999879], [43.869538000000034, -12.391746999999953], [43.8694210000001, -12.391896999999915], [43.86930500000011, -12.391895999999917], [43.86929500000019, -12.391782999999919], [43.86933400000004, -12.391623999999979], [43.86929500000019, -12.391491999999971], [43.86916800000017, -12.391340999999954], [43.86906100000016, -12.391245999999967], [43.86894500000017, -12.391198999999915], [43.86878900000005, -12.391206999999952], [43.86869200000018, -12.391159999999957], [43.86862400000007, -12.390961999999945], [43.86864300000008, -12.390886999999964], [43.86877900000013, -12.390746999999976], [43.86879800000008, -12.39065299999993], [43.86873000000014, -12.390538999999933], [43.86859400000009, -12.390453999999977], [43.86845800000003, -12.390424999999823], [43.86832200000015, -12.390461999999957], [43.86810900000012, -12.390545999999972], [43.86788600000011, -12.390704999999969], [43.86772100000013, -12.390929999999969], [43.86757500000016, -12.391078999999934], [43.867469000000085, -12.391125999999929], [43.86715800000013, -12.391152999999917], [43.866857000000095, -12.391141999999888], [43.866498000000036, -12.391186999999888], [43.86624500000005, -12.391345999999885], [43.86610000000013, -12.39148599999993], [43.865964000000076, -12.391598999999871], [43.86577, -12.391625999999974], [43.86558500000018, -12.39160599999991], [43.86535200000009, -12.391491999999971], [43.86503100000016, -12.391377999999975], [43.864798000000064, -12.391235999999935], [43.86461300000019, -12.39106599999991], [43.864526000000126, -12.390980999999897], [43.864351, -12.390716999999825], [43.864147, -12.390508999999952], [43.863835000000165, -12.390243999999939], [43.8635920000001, -12.390016999999887], [43.863301000000035, -12.389836999999943], [43.86292200000008, -12.389665999999977], [43.86263000000008, -12.389514999999847], [43.86230000000012, -12.389390999999875], [43.862067000000025, -12.389304999999979], [43.86188200000004, -12.389172999999971], [43.861600000000124, -12.388982999999882], [43.861406000000045, -12.388812999999914], [43.86107500000003, -12.3884359999999], [43.86073500000015, -12.388113999999916], [43.86057900000003, -12.387981999999909], [43.86037500000003, -12.38790599999993], [43.860230000000115, -12.38785799999988], [43.86007400000017, -12.387753999999973], [43.859831000000156, -12.387564999999881], [43.85959800000006, -12.387384999999824], [43.859354999999994, -12.387167999999974], [43.859102000000064, -12.386940999999922], [43.858878000000175, -12.38677999999993], [43.85867400000018, -12.386675999999966], [43.8584800000001, -12.386627999999973], [43.8582760000001, -12.386598999999876], [43.85812100000004, -12.386578999999927], [43.85802300000012, -12.38649399999997], [43.858004000000165, -12.386333999999977], [43.85804200000007, -12.386202999999966], [43.858198000000186, -12.38610899999992], [43.85830400000009, -12.386052999999833], [43.85833300000019, -12.385959999999955], [43.85828500000014, -12.38586499999991], [43.8581880000001, -12.385742999999934], [43.85792500000019, -12.385571999999911], [43.85765300000003, -12.38541099999992], [43.85747800000013, -12.385325999999964], [43.85723500000012, -12.385286999999948], [43.856924000000106, -12.38527599999992], [43.85657500000019, -12.385302999999965], [43.85616700000003, -12.385366999999917], [43.855759000000035, -12.385411999999974], [43.855497000000184, -12.385438999999906], [43.85521300000016, -12.38539999999989], [43.85484600000012, -12.385284999999953], [43.85439000000008, -12.385188999999912], [43.85411800000014, -12.385121999999967], [43.85378800000018, -12.385091999999815], [43.85348600000009, -12.385071999999923], [43.85324400000013, -12.38511799999992], [43.85300100000006, -12.38521099999997], [43.852826000000164, -12.38527599999992], [43.85264200000006, -12.385359999999935], [43.85260299999999, -12.385453999999925], [43.85262300000005, -12.385500999999977], [43.85269099999999, -12.385528999999906], [43.852778000000114, -12.385566999999924], [43.85278800000003, -12.385642999999902], [43.852681000000075, -12.385669999999948], [43.85252600000001, -12.38579199999998], [43.85241000000019, -12.385903999999925], [43.8523120000001, -12.385903999999925], [43.85218600000013, -12.38576199999983], [43.85218600000013, -12.385658999999919], [43.85225400000007, -12.385507999999959], [43.85228300000017, -12.385385999999869], [43.852292000000034, -12.385216999999955], [43.85226300000011, -12.38511399999993], [43.85220500000014, -12.385056999999847], [43.85201000000018, -12.384942999999907], [43.851845000000026, -12.384923999999955], [43.85164099999997, -12.384875999999963], [43.85139800000013, -12.384864999999934], [43.85125300000004, -12.384882999999945], [43.85112600000019, -12.384929999999883], [43.85103900000013, -12.385041999999942], [43.850884000000065, -12.385144999999909], [43.85076700000013, -12.385200999999938], [43.85040800000013, -12.385217999999952], [43.850272000000075, -12.38524499999994], [43.850088000000085, -12.385328999999956], [43.84988400000009, -12.38546899999983], [43.849748000000034, -12.385693999999887], [43.84968100000003, -12.385909999999967], [43.84959400000008, -12.386125999999933], [43.849535000000174, -12.386200999999915], [43.8494290000001, -12.386190999999883], [43.84927299999998, -12.386058999999875], [43.849108, -12.38599199999993], [43.84897200000012, -12.386009999999828], [43.84873900000002, -12.386121999999943], [43.848516000000075, -12.38628099999994], [43.84831200000008, -12.386571999999944], [43.848176000000194, -12.38667399999997], [43.84800200000018, -12.386720999999966], [43.84787500000016, -12.386710999999934], [43.847739000000104, -12.386671999999976], [43.847496000000035, -12.38651099999987], [43.847331000000054, -12.386369999999943], [43.847146000000066, -12.386189999999885], [43.84674800000016, -12.385783999999944], [43.84660200000013, -12.385669999999948], [43.84634900000003, -12.385631999999816], [43.84618400000005, -12.385564999999872], [43.84597000000008, -12.385469999999827], [43.84581500000007, -12.385318999999924], [43.84569800000014, -12.385167999999965], [43.84555200000017, -12.384922999999958], [43.84547400000008, -12.384621999999979], [43.84539600000005, -12.384338999999954], [43.84526899999997, -12.384046999999953], [43.84520100000003, -12.383971999999972], [43.84502700000007, -12.383932999999843], [43.844871000000126, -12.383941999999877], [43.84458000000018, -12.383958999999948], [43.844337000000166, -12.384004999999945], [43.843813000000125, -12.384021999999902], [43.84335599999997, -12.384018999999853], [43.843055000000106, -12.384064999999907], [43.842835000000036, -12.384091999999953], [43.842589000000146, -12.384165999999937], [43.84241500000013, -12.384221999999966], [43.84234700000019, -12.384371999999928], [43.84225000000015, -12.384371999999928], [43.84225000000015, -12.384117999999944], [43.84214200000008, -12.383956999999953], [43.842006000000026, -12.383843999999954], [43.841841000000045, -12.383786999999927], [43.84163700000005, -12.383766999999978], [43.84136500000011, -12.38376599999998], [43.84118999999998, -12.38380299999983], [43.84097700000012, -12.383857999999918], [43.840792000000135, -12.383931999999845], [43.84061800000012, -12.383987999999931], [43.8404910000001, -12.38396899999998], [43.84030700000011, -12.383948999999916], [43.84036400000008, -12.382914999999969], [43.840257000000065, -12.382772999999872], [43.84005300000007, -12.38262199999997], [43.83978100000013, -12.382469999999955], [43.83947900000004, -12.382421999999963], [43.83910100000003, -12.382447999999897], [43.83883900000018, -12.382465999999965], [43.83849900000013, -12.382407999999941], [43.83778000000012, -12.382488999999907], [43.837538000000166, -12.382657999999935], [43.837314000000106, -12.382740999999953], [43.837052000000085, -12.383012999999835], [43.83682900000014, -12.383170999999948], [43.83665500000012, -12.383254999999963], [43.83650900000015, -12.383366999999907], [43.836305000000095, -12.38336599999991], [43.836227000000065, -12.383318999999915], [43.83599400000014, -12.383091999999976], [43.83581900000007, -12.382959999999969], [43.83541100000002, -12.382778999999914], [43.83515800000009, -12.382617999999923], [43.83493500000009, -12.382409999999936], [43.83470100000011, -12.382230999999877], [43.83442900000017, -12.382191999999918], [43.8341860000001, -12.382077999999922], [43.83399200000008, -12.381897999999865], [43.833885000000066, -12.381775999999888], [43.83363200000014, -12.381764999999973], [43.83352600000006, -12.381698999999912], [43.83269000000013, -12.381722999999965], [43.83172900000005, -12.381690999999876], [43.83132100000006, -12.381641999999886], [43.831020000000194, -12.381526999999892], [43.830874000000165, -12.381498999999963], [43.83027200000009, -12.381250999999963], [43.829417000000035, -12.38095599999997], [43.82857200000012, -12.380641999999966], [43.827755000000025, -12.380383999999935], [43.827056000000084, -12.380220999999949], [43.826493000000085, -12.380076999999915], [43.82627900000011, -12.380198999999948], [43.82621100000017, -12.380301999999972], [43.82610400000004, -12.380300999999974], [43.82607500000012, -12.37979299999995], [43.82598700000011, -12.37973699999992], [43.82579300000003, -12.379725999999891], [43.82564700000006, -12.379602999999975], [43.82569500000011, -12.379443999999921], [43.82568500000019, -12.379161999999951], [43.825607000000105, -12.378935999999896], [43.82556800000009, -12.378671999999938], [43.82544200000012, -12.378548999999964], [43.82532500000008, -12.378463999999951], [43.82512100000008, -12.378293999999926], [43.82487800000018, -12.378104999999891], [43.82470300000011, -12.377962999999966], [43.82449900000012, -12.37782999999996], [43.824382000000185, -12.377725999999882], [43.824237000000096, -12.377697999999896], [43.8240330000001, -12.377667999999971], [43.82381900000013, -12.377676999999949], [43.823625000000106, -12.377741999999898], [43.82342100000011, -12.377881999999943], [43.823198000000104, -12.378049999999973], [43.82308200000011, -12.37817199999995], [43.82298400000019, -12.378170999999952], [43.82295500000009, -12.377785999999958], [43.82286700000009, -12.377794999999935], [43.82255700000019, -12.378103999999894], [43.82245000000006, -12.37807499999991], [43.82245000000006, -12.37792399999995], [43.822537000000125, -12.377745999999945], [43.822537000000125, -12.377670999999964], [43.82249800000011, -12.377576999999917], [43.82243000000017, -12.377500999999938], [43.822362000000055, -12.377472999999952], [43.82208000000014, -12.37749999999994], [43.82197400000007, -12.377592999999933], [43.82178900000008, -12.377742999999953], [43.82159500000017, -12.377957999999978], [43.82139200000006, -12.378144999999847], [43.82123600000011, -12.37814399999985], [43.82123700000005, -12.378557999999884], [43.82113000000004, -12.378557999999884], [43.820993999999985, -12.378086999999937], [43.82088700000003, -12.377954999999929], [43.820819000000085, -12.377953999999932], [43.820741000000055, -12.37808599999994], [43.82066400000008, -12.378244999999936], [43.820703000000094, -12.37844299999989], [43.82071300000018, -12.378743999999926], [43.82066400000008, -12.378912999999955], [43.820344000000034, -12.378685999999846], [43.820344000000034, -12.37860099999989], [43.82046900000006, -12.378366999999912], [43.82046900000006, -12.377905999999939], [43.82039100000003, -12.37782999999996], [43.820333000000005, -12.37784899999997], [43.82027500000004, -12.377951999999937], [43.82012900000018, -12.377969999999948], [43.820109000000116, -12.377715999999964], [43.82005100000015, -12.377724999999884], [43.81997400000017, -12.37783799999994], [43.81980900000019, -12.377986999999905], [43.81972200000007, -12.378240999999946], [43.819683000000055, -12.378240999999946], [43.81958500000013, -12.378032999999903], [43.819672000000025, -12.37772399999983], [43.819721000000186, -12.377572999999927], [43.819691000000034, -12.377516999999841], [43.81963300000018, -12.377487999999914], [43.81955500000015, -12.377487999999914], [43.819478000000174, -12.377590999999939], [43.81940000000009, -12.377608999999893], [43.81936100000007, -12.377495999999951], [43.81929300000013, -12.377307999999971], [43.81918600000017, -12.37720399999995], [43.819060000000036, -12.37714699999998], [43.81886600000013, -12.3771559999999], [43.81861299999997, -12.377116999999942], [43.818399000000056, -12.37710699999991], [43.81810800000011, -12.37711499999989], [43.81788500000016, -12.377178999999956], [43.817632000000174, -12.377271999999891], [43.817497, -12.377393999999981], [43.81746800000013, -12.377496999999948], [43.81750700000015, -12.377713999999969], [43.81760400000019, -12.377854999999897], [43.817633000000114, -12.378080999999952], [43.817614000000106, -12.378287999999941], [43.81741099999999, -12.378549999999962], [43.81719700000008, -12.37878399999994], [43.817042000000015, -12.378933999999845], [43.81680900000015, -12.379063999999858], [43.81659600000006, -12.379203999999959], [43.81623700000006, -12.379277999999886], [43.81611000000004, -12.37935299999998], [43.815955000000145, -12.379492999999911], [43.81588700000003, -12.379642999999874], [43.815829000000065, -12.379802999999981], [43.81572300000016, -12.38014099999998], [43.81557700000013, -12.38030899999984], [43.815422000000126, -12.380533999999955], [43.815254000000095, -12.380723999999873], [43.81508300000013, -12.380804999999953], [43.81496600000003, -12.380860999999925], [43.81478200000009, -12.380888999999968], [43.81461700000011, -12.38088799999997], [43.81443200000007, -12.380783999999949], [43.81430600000016, -12.380660999999918], [43.81422800000007, -12.38052899999991], [43.81416000000013, -12.380368999999916], [43.814159000000075, -12.37978599999991], [43.814256000000114, -12.379512999999974], [43.81441100000012, -12.379043999999965], [43.8144880000001, -12.378733999999895], [43.814682000000175, -12.378414999999961], [43.81471000000016, -12.378179999999873], [43.81469100000004, -12.378048999999976], [43.81463200000013, -12.37788799999987], [43.81456400000019, -12.377708999999982], [43.81456400000019, -12.37737999999996], [43.81461200000007, -12.37724899999995], [43.81470900000011, -12.377107999999907], [43.81484500000016, -12.377023999999892], [43.81497100000013, -12.376967999999977], [43.815029000000095, -12.376864999999896], [43.815029000000095, -12.37646099999995], [43.81498000000016, -12.376403999999923], [43.81496100000015, -12.376309999999876], [43.81508700000012, -12.37621699999994], [43.815126000000134, -12.376291999999978], [43.815301000000034, -12.37633999999997], [43.81539800000007, -12.37633999999997], [43.81553300000007, -12.376265999999873], [43.81559200000015, -12.376199999999926], [43.81566900000013, -12.376068999999916], [43.81564000000003, -12.375720999999942], [43.81548400000008, -12.375324999999918], [43.815328000000136, -12.374985999999922], [43.8152310000001, -12.374740999999915], [43.814939000000095, -12.374758999999926], [43.814765000000136, -12.374907999999891], [43.81463800000006, -12.374944999999911], [43.81454100000008, -12.374812999999847], [43.814424000000145, -12.374727999999891], [43.81424000000004, -12.374604999999974], [43.81408400000009, -12.374528999999882], [43.81390900000014, -12.37448099999989], [43.813531000000125, -12.374403999999913], [43.81321000000008, -12.374336999999969], [43.81281200000018, -12.374240999999927], [43.81266600000015, -12.374211999999943], [43.81254000000007, -12.374258999999938], [43.8121910000001, -12.374472999999966], [43.81196700000004, -12.374565999999902], [43.811462000000006, -12.374554999999816], [43.811171000000115, -12.37472299999996], [43.81089900000018, -12.374852999999973], [43.81075400000009, -12.374832999999967], [43.81060800000006, -12.374644999999873], [43.81051100000019, -12.37458799999996], [43.81033600000012, -12.374454999999955], [43.8102090000001, -12.374379999999974], [43.809753, -12.374377999999979], [43.809471000000144, -12.374488999999926], [43.80922900000019, -12.374515999999971], [43.808675000000164, -12.374541999999963], [43.80816000000004, -12.374285999999927], [43.80813100000012, -12.374172999999928], [43.80836400000004, -12.373872999999946], [43.80829500000016, -12.373759999999947], [43.80792600000018, -12.37357899999995], [43.80716799999999, -12.373359999999877], [43.80676000000017, -12.373206999999923], [43.806595000000186, -12.373356999999885], [43.80640200000005, -12.373628999999937], [43.80608100000012, -12.373673999999937], [43.80573100000015, -12.373596999999961], [43.80562500000008, -12.373549999999966], [43.805458999999985, -12.373398999999893], [43.80535200000003, -12.373369999999909], [43.80498400000016, -12.373490999999888], [43.80464400000005, -12.37358299999994], [43.803925000000106, -12.373663999999962], [43.80341100000004, -12.37366199999991], [43.802430000000186, -12.373562999999876], [43.8012930000001, -12.373548999999969], [43.80056500000006, -12.373563999999874], [43.79993400000012, -12.373636999999974], [43.79951600000015, -12.373634999999979], [43.799060000000054, -12.373707999999965], [43.798613000000046, -12.373780999999894], [43.79816700000009, -12.373938999999893], [43.797652000000085, -12.374114999999904], [43.79722500000014, -12.374291999999969], [43.796682000000146, -12.374486999999874], [43.796245000000056, -12.374559999999974], [43.795740000000194, -12.374604999999974], [43.79512799999998, -12.374638999999945], [43.7943800000001, -12.37467399999997], [43.794138000000146, -12.374606999999855], [43.79388500000016, -12.374482999999884], [43.79362299999997, -12.374396999999874], [43.79314600000015, -12.374140999999952], [43.79271900000015, -12.37401699999998], [43.79236900000018, -12.373920999999939], [43.79194200000018, -12.373900999999876], [43.79146600000007, -12.373775999999907], [43.79098000000016, -12.37375499999996], [43.79068900000004, -12.373734999999897], [43.79039800000015, -12.373742999999934], [43.79006800000019, -12.373797999999965], [43.78972800000014, -12.373796999999968], [43.789446000000055, -12.373757999999953], [43.78923200000014, -12.373643999999842], [43.789125000000126, -12.37355899999983], [43.789047000000096, -12.373491999999942], [43.78895000000006, -12.373388999999975], [43.7888430000001, -12.37322799999987], [43.78869700000007, -12.372982999999863], [43.78859000000011, -12.37279499999994], [43.78845400000006, -12.372661999999934], [43.78828900000008, -12.372576999999922], [43.78813300000013, -12.372547999999938], [43.78784200000007, -12.372564999999895], [43.787512000000106, -12.372582999999963], [43.78724000000017, -12.372543999999948], [43.78711400000003, -12.372477999999887], [43.78705500000012, -12.372410999999943], [43.7869970000001, -12.372222999999963], [43.786958000000084, -12.372062999999969], [43.78684099999998, -12.371958999999947], [43.78662700000007, -12.371863999999903], [43.78611200000006, -12.371710999999948], [43.78574300000008, -12.371624999999938], [43.78552000000013, -12.371567999999911], [43.78535500000015, -12.371425999999929], [43.78526700000015, -12.371293999999978], [43.78514100000001, -12.371217999999942], [43.78501400000016, -12.371188999999845], [43.784810000000164, -12.371093999999971], [43.78464500000018, -12.371008999999958], [43.78447000000011, -12.370875999999953], [43.78437300000007, -12.370771999999874], [43.78428500000007, -12.37061199999988], [43.78416800000019, -12.370347999999979], [43.783974000000114, -12.36986799999994], [43.783798000000104, -12.369452999999908], [43.7837100000001, -12.369095999999956], [43.78363200000007, -12.368690999999899], [43.783525000000054, -12.368454999999926], [43.78348600000004, -12.368370999999911], [43.783399000000145, -12.36833299999995], [43.783253000000116, -12.368303999999966], [43.78297100000009, -12.368292999999937], [43.78268000000014, -12.368281999999908], [43.78236900000019, -12.368223999999941], [43.78204899999997, -12.368175999999949], [43.781553000000144, -12.368220999999949], [43.78126200000008, -12.368256999999971], [43.78095100000007, -12.368358999999884], [43.78076700000014, -12.368414999999914], [43.78059200000007, -12.36842299999995], [43.78051500000009, -12.368403999999884], [43.78039800000016, -12.368337999999937], [43.780310000000156, -12.368242999999893], [43.780174999999986, -12.368392999999969], [43.780019000000095, -12.3685329999999], [43.77981600000015, -12.368616999999915], [43.77968900000013, -12.368662999999913], [43.77955300000008, -12.368662999999913], [43.779398000000185, -12.368595999999968], [43.77928100000014, -12.36849199999989], [43.77914500000003, -12.368350999999961], [43.778999000000056, -12.368161999999927], [43.77894100000003, -12.368010999999967], [43.778853000000026, -12.367991999999902], [43.778572000000054, -12.368131999999946], [43.77805800000016, -12.368429999999933], [43.77754300000004, -12.36875699999996], [43.777078000000074, -12.369064999999978], [43.77668, -12.369373999999937], [43.77640800000006, -12.36959799999994], [43.77617500000014, -12.36973799999987], [43.77593300000001, -12.369821999999886], [43.775894000000164, -12.369952999999896], [43.77577800000017, -12.370083999999963], [43.77577800000017, -12.370431999999823], [43.775701000000026, -12.370675999999946], [43.77554500000008, -12.370862999999872], [43.77554600000019, -12.37121099999996], [43.77569200000016, -12.371352999999885], [43.77577900000006, -12.371522999999854], [43.77582800000005, -12.371729999999843], [43.77583800000019, -12.372039999999913], [43.77594600000003, -12.372341999999946], [43.77614000000011, -12.372529999999927], [43.776286000000084, -12.372681999999827], [43.77656800000017, -12.372908999999936], [43.77687900000012, -12.37318299999987], [43.77709300000009, -12.373446999999885], [43.77729700000009, -12.37376799999987], [43.77744300000012, -12.373993999999925], [43.77753100000007, -12.374153999999919], [43.77758000000006, -12.37437099999994], [43.777639000000136, -12.374915999999928], [43.77766900000012, -12.375752999999975], [43.77764100000013, -12.3768629999999], [43.77773800000017, -12.377163999999937], [43.77784600000007, -12.377417999999977], [43.77804000000009, -12.377719999999954], [43.77813800000007, -12.3778989999999], [43.778158000000076, -12.378387999999973], [43.77829400000019, -12.378811999999982], [43.77832300000006, -12.37895299999991], [43.778353000000095, -12.379037999999923], [43.77848900000015, -12.379244999999912], [43.77854700000012, -12.379376999999977], [43.77854800000006, -12.37983799999995], [43.77843200000001, -12.379996999999946], [43.77835400000015, -12.38022299999983], [43.77825700000011, -12.380391999999972], [43.77811200000019, -12.380597999999964], [43.77803400000016, -12.380747999999926]]]}}]}