{"type": "FeatureCollection", "features": [{"type": "Feature", "properties": {"country": "Comoros", "pcode": "KM121", "name": "Adda", "island": "Anjouan (Ndzouani)"}, "geometry": {"type": "Polygon", "coordinates": [[[44.524887000000035, -12.28031199999998], [44.52450300000004, -12.280987999999923], [44.52405600000003, -12.281607999999892], [44.52394300000009, -12.282018999999877], [44.52397000000019, -12.282390999999961], [44.52397300000007, -12.28393599999987], [44.52402200000006, -12.284662999999966], [44.52406300000007, -12.285604999999862], [44.524244000000124, -12.286743999999942], [44.524468000000184, -12.28742699999998], [44.52472300000011, -12.288740999999959], [44.52522600000003, -12.289734999999894], [44.52524300000016, -12.28988099999998], [44.52539700000011, -12.290557999999976], [44.52564600000011, -12.29188899999997], [44.525783000000104, -12.29257199999995], [44.526134000000184, -12.293434999999874], [44.526167000000044, -12.294832999999926], [44.526430000000175, -12.295848999999862], [44.526936999999975, -12.297213999999826], [44.52731699999998, -12.298167999999976], [44.527669000000174, -12.299019999999928], [44.52793500000013, -12.299499999999966], [44.52805600000005, -12.29975399999995], [44.52824700000019, -12.30005899999992], [44.52825800000005, -12.30019399999992], [44.52831400000008, -12.300543999999945], [44.527961000000175, -12.303147999999908], [44.51173800000009, -12.306565999999918], [44.50727300000011, -12.30586599999998], [44.50443000000007, -12.306098999999904], [44.49544000000003, -12.306736999999941], [44.488815000000045, -12.308704999999975], [44.47997900000013, -12.307107999999914], [44.47995600000013, -12.31037299999997], [44.48082999999997, -12.318288999999822], [44.48182300000008, -12.322741999999948], [44.48264700000004, -12.324721999999895], [44.48263400000002, -12.326502999999889], [44.47488800000002, -12.337883999999917], [44.47472800000014, -12.337364999999977], [44.474605000000054, -12.336349999999925], [44.474500999999975, -12.336112999999955], [44.474292000000105, -12.335807999999929], [44.47408400000012, -12.335536999999874], [44.47395800000004, -12.334949999999878], [44.473669000000086, -12.334396999999967], [44.473426000000075, -12.33402499999994], [44.47318200000012, -12.333786999999973], [44.472985000000165, -12.333549999999889], [44.47282200000018, -12.333368999999834], [44.47273000000018, -12.333109999999976], [44.4726730000001, -12.332951999999977], [44.47251000000011, -12.332781999999952], [44.472417000000064, -12.332736999999952], [44.47212500000006, -12.332724999999925], [44.47195100000005, -12.33245399999987], [44.471711000000084, -12.331551999999931], [44.471676, -12.331449999999961], [44.47146700000013, -12.331268999999963], [44.47131600000006, -12.331178999999906], [44.47111800000005, -12.331031999999823], [44.471002000000055, -12.330906999999968], [44.47085400000003, -12.330184999999972], [44.4706680000001, -12.329936999999973], [44.47049400000009, -12.329800999999918], [44.47013300000009, -12.329540999999892], [44.46983000000006, -12.329404999999952], [44.46964300000002, -12.32937099999998], [44.46939800000018, -12.329392999999925], [44.46900600000009, -12.328478999999959], [44.46875000000006, -12.328229999999962], [44.46861100000007, -12.327992999999822], [44.46812300000005, -12.327551999999912], [44.4674710000001, -12.327121999999974], [44.46682000000004, -12.326635999999894], [44.46637800000008, -12.326296999999897], [44.46592399999997, -12.32596899999993], [44.465470000000096, -12.325640999999905], [44.46517900000015, -12.325470999999936], [44.46481800000015, -12.325357999999937], [44.46452700000003, -12.325142999999912], [44.46442200000007, -12.32506399999994], [44.46431800000016, -12.324837999999886], [44.464240000000075, -12.324217999999917], [44.46411200000017, -12.324070999999947], [44.46380900000014, -12.32391199999995], [44.4636000000001, -12.323798999999894], [44.46334300000012, -12.323674999999923], [44.46318100000008, -12.323538999999869], [44.46289000000013, -12.323255999999901], [44.46265800000015, -12.32298499999996], [44.46257600000007, -12.32293999999996], [44.462366000000145, -12.322882999999877], [44.46217999999999, -12.322803999999905], [44.46209900000008, -12.322713999999905], [44.461831000000075, -12.322475999999938], [44.461645000000146, -12.32230699999991], [44.461517000000015, -12.322283999999968], [44.46131800000012, -12.322260999999912], [44.461096, -12.322350999999912], [44.46095500000007, -12.32244099999997], [44.4608970000001, -12.322394999999915], [44.460816000000136, -12.322270999999944], [44.46067600000009, -12.322191999999973], [44.46171900000007, -12.319845999999927], [44.46238000000005, -12.3185059999999], [44.46327100000002, -12.315360999999939], [44.46420900000004, -12.312596999999926], [44.46275300000019, -12.309204999999963], [44.46159877400004, -12.308154903999935], [44.46120220500018, -12.307794110999907], [44.45915769800007, -12.305934050999952], [44.45737700000018, -12.30431399999992], [44.45311800000019, -12.300185999999883], [44.45265100000012, -12.29773199999994], [44.45241000000004, -12.294795999999963], [44.4535590000001, -12.29044499999992], [44.45263200000011, -12.289849999999888], [44.45198800000014, -12.288759999999968], [44.45264500000013, -12.287969999999973], [44.45414900000003, -12.286092999999823], [44.45537600000017, -12.28381899999988], [44.4568910000001, -12.280259999999942], [44.457525000000146, -12.277804999999944], [44.46062200000006, -12.279474999999877], [44.464516, -12.281854999999894], [44.46990500000004, -12.283545999999944], [44.47603900000007, -12.285237999999936], [44.481057000000135, -12.286729999999864], [44.48654099999999, -12.288123999999982], [44.49062900000001, -12.289416999999958], [44.501153000000045, -12.289334999999937], [44.5035840000001, -12.287854999999865], [44.5065790000001, -12.28588099999996], [44.50863600000014, -12.28459799999996], [44.51200900000015, -12.28183299999995], [44.51556600000009, -12.279266999999834], [44.52015900000015, -12.27501999999987], [44.52123900000015, -12.28026599999987], [44.524887000000035, -12.28031199999998]]]}}]}