{"type": "FeatureCollection", "features": [{"type": "Feature", "properties": {"country": "Comoros", "pcode": "KM281", "name": "Dimani", "island": "Grande Comore (Ngazidja)"}, "geometry": {"type": "Polygon", "coordinates": [[[43.41243700000007, -11.666170999999906], [43.41269200000005, -11.666452999999876], [43.41287800000015, -11.666384999999934], [43.41300600000011, -11.666429999999934], [43.412738000000104, -11.666712999999902], [43.41284200000001, -11.666859999999872], [43.41261000000003, -11.66699599999987], [43.41243500000013, -11.66702999999984], [43.41236500000019, -11.667108999999869], [43.412806000000046, -11.66743699999995], [43.412736000000166, -11.667685999999946], [43.412701000000084, -11.667855999999972], [43.412863000000186, -11.667945999999972], [43.41320000000019, -11.667854999999975], [43.413479000000166, -11.668058999999971], [43.41379100000006, -11.668646999999964], [43.41416300000009, -11.66865799999988], [43.41424400000005, -11.669041999999934], [43.41422000000017, -11.66925699999996], [43.414405000000045, -11.669595999999956], [43.41490500000003, -11.669663999999898], [43.41504400000014, -11.669798999999955], [43.41516000000013, -11.670036999999923], [43.41555400000004, -11.67022899999995], [43.41649500000011, -11.67038599999995], [43.41719200000006, -11.670611999999892], [43.41762200000011, -11.670656999999892], [43.41763300000014, -11.670882999999947], [43.417819000000065, -11.670882999999947], [43.41826100000003, -11.670644999999979], [43.41842300000013, -11.670836999999949], [43.4188180000001, -11.670983999999976], [43.41872400000017, -11.671368999999913], [43.41887500000007, -11.67152699999997], [43.418839000000105, -11.671922999999936], [43.41933800000015, -11.67229599999996], [43.41919800000011, -11.672578999999928], [43.419186000000025, -11.672657999999899], [43.41938300000015, -11.672804999999926], [43.41920900000014, -11.673007999999925], [43.419104000000175, -11.673200999999892], [43.41906900000009, -11.673336999999947], [43.419092000000035, -11.673460999999918], [43.41987000000012, -11.673471999999947], [43.419963000000166, -11.673618999999917], [43.41994999999997, -11.67398099999997], [43.42025200000012, -11.674194999999884], [43.42049600000007, -11.674296999999967], [43.42111100000011, -11.674431999999968], [43.42123900000007, -11.67453399999988], [43.421076000000085, -11.674759999999935], [43.421378000000004, -11.674861999999848], [43.42128400000007, -11.675144999999816], [43.42158600000016, -11.675381999999956], [43.42162000000013, -11.675539999999899], [43.421469000000116, -11.675822999999866], [43.42140999999998, -11.676026999999976], [43.42128100000019, -11.676422999999943], [43.42102600000004, -11.676512999999943], [43.42087400000008, -11.676682999999969], [43.42104700000016, -11.677123999999935], [43.42105800000019, -11.677519999999959], [43.42087099999998, -11.67814199999998], [43.42104500000016, -11.678503999999919], [43.42105500000014, -11.678921999999943], [43.42085700000007, -11.679216999999937], [43.42076400000019, -11.679464999999936], [43.420774000000165, -11.67996299999993], [43.42058800000001, -11.680245999999897], [43.420587000000125, -11.680516999999952], [43.42073700000009, -11.680912999999919], [43.42098000000016, -11.681308999999942], [43.42110800000006, -11.681557999999939], [43.42127000000016, -11.681839999999966], [43.421513000000175, -11.682054999999934], [43.42149000000006, -11.682258999999931], [43.42180300000018, -11.682427999999959], [43.4217910000001, -11.682744999999898], [43.421999000000085, -11.682981999999981], [43.42201100000017, -11.683151999999893], [43.42250900000016, -11.683716999999945], [43.42276500000003, -11.683738999999889], [43.42305500000003, -11.684032999999886], [43.423519000000056, -11.684054999999944], [43.42379800000003, -11.68441699999994], [43.42401800000016, -11.68446199999994], [43.42425000000014, -11.684766999999965], [43.42445800000013, -11.685094999999933], [43.42469000000017, -11.685467999999958], [43.42501500000003, -11.685467999999958], [43.42501500000003, -11.685761999999954], [43.42521200000016, -11.685897999999895], [43.425410000000056, -11.685919999999953], [43.42624699999999, -11.685738999999899], [43.42668800000007, -11.685873999999956], [43.42672200000004, -11.686099999999954], [43.42701200000005, -11.68631499999998], [43.42707000000007, -11.686382999999978], [43.42683700000015, -11.686733999999888], [43.4270810000001, -11.686857999999859], [43.427209000000005, -11.68677799999989], [43.42759200000012, -11.686755999999946], [43.42754500000012, -11.68717399999997], [43.427661000000114, -11.687422999999967], [43.427823000000046, -11.687512999999967], [43.428229000000044, -11.687648999999851], [43.42824100000013, -11.687727999999879], [43.42805500000003, -11.687885999999935], [43.42811100000006, -11.688553999999954], [43.42801800000018, -11.688688999999897], [43.428053000000034, -11.68884799999995], [43.42869200000018, -11.688903999999923], [43.42900500000013, -11.68928799999992], [43.42946800000004, -11.68976299999997], [43.42927000000003, -11.690192999999908], [43.42974600000014, -11.690214999999966], [43.42960600000009, -11.690474999999878], [43.42989700000004, -11.690508999999963], [43.42968700000006, -11.690859999999873], [43.42979100000014, -11.69099499999993], [43.42983700000002, -11.6910289999999], [43.429802000000166, -11.691130999999928], [43.42963900000018, -11.691379999999981], [43.42982500000011, -11.691447999999923], [43.429906000000074, -11.691571999999894], [43.42990500000013, -11.691910999999948], [43.42982400000005, -11.692046999999945], [43.42959000000019, -11.692442999999912], [43.429346000000066, -11.692759999999964], [43.429066000000034, -11.692997999999932], [43.428834000000165, -11.693178999999816], [43.428787, -11.693415999999957], [43.42869300000007, -11.693732999999895], [43.42866800000013, -11.69438899999983], [43.42935100000017, -11.695869999999957], [43.42973300000011, -11.696559999999977], [43.42984800000005, -11.696898999999917], [43.429940000000045, -11.69739699999991], [43.43010200000009, -11.697871999999961], [43.43024100000008, -11.698097999999959], [43.430508000000145, -11.698097999999959], [43.430844000000036, -11.698436999999899], [43.43090100000012, -11.699182999999891], [43.43111000000005, -11.699329999999975], [43.430993000000115, -11.699634999999944], [43.43111900000008, -11.700279999999907], [43.431386000000145, -11.700324999999907], [43.431699000000094, -11.7009359999999], [43.43174500000015, -11.701251999999954], [43.432046000000184, -11.70155699999998], [43.432266000000084, -11.701771999999892], [43.43228900000008, -11.702246999999943], [43.43238000000014, -11.702993999999933], [43.432529000000045, -11.703784999999925], [43.43267900000018, -11.704497999999944], [43.43256100000019, -11.705085999999937], [43.43254800000017, -11.706092999999953], [43.43275500000004, -11.706940999999915], [43.433230000000094, -11.707471999999882], [43.433485000000076, -11.707731999999908], [43.43413700000019, -11.707561999999882], [43.434381000000144, -11.707515999999885], [43.434683000000064, -11.707606999999882], [43.43496100000016, -11.70777599999991], [43.43530900000019, -11.708035999999936], [43.43532000000005, -11.708385999999962], [43.43544700000007, -11.708544999999958], [43.435633000000166, -11.708521999999903], [43.43600500000019, -11.708521999999903], [43.43599300000011, -11.708826999999928], [43.436074000000076, -11.708883999999955], [43.43629500000003, -11.708781999999928], [43.43667900000003, -11.708520999999905], [43.43673700000005, -11.708565999999905], [43.43674800000002, -11.708848999999873], [43.43706200000008, -11.709029999999927], [43.43749100000008, -11.709458999999981], [43.437642000000096, -11.709503999999981], [43.43817500000017, -11.709876999999949], [43.43829100000016, -11.71001299999989], [43.43852200000009, -11.710668999999939], [43.43875300000019, -11.71142599999996], [43.43914600000005, -11.712262999999894], [43.43922700000019, -11.71255699999989], [43.439226000000076, -11.712941999999941], [43.43905100000018, -11.713461999999822], [43.43922400000008, -11.714004999999872], [43.43923500000011, -11.714151999999956], [43.438875000000166, -11.714174999999841], [43.438875000000166, -11.714355999999896], [43.438979000000074, -11.71458199999995], [43.439316000000076, -11.714603999999895], [43.439641000000165, -11.71481899999992], [43.439640000000054, -11.714908999999977], [43.438849000000175, -11.715474999999913], [43.43865100000011, -11.715656999999965], [43.43882500000012, -11.715825999999936], [43.438766000000044, -11.716051999999877], [43.438882000000035, -11.716458999999816], [43.43869500000005, -11.716888999999867], [43.43846200000013, -11.717137999999863], [43.43833400000017, -11.717284999999947], [43.43821600000018, -11.718223999999907], [43.438273000000095, -11.718608999999958], [43.43848200000019, -11.718890999999871], [43.438632000000155, -11.718981999999926], [43.43881800000008, -11.719116999999926], [43.438934000000074, -11.719184999999925], [43.43901500000004, -11.719173999999839], [43.43920100000014, -11.719127999999955], [43.43921400000016, -11.718890999999871], [43.43931800000007, -11.71877799999993], [43.439435000000174, -11.718799999999874], [43.43948100000006, -11.7189699999999], [43.439771000000064, -11.71900399999987], [43.44008400000018, -11.719387999999867], [43.44021100000003, -11.71959099999998], [43.44026900000006, -11.719828999999947], [43.440455000000156, -11.719884999999977], [43.44052400000004, -11.720020999999917], [43.44059400000015, -11.720043999999973], [43.44073300000008, -11.719997999999975], [43.44093100000009, -11.720133999999973], [43.44093000000004, -11.720506999999884], [43.44099900000003, -11.72057499999994], [43.44161400000013, -11.721026999999935], [43.442090000000064, -11.721433999999931], [43.44268200000005, -11.721907999999928], [43.4431570000001, -11.722359999999924], [43.44330800000017, -11.722506999999894], [43.44326100000018, -11.722710999999833], [43.44329500000015, -11.722913999999946], [43.44343400000008, -11.723128999999972], [43.443678000000034, -11.723230999999942], [43.44406100000009, -11.723399999999913], [43.44409600000017, -11.723501999999826], [43.44387400000011, -11.72403399999996], [43.44369900000015, -11.724361999999928], [43.44357100000008, -11.724576999999954], [43.443696999999986, -11.72522099999992], [43.44418500000006, -11.72542499999986], [43.44463700000017, -11.725649999999916], [43.44496200000003, -11.725785999999971], [43.44510100000019, -11.726011999999912], [43.44526300000007, -11.726452999999935], [43.446005000000184, -11.727209999999957], [43.44651600000003, -11.727209999999957], [43.446736999999985, -11.727525999999955], [43.44689900000009, -11.727865999999949], [43.447014000000195, -11.728362999999945], [43.44715300000013, -11.728464999999858], [43.44737400000014, -11.728407999999945], [43.44746700000019, -11.728124999999977], [43.44758400000012, -11.728124999999977], [43.44781500000005, -11.728656999999941], [43.44802400000009, -11.72871299999997], [43.44776800000005, -11.729006999999854], [43.4479300000001, -11.729097999999908], [43.447709000000145, -11.729300999999907], [43.447918000000186, -11.729391999999905], [43.448127000000056, -11.729481999999962], [43.448243000000105, -11.729605999999933], [43.448381000000154, -11.730160999999953], [43.448576000000116, -11.731132999999886], [43.4487840000001, -11.731878999999878], [43.44891000000001, -11.732602999999926], [43.44920000000002, -11.732896999999923], [43.44925700000016, -11.733360999999945], [43.449535000000026, -11.733710999999971], [43.449535000000026, -11.733948999999939], [43.44974400000012, -11.733981999999969], [43.44999900000005, -11.734241999999938], [43.450300000000084, -11.734614999999962], [43.45036900000014, -11.735146999999927], [43.45052000000004, -11.735315999999955], [43.45071700000017, -11.735564999999951], [43.45038900000003, -11.735638999999935], [43.4470280000001, -11.737832999999966], [43.43963900000017, -11.741916999999887], [43.438711000000126, -11.741775999999959], [43.43753500000014, -11.742204999999842], [43.436432000000025, -11.742991999999958], [43.43562300000002, -11.743349999999964], [43.43503600000014, -11.743349999999964], [43.43415500000009, -11.743207999999981], [43.43334600000014, -11.743493999999828], [43.43246300000004, -11.744065999999975], [43.4321690000001, -11.744566999999961], [43.431833000000154, -11.745221999999956], [43.430639000000156, -11.746055999999953], [43.42974100000009, -11.7462119999999], [43.428786000000116, -11.746569999999963], [43.42761100000007, -11.74657099999996], [43.4260680000001, -11.746857999999975], [43.42423100000019, -11.747072999999943], [43.423056000000145, -11.747073999999827], [43.42210200000005, -11.746573999999953], [43.42122200000006, -11.746073999999965], [43.42056100000008, -11.746074999999962], [43.41938600000003, -11.746289999999874], [43.417696000000035, -11.7465049999999], [43.416154000000176, -11.746505999999897], [43.41505200000012, -11.746720999999923], [43.41380200000003, -11.747150999999974], [43.41270000000003, -11.747508999999923], [43.41137800000007, -11.74750999999992], [43.410497000000134, -11.747295999999892], [43.40946900000017, -11.747224999999958], [43.40792700000014, -11.747153999999966], [43.4064580000001, -11.746940999999936], [43.40543000000014, -11.746797999999899], [43.404402000000175, -11.746941999999933], [43.40344600000009, -11.747299999999939], [43.40249200000005, -11.747299999999939], [43.400876000000096, -11.747229999999945], [43.36653800000005, -11.754805999999974], [43.36622100000011, -11.75416399999989], [43.36600400000009, -11.753307999999947], [43.36573600000014, -11.752808999999957], [43.365249000000176, -11.751905999999963], [43.3650310000001, -11.750978999999973], [43.36469099999999, -11.750360999999941], [43.364057000000116, -11.749766999999963], [43.36352000000011, -11.74945799999989], [43.36266600000016, -11.749125999999876], [43.361958000000186, -11.74874599999987], [43.36149500000005, -11.748483999999962], [43.36083500000018, -11.748365999999976], [43.36037100000016, -11.748341999999923], [43.359687000000065, -11.748365999999976], [43.35890500000016, -11.748437999999965], [43.35826900000012, -11.748699999999872], [43.357707000000175, -11.749056999999937], [43.346557000000075, -11.713755999999876], [43.34583800000013, -11.71147999999988], [43.343098000000055, -11.702806999999893], [43.38536100000016, -11.689666999999929], [43.40955600000012, -11.670443999999975], [43.41180600000013, -11.666555999999957], [43.412121643000035, -11.666170999999906], [43.41225200000008, -11.666011999999967], [43.41243700000007, -11.666170999999906]]]}}]}