{"type": "FeatureCollection", "features": [{"type": "Feature", "properties": {"country": "Comoros", "pcode": "KM212", "name": "Nyuma Mro", "island": "Grande Comore (Ngazidja)"}, "geometry": {"type": "Polygon", "coordinates": [[[43.41037200000011, -11.453427999999917], [43.41037200000011, -11.453585999999916], [43.41051500000003, -11.453865999999948], [43.410674000000085, -11.454253999999878], [43.41085700000008, -11.454563999999948], [43.41092000000015, -11.454726999999934], [43.41107899999997, -11.454873999999904], [43.41108700000012, -11.45499099999995], [43.410935000000165, -11.455192999999952], [43.411110000000065, -11.455199999999877], [43.41119800000007, -11.455246999999872], [43.411166000000094, -11.455370999999843], [43.41110200000014, -11.455549999999903], [43.41099000000008, -11.455595999999957], [43.41086200000018, -11.455696999999816], [43.4107820000001, -11.45582899999988], [43.410829999999976, -11.455875999999876], [43.41110900000018, -11.455906999999968], [43.41120500000011, -11.455960999999888], [43.411204000000055, -11.456045999999901], [43.41092500000002, -11.456069999999954], [43.41069400000009, -11.455984999999941], [43.41057400000011, -11.456030999999825], [43.41046200000011, -11.456279999999822], [43.41039000000018, -11.456520999999952], [43.41040600000008, -11.456605999999965], [43.410405000000026, -11.456745999999896], [43.41038900000012, -11.45689299999998], [43.410501000000124, -11.456985999999972], [43.41047600000019, -11.457203999999876], [43.41008499999998, -11.457389999999918], [43.41006900000008, -11.457614999999976], [43.41013200000015, -11.45759199999992], [43.41016400000012, -11.457800999999904], [43.40970100000004, -11.458088999999916], [43.40947700000015, -11.458306999999934], [43.40930100000014, -11.458546999999896], [43.40930800000018, -11.458942999999977], [43.40939500000013, -11.459144999999978], [43.40951400000017, -11.459447999999952], [43.40964200000013, -11.459648999999956], [43.409777000000076, -11.459811999999943], [43.40957700000007, -11.459974999999929], [43.40940900000004, -11.46013899999997], [43.409496000000104, -11.460401999999817], [43.409664000000134, -11.460557999999935], [43.4096550000001, -11.460704999999905], [43.409335999999996, -11.46081399999997], [43.40907300000009, -11.460961999999881], [43.409056000000135, -11.46115599999996], [43.40954199999999, -11.461333999999908], [43.40955800000012, -11.461473999999953], [43.409310000000175, -11.461628999999903], [43.40897500000017, -11.461652999999956], [43.408839000000114, -11.461807999999962], [43.40896700000002, -11.461954999999875], [43.40925300000009, -11.462202999999874], [43.40924500000011, -11.46239799999995], [43.40910900000006, -11.462575999999842], [43.40890900000005, -11.462808999999936], [43.40890900000005, -11.462995999999862], [43.40908400000012, -11.463088999999911], [43.409411000000034, -11.463243999999975], [43.40946600000012, -11.46332099999995], [43.40905100000009, -11.463553999999931], [43.40875600000015, -11.463732999999934], [43.408619000000044, -11.464019999999948], [43.40862700000014, -11.46422199999995], [43.40876200000014, -11.464446999999836], [43.40891300000004, -11.464570999999978], [43.40904000000006, -11.464865999999972], [43.40872100000013, -11.46516899999989], [43.40860100000015, -11.465277999999955], [43.40851300000014, -11.465494999999862], [43.408440000000155, -11.465882999999906], [43.408320000000174, -11.46610899999996], [43.408208000000116, -11.46644299999997], [43.40841400000011, -11.466659999999877], [43.40859000000012, -11.466697999999838], [43.40880500000014, -11.466969999999947], [43.40874100000019, -11.467070999999976], [43.40868400000005, -11.467210999999907], [43.40884200000016, -11.468133999999964], [43.40801300000015, -11.468064999999967], [43.407965000000104, -11.468204999999898], [43.408083999999974, -11.468281999999874], [43.40824300000003, -11.468312999999966], [43.40837900000008, -11.468452999999897], [43.40864200000016, -11.468483999999819], [43.40888900000016, -11.468483999999819], [43.40916000000004, -11.468568999999832], [43.40925500000009, -11.468692999999973], [43.40933500000011, -11.468832999999904], [43.40932700000019, -11.468932999999936], [43.40925500000009, -11.469018999999946], [43.40902300000005, -11.469018999999946], [43.40884, -11.46899599999989], [43.40863300000012, -11.468902999999955], [43.4085060000001, -11.468793999999889], [43.40837000000005, -11.468793999999889], [43.408250000000066, -11.46887199999992], [43.408250000000066, -11.469120999999916], [43.4082810000001, -11.469213999999909], [43.408361000000184, -11.469220999999948], [43.40845700000011, -11.469143999999972], [43.408600000000035, -11.469158999999877], [43.408712000000094, -11.469274999999982], [43.408704000000114, -11.46939199999997], [43.40864800000014, -11.469469999999944], [43.40870300000006, -11.469531999999845], [43.408791000000065, -11.469538999999884], [43.40887900000007, -11.469593999999972], [43.408783000000085, -11.469709999999907], [43.408615000000054, -11.469779999999844], [43.40834400000017, -11.469834999999932], [43.40820000000019, -11.46988099999993], [43.40808000000004, -11.469935999999961], [43.407992000000036, -11.470129999999926], [43.40806400000014, -11.470230999999956], [43.408111000000076, -11.470369999999889], [43.40824700000013, -11.47043199999996], [43.40836700000011, -11.470408999999904], [43.408461999999986, -11.470509999999933], [43.40816600000005, -11.470742999999857], [43.40795900000012, -11.47096799999997], [43.40778300000011, -11.471045999999944], [43.407655000000034, -11.471247999999889], [43.407487000000174, -11.471480999999812], [43.40721600000012, -11.471589999999935], [43.407024000000035, -11.471760999999958], [43.40688800000015, -11.471907999999871], [43.40684700000014, -11.472350999999946], [43.406750999999986, -11.472544999999911], [43.40648000000016, -11.47264599999994], [43.406344000000104, -11.472738999999876], [43.40631200000013, -11.472847999999942], [43.40643100000017, -11.47297999999995], [43.406845000000146, -11.47321999999997], [43.40693300000015, -11.47334399999994], [43.406773000000044, -11.473569999999881], [43.40688400000016, -11.47368599999993], [43.40719500000017, -11.47373199999987], [43.40726600000016, -11.473910999999873], [43.40749000000005, -11.47398799999985], [43.40752900000007, -11.474034999999901], [43.407377999999994, -11.474143999999967], [43.40725800000001, -11.474344999999971], [43.40732900000006, -11.474461999999903], [43.40744900000004, -11.474492999999882], [43.40765600000009, -11.474422999999945], [43.407696000000044, -11.474569999999972], [43.40756700000003, -11.474903999999981], [43.40740000000005, -11.474895999999944], [43.40716800000007, -11.475012999999933], [43.40702500000015, -11.475035999999875], [43.406946000000175, -11.47480399999995], [43.406890000000146, -11.474717999999939], [43.40677800000009, -11.474787999999876], [43.40674600000011, -11.475043999999912], [43.406458999999984, -11.475082999999927], [43.40641000000005, -11.475199999999859], [43.40645000000018, -11.475284999999872], [43.40658600000006, -11.475292999999908], [43.40671300000008, -11.475292999999908], [43.40682500000008, -11.475416999999936], [43.40681600000005, -11.475641999999937], [43.40657700000003, -11.475820999999883], [43.406273000000056, -11.475960999999927], [43.40601800000013, -11.476076999999918], [43.40594600000003, -11.476170999999908], [43.40596099999999, -11.47643499999998], [43.406048999999996, -11.476480999999978], [43.40617700000013, -11.476371999999913], [43.40632800000003, -11.476363999999876], [43.40641599999998, -11.476495999999884], [43.40621600000014, -11.476627999999948], [43.406112000000064, -11.47668299999998], [43.405817000000184, -11.476713999999959], [43.405713000000105, -11.476853999999946], [43.406079000000034, -11.47707899999989], [43.405624000000046, -11.477505999999948], [43.405496000000085, -11.477575999999885], [43.40536000000003, -11.477637999999956], [43.40510600000016, -11.477505999999948], [43.40494600000005, -11.477443999999878], [43.40481100000005, -11.477459999999951], [43.404738000000066, -11.47771599999993], [43.404555000000016, -11.477723999999967], [43.40437900000006, -11.47801899999996], [43.40420300000005, -11.478088999999954], [43.40406800000005, -11.478088999999954], [43.40383600000007, -11.477995999999905], [43.40366900000009, -11.478019999999958], [43.403509000000156, -11.478089999999952], [43.40338100000008, -11.478252999999938], [43.403397000000155, -11.478477999999939], [43.403348000000165, -11.478780999999856], [43.40248500000018, -11.479588999999919], [43.40216600000008, -11.479906999999912], [43.401854000000185, -11.48040399999985], [43.40166100000005, -11.480807999999968], [43.40143700000016, -11.481110999999885], [43.40126900000013, -11.481428999999935], [43.40126800000019, -11.48177099999998], [43.40135500000014, -11.482329999999934], [43.401473000000124, -11.483012999999971], [43.40152800000004, -11.48332299999987], [43.40147200000001, -11.483710999999914], [43.39464100000009, -11.481822999999906], [43.39458800000011, -11.482266999999979], [43.39450800000009, -11.482681999999954], [43.394219000000135, -11.483151999999848], [43.39369400000004, -11.4837389999999], [43.393439000000114, -11.484062999999878], [43.39322900000013, -11.484487999999885], [43.393012999999996, -11.484880999999973], [43.39275100000003, -11.485345999999936], [43.39247800000015, -11.485581999999908], [43.391840000000116, -11.48605299999997], [43.39110200000016, -11.486595999999963], [43.390701000000035, -11.486970999999926], [43.39049800000009, -11.48723299999989], [43.39030700000012, -11.487487999999871], [43.39014600000013, -11.487586999999962], [43.38990200000018, -11.48767399999997], [43.38954600000005, -11.487837999999954], [43.38924600000007, -11.488089999999943], [43.38901700000014, -11.488456999999926], [43.388821000000064, -11.488992999999937], [43.38870400000019, -11.489521999999965], [43.38871500000005, -11.489939999999876], [43.388777000000175, -11.490405999999894], [43.388716999999986, -11.490737999999908], [43.38853600000016, -11.491043999999931], [43.38831900000014, -11.491353999999887], [43.38823200000019, -11.491570999999908], [43.38797600000015, -11.492347999999822], [43.387720000000115, -11.493127999999956], [43.38766200000009, -11.49343399999998], [43.377642000000094, -11.493498999999929], [43.361266000000114, -11.489176999999927], [43.35759000000007, -11.487766999999963], [43.35150300000004, -11.487337999999966], [43.34733300000016, -11.488481999999976], [43.344847000000186, -11.47287499999993], [43.344985000000065, -11.46419799999984], [43.351860999999985, -11.453943999999979], [43.35533300000003, -11.453055999999947], [43.357341000000076, -11.457758999999896], [43.390361000000155, -11.449582999999848], [43.40726100000012, -11.452538999999888], [43.40867800000012, -11.452649999999949], [43.41037200000011, -11.453427999999917]]]}}]}