{"type": "FeatureCollection", "features": [{"type": "Feature", "properties": {"country": "Comoros", "pcode": "KM272", "name": "Bambao Ya Mboini", "island": "Grande Comore (Ngazidja)"}, "geometry": {"type": "Polygon", "coordinates": [[[43.24627100000009, -11.727829999999813], [43.24556700000011, -11.740668999999855], [43.24696500000016, -11.753972999999974], [43.24760400000008, -11.755096999999921], [43.24885200000011, -11.756136999999967], [43.252062000000194, -11.759859999999946], [43.255403, -11.763349999999946], [43.25912200000005, -11.76769899999988], [43.26052800000008, -11.77031999999997], [43.260780000000125, -11.772067999999877], [43.26091700000006, -11.779805999999951], [43.257750000000044, -11.786277999999868], [43.261344000000065, -11.796293999999932], [43.261172000000045, -11.796075999999914], [43.26092900000003, -11.795937999999865], [43.260645000000125, -11.795888999999875], [43.259357000000136, -11.795059999999978], [43.259144000000106, -11.795128999999974], [43.25901200000004, -11.794921999999929], [43.25910399999998, -11.794762999999875], [43.259073000000114, -11.794644999999889], [43.258101000000124, -11.793716999999958], [43.25750200000016, -11.793657999999937], [43.25728900000013, -11.79360899999989], [43.25649800000019, -11.793104999999855], [43.255342000000155, -11.792512999999872], [43.254774000000054, -11.792088999999976], [43.254907, -11.791643999999849], [43.25473499999998, -11.791287999999952], [43.25482700000015, -11.791198999999892], [43.254807000000085, -11.791070999999931], [43.25495900000004, -11.790842999999938], [43.25426100000004, -11.78972699999997], [43.25395700000013, -11.789756999999952], [43.253937000000064, -11.789450999999929], [43.253866000000016, -11.78943099999998], [43.253866000000016, -11.789252999999974], [43.25390700000008, -11.789123999999958], [43.253492000000165, -11.788551999999981], [43.253269000000046, -11.788472999999954], [43.25330000000008, -11.78799799999996], [43.25280300000003, -11.787751999999955], [43.252835000000175, -11.787355999999875], [43.25263200000006, -11.787098999999955], [43.25247000000019, -11.787089999999978], [43.25231700000012, -11.78719899999993], [43.251972000000194, -11.787237999999888], [43.251648000000046, -11.786951999999928], [43.25145400000014, -11.787327999999945], [43.25124100000011, -11.787188999999898], [43.25101600000011, -11.787841999999955], [43.25088400000004, -11.787861999999905], [43.25074400000017, -11.787090999999975], [43.25058000000013, -11.787535999999932], [43.25028600000013, -11.787545999999963], [43.250195000000076, -11.787209999999959], [43.24997200000007, -11.787170999999944], [43.24993200000017, -11.786863999999923], [43.249627000000146, -11.786982999999907], [43.249495000000024, -11.78683499999994], [43.24926300000004, -11.786488999999904], [43.24928400000016, -11.786211999999978], [43.24950800000005, -11.785786999999914], [43.24947800000007, -11.785707999999943], [43.2492850000001, -11.785589999999956], [43.24918300000019, -11.785717999999974], [43.2488580000001, -11.785718999999972], [43.24876700000004, -11.785658999999896], [43.248442000000125, -11.785599999999874], [43.24842200000006, -11.785441999999875], [43.24834100000015, -11.785362999999904], [43.248098000000084, -11.78525499999995], [43.247874000000024, -11.785293999999965], [43.247702000000004, -11.785323999999889], [43.24750800000015, -11.785590999999954], [43.24736600000011, -11.785521999999844], [43.24728600000009, -11.784918999999945], [43.24720500000012, -11.784869999999898], [43.24697100000009, -11.785166999999944], [43.24676800000003, -11.785057999999822], [43.24700200000018, -11.784751999999969], [43.24666800000011, -11.784583999999938], [43.246373000000176, -11.78452499999986], [43.24610900000005, -11.784445999999889], [43.24554100000012, -11.784445999999889], [43.24544900000012, -11.784663999999907], [43.24516400000016, -11.784762999999941], [43.245155000000125, -11.784554999999955], [43.24462700000015, -11.784377999999947], [43.24445400000002, -11.784614999999917], [43.24411900000001, -11.784476999999981], [43.24387600000017, -11.784219999999948], [43.243572000000086, -11.784150999999895], [43.243430000000046, -11.784200999999939], [43.24325700000014, -11.784071999999924], [43.243258000000026, -11.78357799999992], [43.24274100000008, -11.783212999999932], [43.24255800000003, -11.783341999999948], [43.24215300000009, -11.783104999999978], [43.242123000000106, -11.782857999999976], [43.24184900000017, -11.78262099999995], [43.24174700000009, -11.782659999999908], [43.24123000000009, -11.782551999999953], [43.24122000000017, -11.782195999999885], [43.24099700000016, -11.781998999999928], [43.240591000000165, -11.782215999999949], [43.240430000000174, -11.781613999999877], [43.240714000000025, -11.781395999999972], [43.24064400000009, -11.781267999999955], [43.24029800000005, -11.78132699999992], [43.23994300000004, -11.78116899999992], [43.23955800000016, -11.78073499999988], [43.23948800000005, -11.780339999999967], [43.23889000000008, -11.779993999999931], [43.23904300000015, -11.779845999999964], [43.23903300000006, -11.77955899999995], [43.238749000000155, -11.77930299999997], [43.239003000000025, -11.779301999999973], [43.23917600000016, -11.77904499999994], [43.23919600000005, -11.779430999999931], [43.23925600000018, -11.779528999999911], [43.23942900000014, -11.779459999999915], [43.23937000000001, -11.778392999999824], [43.23955400000017, -11.778145999999879], [43.239837000000136, -11.778461999999934], [43.240295000000174, -11.778134999999963], [43.24017400000014, -11.777947999999867], [43.239930000000186, -11.77789799999988], [43.239859000000195, -11.777838999999972], [43.23983900000013, -11.777502999999967], [43.24010400000003, -11.777255999999966], [43.239841000000126, -11.776583999999957], [43.23951700000009, -11.776376999999911], [43.23948700000011, -11.776208999999938], [43.23989400000005, -11.775941999999873], [43.240340000000174, -11.776187999999877], [43.240991000000065, -11.7753679999999], [43.24075800000014, -11.775258999999949], [43.240647000000195, -11.775031999999896], [43.240718000000186, -11.774843999999973], [43.240901000000065, -11.774685999999974], [43.24075000000016, -11.774458999999922], [43.24080100000015, -11.774299999999926], [43.24128800000011, -11.774250999999936], [43.24125800000013, -11.77405299999998], [43.2411570000001, -11.773914999999931], [43.24127900000008, -11.773657999999898], [43.24144200000006, -11.773637999999949], [43.241462000000126, -11.773518999999965], [43.24120900000014, -11.773321999999894], [43.24100600000003, -11.773321999999894], [43.24096600000013, -11.773163999999895], [43.24078300000008, -11.773035999999877], [43.24056900000011, -11.773282999999878], [43.24027500000011, -11.773074999999892], [43.240296000000114, -11.77291699999995], [43.24038700000017, -11.772837999999922], [43.24044800000007, -11.772857999999871], [43.24056000000007, -11.772906999999861], [43.24061100000006, -11.77289699999983], [43.24062100000015, -11.772699999999872], [43.24067200000013, -11.772629999999936], [43.240845000000036, -11.77267999999998], [43.24092600000017, -11.772669999999948], [43.24087600000013, -11.77235399999995], [43.240359000000126, -11.77183999999994], [43.240146000000095, -11.771592999999939], [43.24004500000012, -11.771365999999887], [43.23991400000011, -11.771227999999951], [43.23981200000003, -11.77108899999996], [43.23986400000007, -11.77084199999996], [43.23976300000004, -11.770594999999958], [43.23939800000005, -11.770338999999922], [43.239134000000035, -11.770170999999948], [43.23891100000009, -11.770150999999885], [43.23879900000003, -11.770012999999949], [43.23842500000018, -11.76934099999994], [43.23800100000011, -11.768461999999943], [43.23754600000012, -11.767542999999932], [43.237345000000175, -11.766574999999875], [43.23736600000012, -11.765912999999898], [43.23764200000005, -11.765180999999927], [43.2377350000001, -11.764479999999935], [43.23801900000018, -11.764468999999963], [43.23807100000005, -11.764271999999949], [43.237909000000116, -11.763955999999894], [43.23817300000013, -11.763994999999909], [43.23862100000008, -11.763450999999861], [43.23885500000006, -11.762808999999947], [43.23894700000005, -11.762778999999966], [43.23948700000011, -11.762046999999939], [43.239620000000116, -11.761592999999948], [43.239944000000094, -11.761552999999935], [43.240016000000026, -11.761334999999917], [43.23971100000017, -11.761325999999883], [43.23971200000011, -11.761246999999912], [43.240027000000055, -11.761087999999916], [43.24019000000004, -11.760899999999822], [43.24046500000003, -11.760079999999903], [43.24042500000013, -11.759881999999948], [43.240146000000095, -11.759676999999954], [43.23969000000005, -11.759655999999836], [43.23889300000019, -11.759655999999836], [43.23884100000015, -11.75998199999998], [43.23867900000005, -11.759971999999948], [43.238578000000075, -11.759655999999836], [43.238223000000175, -11.759349999999927], [43.238050000000044, -11.75941999999992], [43.23784600000005, -11.760140999999976], [43.23767300000014, -11.760120999999913], [43.23769400000009, -11.759923999999955], [43.23752200000007, -11.759864999999877], [43.23726700000009, -11.760131999999942], [43.23709500000007, -11.759854999999959], [43.2369020000001, -11.759993999999892], [43.23689100000007, -11.760279999999966], [43.236597000000074, -11.760151999999948], [43.23643500000003, -11.759973999999943], [43.23665900000009, -11.759736999999973], [43.2366080000001, -11.759588999999949], [43.23658800000004, -11.75947999999994], [43.236568000000034, -11.759360999999956], [43.23580800000019, -11.758610999999974], [43.235809000000074, -11.758402999999873], [43.23548400000004, -11.75837399999989], [43.235189000000105, -11.758689999999945], [43.23482400000012, -11.75815699999987], [43.234674000000155, -11.757346999999925], [43.23453100000006, -11.757642999999973], [43.23424700000015, -11.757593999999926], [43.23425800000018, -11.757316999999944], [43.23420700000008, -11.75724799999989], [43.23400400000014, -11.757307999999966], [43.233741000000066, -11.756882999999902], [43.233924000000115, -11.756654999999967], [43.23391400000014, -11.756457999999895], [43.23376200000018, -11.756417999999883], [43.233752000000095, -11.75631999999996], [43.23399599999999, -11.75609199999991], [43.23394600000012, -11.756032999999888], [43.2335700000001, -11.75587499999989], [43.23317500000013, -11.755519999999933], [43.232982000000106, -11.755479999999977], [43.23280900000003, -11.755716999999947], [43.23263600000013, -11.755835999999931], [43.23248300000006, -11.756092999999908], [43.23255400000005, -11.756310999999926], [43.232350000000054, -11.756567999999959], [43.232350000000054, -11.756725999999958], [43.232604000000094, -11.75678499999998], [43.23232900000011, -11.756942999999978], [43.232339000000024, -11.757170999999914], [43.23202400000008, -11.757526999999982], [43.23194200000006, -11.757526999999982], [43.231902000000105, -11.757387999999935], [43.23214600000006, -11.757219999999961], [43.23217700000015, -11.757091999999943], [43.23204500000003, -11.75683499999991], [43.23234100000019, -11.756082999999876], [43.23234200000013, -11.755578999999898], [43.23242400000015, -11.755480999999975], [43.23242400000015, -11.755292999999881], [43.23225200000013, -11.755104999999958], [43.23212100000012, -11.754857999999956], [43.23212100000012, -11.754571999999825], [43.23246800000004, -11.753898999999933], [43.23246800000004, -11.753622999999891], [43.23233700000003, -11.753464999999892], [43.23210300000005, -11.753365999999971], [43.232347000000175, -11.753305999999952], [43.2323980000001, -11.753256999999905], [43.232663, -11.753038999999887], [43.23262199999999, -11.752890999999977], [43.23202300000003, -11.752871999999854], [43.23198300000007, -11.752772999999934], [43.23234800000006, -11.752762999999959], [43.23268400000018, -11.752663999999982], [43.23277500000006, -11.752534999999966], [43.23277500000006, -11.752465999999913], [43.232075000000066, -11.752476999999942], [43.23179100000016, -11.75215099999997], [43.23170299999998, -11.750816999999927], [43.231592000000035, -11.750588999999934], [43.23130800000018, -11.75032299999998], [43.2313180000001, -11.750144999999975], [43.231634000000156, -11.74980899999997], [43.23192000000017, -11.748888999999963], [43.232216000000165, -11.74825699999991], [43.232175000000154, -11.748147999999958], [43.232003000000134, -11.748147999999958], [43.23192200000017, -11.74808899999988], [43.23176000000012, -11.747742999999957], [43.23205500000017, -11.74750599999993], [43.231954000000144, -11.747357999999963], [43.231649000000175, -11.74755499999992], [43.23156800000004, -11.747396999999978], [43.23172100000005, -11.747189999999932], [43.23172100000005, -11.74708099999998], [43.231538, -11.747041999999908], [43.23138600000004, -11.746981999999946], [43.23118300000016, -11.746823999999947], [43.23109200000005, -11.746685999999954], [43.23091000000011, -11.746379999999874], [43.23072800000017, -11.746201999999869], [43.23051500000014, -11.74597499999993], [43.230495000000076, -11.74570799999998], [43.23061700000005, -11.745579999999848], [43.23085100000003, -11.745559999999955], [43.230852000000084, -11.744995999999844], [43.230456000000004, -11.744907999999953], [43.23050700000016, -11.744739999999979], [43.23086300000011, -11.744768999999962], [43.23086300000011, -11.744442999999933], [43.231148000000076, -11.74411699999996], [43.23102700000004, -11.743997999999976], [43.231017000000065, -11.743800999999905], [43.231170000000134, -11.743483999999967], [43.231282000000135, -11.743493999999828], [43.231453999999985, -11.743611999999928], [43.23161699999997, -11.74341499999997], [43.23151600000017, -11.743246999999883], [43.23149600000011, -11.743088999999884], [43.231861000000094, -11.743087999999887], [43.232126000000164, -11.74287099999998], [43.23226800000003, -11.74287099999998], [43.23226900000009, -11.74257399999982], [43.23244100000011, -11.742603999999972], [43.23262400000016, -11.742632999999898], [43.232604000000094, -11.74223799999993], [43.23283900000018, -11.741832999999872], [43.232687000000055, -11.741347999999903], [43.23243400000007, -11.741012999999896], [43.23226200000005, -11.74080499999991], [43.23193800000007, -11.740419999999858], [43.231361000000106, -11.739886999999896], [43.23134100000004, -11.739500999999848], [43.23057100000011, -11.738701999999819], [43.229759000000115, -11.738691999999958], [43.22936400000009, -11.738207999999872], [43.2293150000001, -11.73748699999993], [43.22876800000017, -11.736982999999952], [43.228556000000026, -11.736350999999956], [43.22858700000012, -11.735866999999814], [43.22875100000016, -11.735194999999976], [43.22903500000007, -11.735184999999944], [43.229138000000034, -11.734749999999963], [43.22947400000015, -11.734175999999877], [43.22947400000015, -11.734007999999903], [43.22929200000016, -11.733820999999978], [43.22933400000011, -11.733128999999849], [43.229000000000156, -11.732723999999905], [43.22900200000015, -11.731982999999957], [43.22928600000006, -11.73212099999995], [43.22951900000015, -11.73198199999996], [43.229520000000036, -11.731803999999897], [43.229276000000084, -11.731705999999974], [43.229277000000025, -11.731537999999944], [43.22951000000012, -11.731448999999941], [43.22949100000011, -11.731023999999934], [43.22948100000019, -11.730944999999963], [43.22964400000018, -11.730884999999887], [43.229654000000096, -11.730825999999979], [43.229583000000105, -11.730756999999869], [43.22959300000019, -11.730568999999946], [43.229878000000156, -11.730291999999963], [43.22969600000005, -11.730173999999863], [43.229717000000164, -11.729797999999903], [43.229930000000195, -11.729738999999938], [43.229931000000136, -11.729431999999917], [43.23020500000007, -11.7293039999999], [43.23024600000008, -11.729125999999837], [43.230622000000096, -11.729026999999974], [43.23065200000008, -11.7292139999999], [43.23073300000004, -11.729233999999963], [43.230886000000055, -11.729134999999872], [43.23082600000009, -11.728768999999943], [43.2308670000001, -11.728423999999904], [43.231111000000055, -11.728383999999892], [43.23121300000014, -11.728264999999908], [43.23136599999998, -11.727711999999883], [43.23172100000005, -11.727730999999949], [43.232037000000105, -11.72726599999993], [43.23210900000004, -11.72692099999989], [43.232485000000054, -11.726880999999878], [43.232586000000026, -11.726810999999941], [43.23242400000015, -11.726633999999876], [43.23296400000004, -11.726109999999949], [43.233086000000014, -11.725931999999887], [43.233401000000185, -11.725693999999976], [43.233879000000115, -11.72556499999996], [43.23390400000005, -11.724846999999897], [43.23391100000009, -11.724655999999982], [43.234009000000185, -11.724385999999868], [43.24627100000009, -11.727829999999813]]]}}]}