{"type": "FeatureCollection", "features": [{"type": "Feature", "properties": {"country": "Comoros", "pcode": "KM231", "name": "Bangaani", "island": "Grande Comore (Ngazidja)"}, "geometry": {"type": "Polygon", "coordinates": [[[43.343098000000055, -11.702806999999893], [43.34583800000013, -11.71147999999988], [43.346557000000075, -11.713755999999876], [43.274556000000075, -11.712166999999965], [43.262935000000084, -11.707663999999966], [43.263486, -11.707254999999975], [43.26362000000012, -11.707040999999947], [43.26389799999998, -11.706520999999896], [43.26468100000011, -11.705436999999904], [43.26541600000019, -11.704827999999964], [43.26586200000014, -11.704446999999902], [43.26627300000007, -11.704084999999964], [43.26660600000008, -11.703751999999952], [43.266988000000026, -11.7032769999999], [43.26725200000004, -11.702895999999896], [43.26769300000012, -11.702210999999977], [43.268057000000056, -11.701383999999962], [43.26830200000006, -11.700888999999961], [43.26854800000018, -11.700623999999948], [43.26882100000017, -11.700261999999952], [43.26891000000012, -11.6998999999999], [43.269106000000136, -11.699690999999916], [43.26932100000016, -11.699595999999872], [43.26979100000017, -11.699309999999855], [43.27012400000018, -11.69896799999998], [43.27038799999997, -11.698662999999954], [43.27084800000006, -11.698443999999881], [43.27121900000003, -11.698186999999905], [43.271933000000104, -11.697834999999941], [43.27273500000001, -11.697409999999934], [43.27322399999997, -11.697215999999969], [43.27338100000003, -11.69702599999988], [43.273450000000025, -11.696759999999813], [43.274679000000106, -11.693212999999957], [43.27532800000017, -11.691462999999942], [43.27564000000007, -11.690359999999885], [43.27004200000016, -11.683691999999894], [43.263406000000145, -11.681480999999962], [43.25887800000015, -11.679927999999961], [43.25832400000013, -11.679730999999833], [43.25843300000008, -11.679589999999962], [43.25857800000017, -11.679554999999937], [43.25877700000012, -11.679501999999957], [43.25895900000006, -11.679430999999965], [43.259159000000125, -11.679289999999924], [43.25934000000018, -11.679147999999884], [43.25935900000013, -11.678865999999914], [43.2593950000001, -11.678794999999923], [43.25948600000015, -11.678671999999949], [43.259613, -11.678618999999912], [43.25957800000015, -11.678353999999956], [43.25936000000007, -11.678124999999909], [43.25934300000006, -11.67801899999995], [43.259723000000065, -11.677947999999901], [43.259887000000106, -11.677912999999933], [43.260104000000126, -11.677894999999978], [43.2601590000001, -11.677488999999866], [43.26012400000019, -11.677347999999938], [43.26005100000003, -11.677206999999896], [43.25999700000017, -11.677100999999936], [43.260160000000155, -11.677065999999968], [43.26025100000004, -11.676976999999965], [43.26037800000006, -11.67688899999996], [43.26059600000019, -11.676941999999883], [43.2607220000001, -11.677241999999922], [43.26083100000005, -11.677258999999935], [43.26099400000004, -11.677188999999828], [43.261139000000185, -11.67717099999993], [43.26123000000007, -11.677134999999964], [43.26123000000007, -11.676959999999951], [43.26123100000012, -11.676623999999947], [43.26135800000014, -11.676534999999888], [43.26135800000014, -11.676376999999945], [43.26128700000015, -11.676005999999973], [43.26108800000003, -11.675423999999964], [43.26099900000014, -11.675000999999952], [43.26099900000014, -11.674735999999882], [43.26118100000008, -11.674682999999959], [43.26128900000015, -11.674682999999959], [43.26150600000017, -11.674893999999938], [43.26159700000005, -11.675034999999923], [43.261796000000174, -11.675123999999926], [43.262050000000045, -11.6752469999999], [43.26219500000013, -11.67526399999997], [43.2621410000001, -11.674911999999892], [43.26254100000017, -11.674522999999965], [43.262921000000176, -11.674486999999885], [43.26315700000015, -11.674327999999889], [43.26324800000003, -11.674257999999952], [43.26342900000009, -11.67422199999993], [43.263720000000035, -11.67418699999996], [43.263937000000055, -11.674133999999981], [43.26401000000004, -11.67402799999985], [43.264191000000096, -11.67402799999985], [43.26431800000012, -11.67402799999985], [43.26457200000016, -11.674150999999881], [43.264698000000124, -11.674238999999886], [43.26497000000006, -11.674432999999965], [43.26505800000007, -11.674439999999834], [43.26513800000009, -11.674439999999834], [43.265338000000156, -11.67420699999991], [43.26557000000014, -11.67390399999988], [43.265730000000076, -11.673624999999902], [43.26589000000013, -11.673368999999923], [43.26602600000001, -11.672909999999888], [43.26613900000012, -11.672638999999947], [43.26613900000012, -11.672436999999945], [43.26595600000013, -11.672226999999964], [43.26584500000018, -11.6720719999999], [43.266013000000044, -11.671862999999973], [43.26598100000007, -11.671768999999813], [43.26585399999999, -11.67171499999995], [43.26574200000016, -11.671598999999958], [43.26553500000011, -11.67140499999988], [43.265344000000084, -11.671194999999841], [43.26520900000014, -11.67101699999995], [43.26519300000001, -11.670938999999976], [43.26525700000019, -11.670868999999868], [43.26528200000013, -11.6706989999999], [43.26513000000017, -11.670496999999898], [43.26534600000008, -11.670263999999975], [43.26535500000011, -11.67012399999993], [43.265602000000115, -11.66997699999996], [43.26574600000015, -11.669952999999907], [43.265826000000175, -11.669820999999843], [43.265778000000125, -11.669642999999951], [43.26573100000013, -11.669409999999914], [43.2656750000001, -11.669269999999813], [43.26583600000015, -11.668850999999961], [43.26583600000015, -11.668687999999975], [43.265677000000096, -11.668462999999917], [43.26554200000015, -11.668268999999952], [43.26539100000008, -11.668035999999915], [43.26532700000013, -11.667895999999814], [43.26532000000009, -11.667492999999865], [43.26655600000004, -11.667360999999971], [43.27708300000006, -11.670277999999882], [43.283472000000074, -11.666832999999883], [43.3343670000001, -11.665121999999883], [43.343098000000055, -11.702806999999893]]]}}]}