{"type": "FeatureCollection", "features": [{"type": "Feature", "properties": {"country": "Comoros", "pcode": "KM282", "name": "Oichili Yadjou", "island": "Grande Comore (Ngazidja)"}, "geometry": {"type": "Polygon", "coordinates": [[[43.39908200000019, -11.635155999999938], [43.39924500000018, -11.635087999999882], [43.39933800000006, -11.635200999999938], [43.399524000000156, -11.635121999999967], [43.39976700000017, -11.635291999999879], [43.39990600000016, -11.63546099999985], [43.399848000000134, -11.63577799999996], [43.39962600000007, -11.636094999999898], [43.399998000000096, -11.63605999999993], [43.399998000000096, -11.636286999999982], [43.39984600000014, -11.636433999999952], [43.400009000000125, -11.636478999999952], [43.40030000000007, -11.636240999999927], [43.40039200000018, -11.636512999999923], [43.40028700000005, -11.63689699999992], [43.40010100000012, -11.637009999999918], [43.399833000000115, -11.63719199999997], [43.39971600000007, -11.637485999999967], [43.39957700000008, -11.637609999999938], [43.39940200000018, -11.637768999999935], [43.39964600000013, -11.637949999999933], [43.39964500000019, -11.638107999999932], [43.39940100000007, -11.638141999999903], [43.39936600000004, -11.638322999999957], [43.39915600000006, -11.638492999999812], [43.39840200000003, -11.638119999999958], [43.39811100000014, -11.63849399999998], [43.39833100000004, -11.63868599999995], [43.39823700000005, -11.638900999999976], [43.39831800000019, -11.639081999999974], [43.398272000000134, -11.639239999999972], [43.397854000000166, -11.639002999999889], [43.39752700000014, -11.639466999999911], [43.39735300000012, -11.639590999999882], [43.39708500000012, -11.639647999999966], [43.3969110000001, -11.63959199999988], [43.39673600000003, -11.639885999999933], [43.39673600000003, -11.640100999999959], [43.397234000000026, -11.640608999999927], [43.39766400000008, -11.640642999999955], [43.39765100000005, -11.641241999999977], [43.397372000000075, -11.641309999999919], [43.39719800000006, -11.641468999999915], [43.397197000000176, -11.641626999999858], [43.397081000000185, -11.641785999999968], [43.39683700000006, -11.641672999999912], [43.39661600000005, -11.641751999999883], [43.39659300000011, -11.641887999999938], [43.39679000000007, -11.642113999999935], [43.39653400000003, -11.64209099999988], [43.396139000000005, -11.642091999999877], [43.395964000000106, -11.642362999999932], [43.39595200000019, -11.642690999999957], [43.39636900000005, -11.643131999999923], [43.39624100000009, -11.643301999999892], [43.39631000000014, -11.643742999999972], [43.39630900000003, -11.643957999999884], [43.39618100000013, -11.643991999999969], [43.39608800000008, -11.644274999999936], [43.39577400000019, -11.644342999999935], [43.395564000000036, -11.644591999999932], [43.39563400000014, -11.64481799999993], [43.39552900000018, -11.645032999999955], [43.395702000000085, -11.645224999999925], [43.39620200000007, -11.645337999999867], [43.396388, -11.645438999999953], [43.39663100000007, -11.645619999999838], [43.39682800000003, -11.645811999999978], [43.396815000000174, -11.646445999999969], [43.397036000000185, -11.646693999999968], [43.39711600000004, -11.646931999999936], [43.39673200000004, -11.647429999999929], [43.39696299999997, -11.647870999999839], [43.39698600000014, -11.648051999999893], [43.397241000000065, -11.648356999999976], [43.39722900000015, -11.648446999999976], [43.39698500000003, -11.648446999999976], [43.39688100000012, -11.648198999999977], [43.396718000000135, -11.648390999999947], [43.39652000000012, -11.648865999999828], [43.39642600000013, -11.64932999999985], [43.396588000000065, -11.649487999999963], [43.396681000000115, -11.649532999999963], [43.39690300000018, -11.649080999999853], [43.396950000000174, -11.648774999999944], [43.39722900000015, -11.648774999999944], [43.39740300000017, -11.648932999999943], [43.397914000000185, -11.64911399999994], [43.39836600000007, -11.649362999999937], [43.398656000000074, -11.649735999999962], [43.39908400000013, -11.650526999999954], [43.39932700000003, -11.650956999999892], [43.399931000000095, -11.65101299999992], [43.399920000000066, -11.651125999999863], [43.399699000000055, -11.65124999999989], [43.39969800000017, -11.651476999999943], [43.39946600000013, -11.651521999999943], [43.39945400000005, -11.651657999999827], [43.40008100000006, -11.651758999999913], [43.40016200000019, -11.651894999999968], [43.400057000000174, -11.652233999999964], [43.39981200000017, -11.652663999999902], [43.39998500000007, -11.652901999999813], [43.399834000000055, -11.653014999999925], [43.39968300000015, -11.653104999999925], [43.39950800000008, -11.653455999999892], [43.39941400000009, -11.653727999999944], [43.39942500000012, -11.654043999999885], [43.399576000000025, -11.65422499999994], [43.399844000000144, -11.65407799999997], [43.39999500000005, -11.65407799999997], [43.40006400000004, -11.654145999999969], [43.39986600000003, -11.654292999999882], [43.39987700000006, -11.654744999999878], [43.400144000000125, -11.654948999999874], [43.40069000000017, -11.654823999999962], [43.401144000000045, -11.65469899999988], [43.40131700000018, -11.655241999999873], [43.40167700000012, -11.655037999999877], [43.40189800000013, -11.655286999999873], [43.401537000000076, -11.65558099999987], [43.40152500000016, -11.655738999999869], [43.401723000000175, -11.655693999999812], [43.4020010000001, -11.656043999999895], [43.40186100000005, -11.65617999999995], [43.40214000000003, -11.65626999999995], [43.402418000000125, -11.656552999999917], [43.40288300000009, -11.65645099999989], [43.402429000000154, -11.656756999999914], [43.40299799999997, -11.656913999999858], [43.40297400000014, -11.657502999999906], [43.40284500000013, -11.65796599999993], [43.402856000000156, -11.658203999999898], [43.40301800000003, -11.658553999999924], [43.403087000000085, -11.65872399999995], [43.40278500000011, -11.65871299999992], [43.40240200000005, -11.658791999999892], [43.402332000000115, -11.658859999999947], [43.40250600000013, -11.659063999999944], [43.40262100000007, -11.65932399999997], [43.40270200000003, -11.65950499999991], [43.40292299999999, -11.659594999999968], [43.4029690000001, -11.659775999999965], [43.403166000000056, -11.659956999999906], [43.403341000000125, -11.659820999999965], [43.40373600000015, -11.659820999999965], [43.40401400000002, -11.660000999999909], [43.40425800000014, -11.660000999999909], [43.40482700000018, -11.660271999999964], [43.40500099999997, -11.660294999999905], [43.405223000000035, -11.660045999999909], [43.40532700000011, -11.659977999999967], [43.405676000000085, -11.659852999999941], [43.406106000000136, -11.659648999999945], [43.406281000000035, -11.659467999999947], [43.406339, -11.659648999999945], [43.406512000000134, -11.660033999999882], [43.406628000000126, -11.660394999999937], [43.406755000000146, -11.660519999999963], [43.40715000000017, -11.660620999999878], [43.40763800000002, -11.660609999999963], [43.407614000000194, -11.66092599999996], [43.40759100000008, -11.66109599999993], [43.407823000000064, -11.6612429999999], [43.40797300000003, -11.661479999999926], [43.408066000000076, -11.661479999999926], [43.40809000000013, -11.661264999999958], [43.408357000000194, -11.661275999999816], [43.40842700000013, -11.6613329999999], [43.408263000000034, -11.661739999999838], [43.40815800000007, -11.661931999999979], [43.40849500000007, -11.662316999999973], [43.408657000000176, -11.66261099999997], [43.408656000000065, -11.662745999999913], [43.40848200000005, -11.66274699999991], [43.40845800000005, -11.663062999999966], [43.408690000000036, -11.663277999999877], [43.40867800000012, -11.663605999999959], [43.40874700000012, -11.6637419999999], [43.40899100000007, -11.6638769999999], [43.40930500000013, -11.663661999999874], [43.40961900000019, -11.663480999999933], [43.409921999999995, -11.663355999999965], [43.41028200000011, -11.663276999999823], [43.41057200000017, -11.66336699999988], [43.41070000000008, -11.663490999999851], [43.41104800000011, -11.663558999999964], [43.41123300000015, -11.664236999999957], [43.41151100000002, -11.664383999999927], [43.41152200000005, -11.664723999999978], [43.41156900000004, -11.664779999999837], [43.411813000000166, -11.664507999999955], [43.41203400000012, -11.664620999999897], [43.41188200000016, -11.664869999999894], [43.41220700000008, -11.665254999999945], [43.41206600000015, -11.665627999999913], [43.41222900000014, -11.665830999999912], [43.41225200000008, -11.666011999999967], [43.412121643000035, -11.666170999999906], [43.41180600000013, -11.666555999999957], [43.40955600000012, -11.670443999999975], [43.38536100000016, -11.689666999999929], [43.343098000000055, -11.702806999999893], [43.3343670000001, -11.665121999999883], [43.33413500000006, -11.659788999999876], [43.33366800000016, -11.649733999999967], [43.33304200000009, -11.633326999999952], [43.32643200000007, -11.625423999999896], [43.31881700000008, -11.623110999999938], [43.3127990000001, -11.616779999999949], [43.318281000000184, -11.605324999999937], [43.33276300000006, -11.60529699999995], [43.364329000000055, -11.610143999999877], [43.368360000000166, -11.610085999999967], [43.37577500000015, -11.609094999999968], [43.38220500000017, -11.607394999999883], [43.38413900000012, -11.609213999999952], [43.38456200000013, -11.61087299999997], [43.384381000000076, -11.613961999999958], [43.38228700000019, -11.615442999999914], [43.38054000000005, -11.621870999999942], [43.380533000000185, -11.624916999999868], [43.380870000000186, -11.62617299999988], [43.38156300000014, -11.627837999999883], [43.3828850000001, -11.631412999999952], [43.38408700000008, -11.632645999999909], [43.38623900000016, -11.633569999999963], [43.38807600000007, -11.633629999999869], [43.390928000000144, -11.63338199999987], [43.39156100000014, -11.63331999999997], [43.3920050000001, -11.633442999999943], [43.39212900000007, -11.6346759999999], [43.39202800000004, -11.635471999999936], [43.39908200000019, -11.635155999999938]]]}}]}