{"type": "FeatureCollection", "features": [{"type": "Feature", "properties": {"country": "Comoros", "pcode": "KM142", "name": "Bazimini", "island": "Anjouan (Ndzouani)"}, "geometry": {"type": "Polygon", "coordinates": [[[44.45526900000016, -12.171407999999929], [44.45768800000013, -12.172269999999969], [44.4603130000001, -12.169316999999978], [44.46401900000012, -12.16598399999998], [44.46683200000018, -12.161885999999981], [44.46771899999999, -12.163413999999932], [44.469769000000156, -12.165610999999899], [44.47095271900014, -12.167621721999922], [44.47317544300017, -12.171397344999946], [44.47376100000008, -12.172391999999945], [44.464909000000034, -12.17962799999998], [44.46110000000016, -12.184868999999935], [44.458466000000044, -12.188871999999947], [44.45759100000009, -12.189766999999847], [44.45257400000014, -12.196589999999958], [44.447607000000005, -12.200492999999938], [44.445807000000116, -12.20106299999992], [44.44512400000008, -12.196100999999885], [44.444074000000114, -12.192282999999918], [44.44249200000013, -12.18741499999993], [44.44117700000004, -12.182928999999945], [44.43957500000016, -12.18092299999995], [44.43978700000014, -12.176438999999846], [44.438449000000105, -12.17510099999987], [44.43559600000009, -12.17223399999989], [44.43310200000013, -12.169463999999948], [44.43113900000009, -12.166777999999852], [44.43000900000004, -12.16239899999988], [44.42931800000008, -12.158580999999913], [44.43004900000017, -12.156864999999982], [44.431677000000036, -12.15524599999992], [44.43402800000001, -12.153055999999935], [44.43636100000015, -12.152499999999918], [44.43842000000018, -12.154111999999884], [44.44146200000017, -12.155738999999869], [44.444230000000005, -12.158032999999875], [44.445023000000106, -12.160132999999973], [44.44562700000017, -12.163472999999954], [44.445250000000044, -12.164860999999974], [44.446951000000126, -12.166718999999944], [44.450170000000185, -12.168727999999874], [44.45526900000016, -12.171407999999929]]]}}]}