{"type": "FeatureCollection", "features": [{"type": "Feature", "properties": {"country": "Comoros", "pcode": "KM321", "name": "Fomboni", "island": "Moh\u00e9li (Mwali)"}, "geometry": {"type": "Polygon", "coordinates": [[[43.75099600000016, -12.286640999999975], [43.748246000000165, -12.290262999999982], [43.74080600000008, -12.31304299999988], [43.7351470000001, -12.318458999999962], [43.72578700000014, -12.326291999999853], [43.72558900000013, -12.319388999999887], [43.72430200000019, -12.317127999999968], [43.723066000000074, -12.316385999999909], [43.7211190000001, -12.317619999999977], [43.719455000000096, -12.317703999999821], [43.71717400000017, -12.317923999999891], [43.71574800000013, -12.317594999999926], [43.71484400000014, -12.317037999999968], [43.71341699999999, -12.315788999999825], [43.71256100000005, -12.315830999999946], [43.711659000000054, -12.316241999999932], [43.711091000000124, -12.317987999999957], [43.71019000000018, -12.320007999999916], [43.70986000000005, -12.321616999999947], [43.71047900000008, -12.32318499999991], [43.71299900000008, -12.323978999999952], [43.713139000000126, -12.324550999999929], [43.71105100000017, -12.32424599999996], [43.709768000000054, -12.324469999999906], [43.70915000000008, -12.324328999999977], [43.70829300000008, -12.323174999999878], [43.707864000000086, -12.321929999999895], [43.70767100000012, -12.32013499999988], [43.70710100000019, -12.319809999999904], [43.706292000000076, -12.31952999999993], [43.70505600000013, -12.319431999999892], [43.703725000000134, -12.319195999999977], [43.70239400000014, -12.318867999999952], [43.70153799999997, -12.318495999999982], [43.70106300000015, -12.318263999999886], [43.700016000000176, -12.317291999999838], [43.6993020000001, -12.316506999999888], [43.69858800000014, -12.315858999999932], [43.69787400000007, -12.31534999999991], [43.696733000000165, -12.314515999999912], [43.69587700000005, -12.314143999999942], [43.69535300000018, -12.31308299999995], [43.693830000000105, -12.311833999999976], [43.69306900000004, -12.311461999999835], [43.69249800000006, -12.310722999999882], [43.69183200000003, -12.310673999999892], [43.69135700000015, -12.310395999999912], [43.691451000000086, -12.309981999999934], [43.69130800000016, -12.308968999999877], [43.6909740000001, -12.308414999999968], [43.690308000000016, -12.307951999999943], [43.68940500000008, -12.307809999999904], [43.68869200000006, -12.307944999999961], [43.68812200000019, -12.307803999999862], [43.68835900000005, -12.307160999999951], [43.68845300000004, -12.306470999999874], [43.68821400000013, -12.305733999999916], [43.70433500000013, -12.288660999999934], [43.70849399999997, -12.285113999999908], [43.71082700000011, -12.26989199999997], [43.71085500000015, -12.26966399999992], [43.71117800000019, -12.26979799999998], [43.71153700000008, -12.269864999999925], [43.71161500000011, -12.26994999999988], [43.711790000000065, -12.269978999999978], [43.71194600000018, -12.27014899999989], [43.71211100000011, -12.270253999999966], [43.71224699999999, -12.270394999999837], [43.71253899999999, -12.270499999999913], [43.71283000000011, -12.270660999999905], [43.712966000000165, -12.270783999999935], [43.713180000000136, -12.270953999999904], [43.71334500000012, -12.271114999999895], [43.713802000000044, -12.271125999999924], [43.714064000000064, -12.27097699999996], [43.71423900000019, -12.270977999999957], [43.71461800000009, -12.27137499999992], [43.715958000000114, -12.27172899999988], [43.71623999999997, -12.271729999999877], [43.71649200000007, -12.271448999999905], [43.71680300000003, -12.2714509999999], [43.71686100000005, -12.271337999999957], [43.716997000000106, -12.271328999999923], [43.717172000000176, -12.271141999999827], [43.717366000000084, -12.271132999999963], [43.717444000000114, -12.271283999999923], [43.71759900000018, -12.271293999999955], [43.717628000000104, -12.271237999999869], [43.71776400000016, -12.271210999999937], [43.71790000000004, -12.271445999999912], [43.71799800000014, -12.271737999999914], [43.71811500000007, -12.271879999999953], [43.71822100000014, -12.271964999999966], [43.71847400000007, -12.271974999999827], [43.71868800000004, -12.272032999999908], [43.71894000000009, -12.272230999999977], [43.71959100000015, -12.272327999999902], [43.72005800000005, -12.272499999999923], [43.720339000000024, -12.272575999999901], [43.720922000000144, -12.272738999999888], [43.72122300000018, -12.272739999999885], [43.72153400000013, -12.272600999999952], [43.721786000000066, -12.27261099999987], [43.721961000000135, -12.272508999999957], [43.72219400000006, -12.272415999999964], [43.72233000000011, -12.272161999999923], [43.72257200000007, -12.272172999999952], [43.722738000000106, -12.272474999999872], [43.72287400000016, -12.27252199999998], [43.72297100000003, -12.272522999999978], [43.72304900000012, -12.27250399999997], [43.72330100000016, -12.27247699999998], [43.723466000000144, -12.272505999999964], [43.72358300000002, -12.272553999999957], [43.72366100000011, -12.27264799999989], [43.723768000000064, -12.272798999999964], [43.723855000000185, -12.272892999999954], [43.72466100000008, -12.272887999999966], [43.72539900000004, -12.272674999999936], [43.72605000000004, -12.272677999999928], [43.72607900000014, -12.27272499999998], [43.72655100000014, -12.272723999999869], [43.7266130000001, -12.27265199999988], [43.72672900000009, -12.27252099999987], [43.726846000000194, -12.272427999999934], [43.72699100000011, -12.27232499999991], [43.72718500000019, -12.272221999999942], [43.72753499999999, -12.272232999999858], [43.72771900000015, -12.272167999999965], [43.727836000000025, -12.27208399999995], [43.728020000000186, -12.272028999999918], [43.72835000000009, -12.271973999999943], [43.72883600000017, -12.271966999999961], [43.728846000000146, -12.272013999999956], [43.72919500000006, -12.272052999999971], [43.729555000000175, -12.272063999999887], [43.72997400000003, -12.272047999999927], [43.73023400000005, -12.27185999999989], [43.7302820000001, -12.271634999999947], [43.73047600000018, -12.271353999999974], [43.73105900000007, -12.27137499999992], [43.73118500000004, -12.27127199999984], [43.73145700000015, -12.27125499999994], [43.73157300000014, -12.27119899999991], [43.73173900000006, -12.271199999999908], [43.731875000000116, -12.271227999999837], [43.73194200000012, -12.271199999999908], [43.73217500000004, -12.27108899999996], [43.732311000000095, -12.270881999999972], [43.732457000000124, -12.270779999999888], [43.732583000000034, -12.270779999999888], [43.732767000000194, -12.270442999999887], [43.732845000000054, -12.270461999999952], [43.73302000000018, -12.270565999999974], [43.73326300000019, -12.270660999999905], [43.733768000000055, -12.270757999999944], [43.73397200000005, -12.270823999999891], [43.73421500000006, -12.271257999999932], [43.73436100000009, -12.271530999999925], [43.73453600000016, -12.271644999999978], [43.734653000000094, -12.271833999999956], [43.73473999999999, -12.272068999999874], [43.73500300000012, -12.27221099999997], [43.73514900000009, -12.272314999999878], [43.735333000000026, -12.27246699999995], [43.73545000000013, -12.272579999999948], [43.73558600000018, -12.272749999999917], [43.73562500000003, -12.272881999999981], [43.735781000000145, -12.273126999999931], [43.73584900000009, -12.27329599999996], [43.736053000000084, -12.273494999999912], [43.73623800000013, -12.273523999999895], [43.736432000000036, -12.27374999999995], [43.73669500000011, -12.27408099999991], [43.73687000000001, -12.274381999999946], [43.73699700000003, -12.274645999999848], [43.73716200000001, -12.275097999999957], [43.73729800000007, -12.275098999999955], [43.737425000000144, -12.275183999999967], [43.73756100000003, -12.275485999999887], [43.73754200000019, -12.275786999999923], [43.73768800000005, -12.27584399999995], [43.73766900000004, -12.276125999999977], [43.737805000000094, -12.276144999999872], [43.73781400000013, -12.276219999999967], [43.73766900000004, -12.276435999999876], [43.73749400000014, -12.27650099999994], [43.737436000000116, -12.27685799999989], [43.73756300000019, -12.277140999999972], [43.73773800000009, -12.277479999999855], [43.73774900000012, -12.278231999999889], [43.73784600000016, -12.278570999999886], [43.73809000000006, -12.278957999999932], [43.73826500000018, -12.279174999999952], [43.73839100000009, -12.279353999999898], [43.738770000000045, -12.27959999999996], [43.73905200000007, -12.279779999999903], [43.73954800000007, -12.280082999999934], [43.740218000000084, -12.280471999999975], [43.74084000000005, -12.280859999999905], [43.74115100000006, -12.28105899999997], [43.74144300000006, -12.281191999999919], [43.74152100000009, -12.281276999999875], [43.74181200000004, -12.281484999999918], [43.74210400000004, -12.28168399999987], [43.7425320000001, -12.281958999999972], [43.74281300000007, -12.28211099999993], [43.74304700000005, -12.282289999999932], [43.74323099999998, -12.28244199999989], [43.74345500000004, -12.28263099999998], [43.74377600000014, -12.28285799999992], [43.744077000000175, -12.283093999999949], [43.744388000000185, -12.283358999999905], [43.74463100000003, -12.283538999999962], [43.74500100000006, -12.283746999999948], [43.74543799999998, -12.28399399999995], [43.74601100000018, -12.28425999999996], [43.7464480000001, -12.2844869999999], [43.74685699999998, -12.284676999999817], [43.747342000000174, -12.28488699999997], [43.7475950000001, -12.285065999999915], [43.74777000000006, -12.285217999999816], [43.74795500000005, -12.28537799999998], [43.7481590000001, -12.28549199999992], [43.74855700000012, -12.28570099999996], [43.74875200000014, -12.285776999999882], [43.74891700000006, -12.285918999999978], [43.74923800000016, -12.28618299999988], [43.749636000000066, -12.28651399999984], [43.749685000000056, -12.286523999999872], [43.74970400000018, -12.28627999999992], [43.75015100000007, -12.286412999999925], [43.75069500000012, -12.28656599999988], [43.75098600000001, -12.286632999999938], [43.75099600000016, -12.286640999999975]]]}}]}