{"type": "FeatureCollection", "features": [{"type": "Feature", "properties": {"country": "Comoros", "pcode": "KM125", "name": "Ongojou", "island": "Anjouan (Ndzouani)"}, "geometry": {"type": "Polygon", "coordinates": [[[44.53053100000017, -12.31469999999996], [44.53070400000013, -12.317214999999862], [44.5311890000001, -12.318320999999969], [44.531032000000096, -12.319233999999938], [44.530889000000116, -12.319785999999965], [44.53088200000008, -12.32091399999996], [44.531110000000126, -12.322075999999981], [44.531120000000044, -12.32236899999998], [44.53086900000011, -12.323371999999836], [44.530809999999974, -12.32351899999992], [44.53088200000008, -12.325130999999885], [44.530811000000085, -12.32535699999994], [44.53081900000001, -12.32596599999988], [44.53095800000017, -12.32616899999988], [44.53118000000006, -12.326146999999935], [44.53128600000014, -12.326101999999935], [44.531521000000055, -12.325842999999907], [44.531696000000125, -12.325842999999907], [44.5316830000001, -12.326102999999932], [44.53149500000018, -12.326327999999876], [44.53148199999998, -12.326462999999876], [44.53136500000011, -12.326620999999875], [44.53113000000019, -12.326800999999932], [44.53096600000009, -12.326935999999932], [44.53093000000018, -12.327115999999819], [44.53091700000016, -12.32728499999996], [44.53085800000008, -12.327419999999904], [44.53068200000007, -12.32748799999996], [44.53056500000014, -12.327588999999875], [44.530378000000155, -12.327644999999961], [44.530202000000145, -12.32770099999982], [44.530004000000076, -12.327688999999964], [44.52974700000016, -12.327676999999937], [44.529548000000034, -12.327732999999967], [44.52945300000016, -12.327969999999937], [44.529452000000106, -12.328172999999879], [44.52950900000019, -12.328454999999963], [44.52953100000002, -12.328702999999962], [44.529717000000176, -12.328838999999903], [44.530079000000114, -12.328782999999817], [44.530594000000065, -12.328716999999926], [44.5308500000001, -12.328897999999981], [44.53088300000019, -12.32914599999998], [44.53099900000018, -12.329416999999978], [44.53085700000014, -12.32965299999995], [44.53079800000006, -12.32984499999992], [44.53087900000003, -12.330002999999863], [44.53078400000015, -12.330148999999949], [44.530691000000104, -12.330148999999949], [44.53063300000008, -12.330012999999951], [44.53016700000006, -12.329831999999897], [44.53008500000004, -12.329831999999897], [44.52990900000003, -12.329966999999897], [44.529651, -12.330168999999898], [44.529404, -12.330405999999812], [44.529309000000126, -12.330731999999955], [44.529306000000076, -12.33131899999995], [44.529489000000126, -12.33199599999989], [44.52948600000008, -12.332547999999917], [44.529544000000044, -12.332592999999918], [44.52967300000006, -12.332548999999915], [44.52987100000013, -12.33257199999997], [44.52987000000019, -12.33285399999994], [44.529540000000054, -12.33340499999997], [44.529421000000184, -12.33374299999997], [44.52938300000005, -12.334295999999881], [44.52931200000006, -12.33445399999988], [44.52928800000018, -12.334610999999938], [44.529216000000076, -12.334847999999965], [44.5292740000001, -12.334994999999878], [44.529261000000076, -12.335242999999878], [44.529107000000124, -12.335602999999935], [44.52916400000004, -12.33590799999996], [44.529137000000105, -12.33648299999993], [44.528890000000104, -12.336786999999845], [44.528783000000146, -12.3370799999999], [44.528839000000175, -12.33765499999987], [44.528977000000054, -12.338004999999896], [44.52908000000019, -12.338365999999837], [44.52920700000004, -12.338636999999949], [44.529369000000145, -12.338884999999948], [44.529660000000035, -12.339144999999974], [44.52981100000011, -12.339314999999942], [44.5299720000001, -12.33976599999994], [44.53005200000018, -12.34000299999991], [44.530192, -12.340138999999965], [44.53042400000004, -12.34044399999982], [44.530516000000034, -12.340691999999933], [44.53073499999999, -12.34117699999996], [44.531025, -12.341617999999869], [44.53131500000006, -12.341922999999895], [44.53151200000019, -12.342125999999894], [44.531745000000114, -12.342272999999977], [44.53207200000014, -12.342397999999946], [44.53252700000013, -12.342511999999942], [44.53267700000009, -12.342691999999943], [44.53280400000011, -12.34296299999994], [44.53292000000016, -12.343154999999967], [44.53309500000006, -12.343290999999908], [44.53328100000016, -12.34341499999988], [44.53333300000003, -12.343805999999972], [44.53155200000009, -12.344700999999873], [44.529575000000136, -12.34564899999998], [44.52659300000016, -12.345326999999884], [44.52338100000014, -12.343735999999979], [44.52111900000017, -12.342780999999832], [44.516640000000166, -12.343090999999902], [44.51347100000015, -12.343846999999926], [44.51066900000012, -12.34339799999998], [44.50822200000016, -12.342582999999877], [44.507667000000026, -12.341416999999922], [44.504253000000176, -12.339011999999911], [44.50152000000003, -12.337295999999924], [44.50112200000012, -12.33444099999997], [44.49828500000007, -12.330504999999903], [44.50231300000007, -12.326579999999979], [44.50197000000014, -12.324485999999979], [44.501979000000176, -12.323153999999931], [44.50425800000005, -12.321635999999899], [44.50445200000013, -12.319606999999962], [44.50339900000006, -12.316687999999942], [44.500750000000096, -12.313582999999824], [44.50191700000016, -12.311860999999965], [44.504825000000096, -12.309206999999958], [44.50501300000019, -12.30793899999992], [44.50443000000007, -12.306098999999904], [44.50727300000011, -12.30586599999998], [44.51173800000009, -12.306565999999918], [44.527961000000175, -12.303147999999908], [44.52791000000002, -12.303902999999934], [44.52808700000014, -12.305695999999955], [44.52829600000018, -12.306959999999947], [44.528482999999994, -12.308121999999969], [44.52864900000009, -12.308651999999938], [44.52881000000008, -12.309159999999963], [44.529111000000114, -12.309644999999932], [44.529493000000116, -12.3102659999999], [44.52970200000016, -12.31054899999998], [44.529806000000065, -12.310627999999838], [44.530191000000116, -12.310774999999921], [44.53073900000015, -12.310944999999947], [44.5310540000001, -12.311080999999945], [44.53133300000013, -12.311318999999969], [44.531565000000114, -12.31164599999994], [44.53174900000005, -12.312040999999965], [44.531771000000106, -12.312300999999877], [44.53158200000013, -12.312796999999875], [44.530994000000135, -12.313505999999848], [44.53081700000007, -12.313809999999933], [44.53094400000009, -12.314057999999932], [44.5308950000001, -12.314350999999931], [44.53056700000013, -12.314620999999818], [44.53053100000017, -12.31469999999996]]]}}]}