{"type": "FeatureCollection", "features": [{"type": "Feature", "properties": {"country": "Comoros", "pcode": "KM143", "name": "Ouani", "island": "Anjouan (Ndzouani)"}, "geometry": {"type": "Polygon", "coordinates": [[[44.45611500000018, -12.128667999999891], [44.45841500000006, -12.133441999999945], [44.458929000000126, -12.136972999999955], [44.46244300000012, -12.147853999999938], [44.46510300000011, -12.15253399999989], [44.46683200000018, -12.161885999999981], [44.46401900000012, -12.16598399999998], [44.4603130000001, -12.169316999999978], [44.45768800000013, -12.172269999999969], [44.45526900000016, -12.171407999999929], [44.450170000000185, -12.168727999999874], [44.446951000000126, -12.166718999999944], [44.445250000000044, -12.164860999999974], [44.44562700000017, -12.163472999999954], [44.445023000000106, -12.160132999999973], [44.444230000000005, -12.158032999999875], [44.44146200000017, -12.155738999999869], [44.43842000000018, -12.154111999999884], [44.43636100000015, -12.152499999999918], [44.43402800000001, -12.153055999999935], [44.431677000000036, -12.15524599999992], [44.43004900000017, -12.156864999999982], [44.42931800000008, -12.158580999999913], [44.42824800000017, -12.157625999999937], [44.426211000000194, -12.153614999999888], [44.42525000000012, -12.149221999999952], [44.42356100000012, -12.14750499999991], [44.42087300000014, -12.146584999999902], [44.42137300000013, -12.145630999999923], [44.42170500000003, -12.14456899999982], [44.421741, -12.144145999999978], [44.42172000000005, -12.143776999999943], [44.42133900000016, -12.143623999999875], [44.42069900000013, -12.14353599999987], [44.42035400000003, -12.142949999999871], [44.42020800000017, -12.142894999999953], [44.41998300000006, -12.142904999999871], [44.41979200000003, -12.14292699999993], [44.41963500000003, -12.142871999999898], [44.41946800000005, -12.142632999999933], [44.419357000000105, -12.142426999999941], [44.41942600000016, -12.142046999999934], [44.41951700000004, -12.141840999999943], [44.41973200000007, -12.141689999999926], [44.419967000000156, -12.141776999999934], [44.42027100000007, -12.141744999999844], [44.420496000000014, -12.141723999999954], [44.420721000000185, -12.141615999999829], [44.42099200000001, -12.141442999999981], [44.42125200000004, -12.141128999999921], [44.421535000000006, -12.14076099999994], [44.42168200000009, -12.140522999999973], [44.42167200000017, -12.14026199999995], [44.421606000000054, -12.140001999999868], [44.42151800000005, -12.139827999999966], [44.421823000000074, -12.139426999999898], [44.42191500000018, -12.139090999999894], [44.42199600000015, -12.138580999999874], [44.42212300000017, -12.13811499999997], [44.42232900000016, -12.137453999999877], [44.422263000000044, -12.137041999999894], [44.42233300000015, -12.136629999999911], [44.422551000000055, -12.135891999999956], [44.42267700000019, -12.135414999999853], [44.42275800000016, -12.13497099999995], [44.42276000000015, -12.134644999999978], [44.42259500000017, -12.13408099999998], [44.42231600000014, -12.13363599999991], [44.422115000000076, -12.133406999999977], [44.42197000000016, -12.133168999999896], [44.421860000000095, -12.13271299999991], [44.421752000000026, -12.132050999999933], [44.42175300000014, -12.131779999999935], [44.421812000000045, -12.13135699999998], [44.421972000000096, -12.130911999999967], [44.42216400000018, -12.130651999999941], [44.42245800000018, -12.130272999999931], [44.42285300000003, -12.129959999999869], [44.423407, -12.129472999999905], [44.423836000000165, -12.129125999999872], [44.42439900000005, -12.128790999999978], [44.42447300000009, -12.128731999999957], [44.42502500000012, -12.128466999999887], [44.425396999999975, -12.128293999999869], [44.42589200000009, -12.128072999999972], [44.42631000000006, -12.127785999999958], [44.42675600000018, -12.127396999999974], [44.427078000000165, -12.127076999999815], [44.42740600000013, -12.12677999999994], [44.42781200000013, -12.126367999999957], [44.42812300000014, -12.126026999999965], [44.42827100000011, -12.125777999999968], [44.42852499999998, -12.125485999999967], [44.428706000000034, -12.125323999999978], [44.42989200000011, -12.125233999999978], [44.43003400000015, -12.125005999999871], [44.43017600000019, -12.124762999999916], [44.430328000000145, -12.124643999999932], [44.43061600000016, -12.124394999999936], [44.4309760000001, -12.124232999999947], [44.431337000000156, -12.12409799999989], [44.431624000000056, -12.123935999999958], [44.431946000000096, -12.123648999999943], [44.43249000000014, -12.122808999999904], [44.43270600000005, -12.12248999999997], [44.43300100000016, -12.121931999999902], [44.43323800000002, -12.121644999999944], [44.433268000000055, -12.121405999999979], [44.43315200000001, -12.121020999999928], [44.433136000000104, -12.120808999999895], [44.433409000000154, -12.120304999999917], [44.433783000000176, -12.119682999999895], [44.43390300000016, -12.119340999999906], [44.4339260000001, -12.119194999999934], [44.43378800000005, -12.118722999999932], [44.43307300000009, -12.11809699999992], [44.432928000000175, -12.117847999999924], [44.43290100000007, -12.117559999999912], [44.43306700000011, -12.11708899999985], [44.4328890000001, -12.116816999999969], [44.43287400000014, -12.116440999999952], [44.43262900000008, -12.116102999999896], [44.432509000000096, -12.115942999999959], [44.432573000000104, -12.115857999999946], [44.43284500000004, -12.11556399999995], [44.43286900000004, -12.11528199999998], [44.43285900000012, -12.115031999999928], [44.432771000000116, -12.114738999999929], [44.43265000000008, -12.11422899999991], [44.43258500000019, -12.113903999999934], [44.43228200000016, -12.113674999999887], [44.43198100000012, -12.113348999999914], [44.431825000000174, -12.11309899999992], [44.431759000000056, -12.112784999999974], [44.43180600000005, -12.112372999999934], [44.431673000000046, -12.11217699999986], [44.43140400000016, -12.11192699999998], [44.43110200000007, -12.11179599999997], [44.430810000000065, -12.111621999999954], [44.43059800000009, -12.111490999999944], [44.43044100000009, -12.111317999999926], [44.430208000000164, -12.11086199999994], [44.43004100000019, -12.110535999999968], [44.429850000000044, -12.110524999999939], [44.42950100000013, -12.11059999999992], [44.42918700000007, -12.110544999999831], [44.42901900000004, -12.110413999999935], [44.42878300000001, -12.110380999999961], [44.42856000000006, -12.110109999999963], [44.428393000000085, -12.109826999999939], [44.42821500000008, -12.109414999999956], [44.42784500000005, -12.109359999999924], [44.42761100000007, -12.108968999999888], [44.427422000000035, -12.108533999999963], [44.42707700000011, -12.108012999999858], [44.426899000000105, -12.10767599999997], [44.42668800000007, -12.107306999999878], [44.42650900000018, -12.107035999999937], [44.42631799999998, -12.106991999999934], [44.42596000000003, -12.106816999999921], [44.42554500000017, -12.106609999999932], [44.42532100000011, -12.106511999999896], [44.42516600000005, -12.106142999999918], [44.42495400000013, -12.105860999999948], [44.42476400000004, -12.10566499999993], [44.42429400000003, -12.105338999999958], [44.42407000000014, -12.105088999999964], [44.42376800000005, -12.104914999999949], [44.42351000000019, -12.104729999999904], [44.423264000000074, -12.10447999999991], [44.42306400000007, -12.104142999999908], [44.42285200000009, -12.103805999999906], [44.42264000000017, -12.103523999999936], [44.42239500000011, -12.103229999999883], [44.42210300000011, -12.103077999999925], [44.42189100000019, -12.10283899999996], [44.42159000000015, -12.102523999999903], [44.421288000000175, -12.102229999999906], [44.420941000000084, -12.101892999999905], [44.42066200000011, -12.101631999999825], [44.42045000000013, -12.101305999999852], [44.41988300000014, -12.100263999999981], [44.41966100000002, -12.09963399999998], [44.41949700000015, -12.098928999999885], [44.41944500000011, -12.098168999999928], [44.419478000000026, -12.096237999999914], [44.419402000000105, -12.095803999999873], [44.41940499999998, -12.095261999999877], [44.419634000000144, -12.094491999999946], [44.419782999999995, -12.094004999999981], [44.420022000000074, -12.093321999999944], [44.42013700000018, -12.09298599999994], [44.42043100000018, -12.092660999999964], [44.420803000000035, -12.092454999999973], [44.42097300000006, -12.092053999999962], [44.4212, -12.091674999999952], [44.42143700000008, -12.091480999999874], [44.42176500000005, -12.091231999999877], [44.42230600000005, -12.09092899999996], [44.42301500000008, -12.090691999999876], [44.423836000000165, -12.09050899999994], [44.42434300000019, -12.090271999999914], [44.42491800000016, -12.089936999999907], [44.42530100000005, -12.089860999999928], [44.425673000000074, -12.089579999999955], [44.4261130000001, -12.089363999999932], [44.42671000000013, -12.089050999999813], [44.4271500000001, -12.088855999999907], [44.427949000000126, -12.088532999999927], [44.42851200000018, -12.088446999999917], [44.4288160000001, -12.08820899999995], [44.429189000000065, -12.087873999999942], [44.42960600000009, -12.087754999999959], [44.430552000000034, -12.08734499999997], [44.431385000000034, -12.087009999999964], [44.43191400000012, -12.086826999999914], [44.43235400000009, -12.086534999999913], [44.43235499999997, -12.086447999999905], [44.43206500000014, -12.086056999999869], [44.43224600000019, -12.085720999999978], [44.432427000000075, -12.085656999999912], [44.43280800000019, -12.085776999999894], [44.43319000000014, -12.085755999999947], [44.43359400000003, -12.085886999999957], [44.43398800000011, -12.085876999999925], [44.435023000000115, -12.08565099999987], [44.436651000000154, -12.087803999999949], [44.439763000000085, -12.092196999999942], [44.44018699999998, -12.095727999999895], [44.44034000000005, -12.099352999999894], [44.43959600000011, -12.102881999999966], [44.43964900000009, -12.108128999999963], [44.44178600000015, -12.110612999999944], [44.44589100000013, -12.114244999999926], [44.44838300000009, -12.117397999999923], [44.45202800000004, -12.122555999999918], [44.45611500000018, -12.128667999999891]]]}}]}