{"type": "FeatureCollection", "features": [{"type": "Feature", "properties": {"country": "Comoros", "pcode": "KM122", "name": "Chaweni", "island": "Anjouan (Ndzouani)"}, "geometry": {"type": "Polygon", "coordinates": [[[44.49945000000014, -12.342935999999952], [44.50183400000009, -12.343320999999833], [44.506491000000096, -12.343200999999851], [44.50639200000006, -12.3457029999999], [44.505053000000146, -12.348226999999952], [44.50547100000006, -12.351316999999824], [44.507207000000164, -12.35496999999998], [44.50903600000015, -12.357873999999924], [44.50980900000019, -12.360588999999948], [44.510409000000095, -12.362929999999949], [44.512064000000066, -12.365552999999977], [44.511873000000094, -12.367705999999941], [44.514312000000075, -12.371452999999917], [44.51579400000014, -12.373701999999923], [44.51771400000018, -12.376231999999902], [44.51902000000007, -12.378386999999975], [44.51989400000008, -12.37932399999994], [44.52223800000007, -12.381866999999943], [44.52212100000014, -12.381866999999943], [44.52202800000009, -12.381843999999944], [44.52190000000013, -12.381843999999944], [44.52173499999998, -12.382102999999859], [44.52162800000019, -12.382338999999945], [44.521558000000084, -12.382361999999887], [44.52151100000009, -12.382327999999916], [44.52147700000012, -12.382203999999945], [44.521454000000176, -12.38211299999989], [44.52131300000008, -12.382202999999947], [44.521208000000115, -12.38222599999989], [44.5210790000001, -12.382303999999976], [44.52078600000016, -12.382540999999947], [44.52060999999998, -12.382675999999947], [44.52042200000005, -12.38286699999992], [44.52012900000017, -12.382944999999893], [44.51994200000013, -12.383057999999892], [44.51977800000009, -12.383158999999921], [44.51962600000013, -12.38321499999995], [44.51945000000012, -12.383281999999951], [44.51926300000008, -12.383314999999868], [44.51916900000015, -12.383404999999925], [44.51905100000016, -12.383517999999981], [44.51885300000009, -12.383528999999896], [44.51868900000005, -12.383505999999954], [44.518573, -12.38347199999987], [44.51837500000016, -12.383380999999929], [44.51814200000007, -12.383199999999931], [44.51803800000016, -12.383064999999874], [44.51787400000012, -12.382985999999903], [44.51778100000007, -12.383029999999906], [44.51761700000014, -12.383131999999932], [44.51740600000011, -12.383232999999905], [44.51713700000005, -12.383265999999878], [44.51671600000003, -12.38326499999988], [44.51634200000018, -12.383331999999939], [44.51626000000016, -12.383398999999883], [44.516131000000144, -12.383421999999939], [44.51600200000013, -12.38349999999997], [44.515862000000084, -12.383567999999912], [44.515721000000156, -12.383690999999885], [44.51561500000008, -12.383814999999913], [44.51549800000015, -12.383848999999884], [44.515463000000125, -12.383915999999942], [44.515544000000034, -12.383983999999884], [44.51560200000006, -12.384074999999939], [44.51575300000013, -12.38419899999991], [44.5158110000001, -12.384288999999967], [44.51582200000013, -12.384401999999909], [44.51577500000013, -12.384457999999938], [44.515635000000145, -12.384457999999938], [44.5154950000001, -12.384457999999938], [44.51528500000012, -12.384423999999967], [44.51518000000016, -12.384355999999912], [44.51508700000005, -12.38428799999997], [44.51503000000014, -12.384072999999944], [44.51494800000012, -12.384005999999943], [44.51484400000004, -12.383903999999916], [44.51464500000009, -12.383880999999974], [44.514527999999984, -12.38389199999989], [44.514446000000135, -12.383992999999919], [44.51420000000007, -12.384093999999948], [44.51390800000007, -12.384070999999892], [44.513733000000116, -12.384115999999949], [44.51354500000019, -12.38429599999995], [44.51342800000015, -12.384351999999978], [44.513136000000145, -12.38426099999998], [44.512774000000036, -12.38418199999984], [44.512389000000155, -12.3841129999999], [44.51227300000011, -12.3839779999999], [44.51227600000004, -12.38353799999993], [44.512194000000136, -12.383480999999904], [44.51210100000009, -12.383401999999933], [44.51185600000008, -12.383355999999878], [44.51173899999998, -12.38343499999985], [44.51159800000005, -12.383580999999936], [44.51131500000008, -12.384020999999905], [44.51104500000014, -12.384245999999962], [44.51091600000012, -12.384357999999906], [44.510740999999996, -12.384357999999906], [44.50938800000017, -12.383925999999974], [44.5088980000001, -12.383767999999975], [44.50842000000017, -12.38361999999995], [44.508141000000194, -12.383460999999954], [44.5079080000001, -12.383291999999926], [44.50766300000009, -12.3832799999999], [44.507581000000016, -12.383177999999873], [44.50735900000012, -12.383188999999902], [44.507208000000105, -12.38312099999996], [44.507069000000115, -12.382940999999903], [44.50674300000014, -12.382612999999935], [44.50655700000004, -12.382589999999936], [44.50614800000011, -12.382554999999968], [44.50588000000016, -12.382385999999826], [44.50567000000018, -12.382294999999942], [44.50521500000019, -12.38231599999989], [44.50507499999998, -12.382293999999945], [44.50408400000009, -12.381783999999925], [44.50342100000012, -12.381432999999845], [44.502908000000104, -12.381194999999934], [44.50225600000016, -12.38081099999988], [44.501732000000175, -12.380549999999971], [44.50149800000014, -12.380537999999945], [44.501066000000094, -12.380514999999832], [44.500611000000106, -12.380299999999977], [44.49994700000008, -12.379970999999955], [44.49934200000013, -12.379676999999958], [44.498736000000065, -12.379393999999877], [44.49814100000003, -12.379267999999968], [44.497511000000145, -12.379007999999942], [44.497208000000114, -12.378848999999832], [44.49696400000016, -12.378724999999974], [44.496719000000155, -12.378554999999949], [44.4963810000001, -12.37838499999998], [44.49612400000012, -12.378451999999925], [44.49594800000011, -12.378530999999896], [44.49566800000008, -12.37851899999987], [44.49543600000004, -12.378157999999928], [44.495146000000034, -12.37787499999996], [44.49480600000015, -12.37800999999996], [44.49443200000013, -12.378064999999879], [44.49406000000005, -12.377714999999966], [44.49389700000006, -12.377635999999939], [44.493443000000184, -12.377352999999971], [44.49322200000017, -12.377239999999915], [44.49301200000019, -12.377227999999889], [44.49263800000017, -12.377215999999976], [44.49234600000017, -12.377113999999892], [44.492020000000025, -12.376921999999979], [44.49173000000019, -12.376706999999953], [44.491497000000095, -12.376570999999899], [44.49104200000011, -12.376479999999901], [44.490750000000105, -12.376354999999876], [44.49058700000012, -12.376196999999934], [44.490437000000156, -12.375959999999964], [44.49028700000014, -12.375609999999881], [44.49011600000006, -12.374774999999886], [44.49023600000004, -12.374335999999971], [44.48999000000009, -12.372338999999954], [44.48972500000019, -12.37159399999996], [44.489745000000084, -12.37007199999988], [44.48961900000012, -12.369721999999967], [44.489610000000084, -12.36918099999997], [44.48966899999999, -12.369000999999969], [44.48985800000003, -12.36863999999997], [44.490047000000004, -12.368313999999884], [44.49060000000014, -12.367682999999943], [44.49081100000018, -12.367446999999913], [44.49102500000009, -12.366905999999915], [44.49140100000017, -12.366444999999885], [44.49187200000006, -12.365791999999942], [44.49201400000004, -12.365396999999973], [44.49218100000019, -12.364765999999975], [44.49240600000019, -12.364213999999947], [44.49270300000006, -12.363390999999979], [44.49270800000011, -12.362511999999981], [44.492547000000116, -12.36194799999987], [44.492550000000165, -12.361462999999958], [44.49270400000012, -12.361158999999873], [44.492729000000054, -12.360707999999931], [44.49276500000019, -12.360684999999819], [44.49277200000006, -12.359410999999909], [44.4925750000001, -12.359105999999827], [44.492506000000105, -12.358902999999884], [44.49248800000004, -12.357876999999917], [44.492431000000124, -12.357571999999891], [44.49239700000015, -12.357413999999892], [44.49231600000019, -12.357323999999892], [44.49212900000015, -12.357334999999921], [44.49188400000014, -12.357243999999923], [44.49182600000012, -12.357130999999924], [44.491804000000116, -12.356995999999924], [44.491852000000165, -12.356803999999954], [44.4921690000001, -12.356432999999981], [44.492498000000126, -12.356162999999924], [44.492558000000145, -12.355858999999839], [44.492502000000115, -12.355350999999928], [44.49219000000005, -12.354819999999847], [44.49196900000004, -12.354650999999876], [44.49177100000003, -12.354435999999964], [44.49169100000017, -12.35424399999988], [44.49161000000004, -12.354040999999938], [44.49139100000019, -12.353453999999886], [44.49106500000005, -12.353196999999852], [44.490926000000115, -12.35303899999991], [44.490799000000095, -12.352688999999941], [44.490578000000085, -12.352462999999943], [44.49035900000007, -12.351954999999919], [44.49008000000009, -12.35183099999989], [44.48980000000017, -12.351592999999923], [44.48968700000006, -12.351028999999869], [44.48947800000019, -12.350678999999957], [44.48915200000005, -12.350542999999902], [44.48895399999998, -12.350407999999902], [44.48885000000013, -12.350192999999877], [44.48866700000008, -12.349515999999937], [44.48843500000004, -12.349300999999969], [44.488307000000134, -12.34922199999994], [44.487933000000055, -12.349209999999914], [44.48776000000015, -12.348848999999973], [44.487683000000175, -12.34787899999992], [44.48981300000003, -12.346534999999903], [44.4923280000001, -12.345460999999887], [44.4949170000001, -12.343888999999933], [44.49945000000014, -12.342935999999952]]]}}]}