{"type": "FeatureCollection", "features": [{"type": "Feature", "properties": {"country": "Comoros", "pcode": "KM232", "name": "Djoumoichongo", "island": "Grande Comore (Ngazidja)"}, "geometry": {"type": "Polygon", "coordinates": [[[43.3343670000001, -11.665121999999883], [43.283472000000074, -11.666832999999883], [43.28077800000011, -11.664193999999952], [43.27794600000004, -11.651709999999866], [43.27949000000012, -11.650022999999976], [43.28051900000014, -11.649022999999943], [43.282500000000084, -11.645277999999962], [43.28191700000019, -11.640860999999973], [43.28556100000009, -11.637342999999873], [43.287812621000114, -11.637709119999954], [43.2911390000001, -11.638249999999971], [43.33304200000009, -11.633326999999952], [43.33366800000016, -11.649733999999967], [43.33413500000006, -11.659788999999876], [43.3343670000001, -11.665121999999883]]]}}]}