{"type": "FeatureCollection", "features": [{"type": "Feature", "properties": {"country": "Comoros", "pcode": "KM274", "name": "Moroni", "island": "Grande Comore (Ngazidja)"}, "geometry": {"type": "Polygon", "coordinates": [[[43.27004200000016, -11.683691999999894], [43.27564000000007, -11.690359999999885], [43.27532800000017, -11.691462999999942], [43.274679000000106, -11.693212999999957], [43.273450000000025, -11.696759999999813], [43.27338100000003, -11.69702599999988], [43.27322399999997, -11.697215999999969], [43.27273500000001, -11.697409999999934], [43.271933000000104, -11.697834999999941], [43.27121900000003, -11.698186999999905], [43.27084800000006, -11.698443999999881], [43.27038799999997, -11.698662999999954], [43.27012400000018, -11.69896799999998], [43.26979100000017, -11.699309999999855], [43.26932100000016, -11.699595999999872], [43.269106000000136, -11.699690999999916], [43.26891000000012, -11.6998999999999], [43.26882100000017, -11.700261999999952], [43.26854800000018, -11.700623999999948], [43.26830200000006, -11.700888999999961], [43.268057000000056, -11.701383999999962], [43.26769300000012, -11.702210999999977], [43.26725200000004, -11.702895999999896], [43.266988000000026, -11.7032769999999], [43.26660600000008, -11.703751999999952], [43.26627300000007, -11.704084999999964], [43.26586200000014, -11.704446999999902], [43.26541600000019, -11.704827999999964], [43.26468100000011, -11.705436999999904], [43.26389799999998, -11.706520999999896], [43.26362000000012, -11.707040999999947], [43.263486, -11.707254999999975], [43.262935000000084, -11.707663999999966], [43.262653, -11.70787299999995], [43.261915000000045, -11.708405999999911], [43.26175800000004, -11.708605999999918], [43.26161400000001, -11.709492999999952], [43.26155900000009, -11.710459999999955], [43.26136200000013, -11.711030999999934], [43.26109700000006, -11.711467999999968], [43.26105800000005, -11.711648999999909], [43.261038000000156, -11.711952999999937], [43.2611040000001, -11.712749999999971], [43.26070300000015, -11.71328399999993], [43.260634000000096, -11.713701999999955], [43.260403, -11.714046999999823], [43.26030000000003, -11.71433999999988], [43.260295000000156, -11.714486999999963], [43.26017200000007, -11.714959999999962], [43.26006100000012, -11.715166999999951], [43.259985000000086, -11.715311999999926], [43.25956700000012, -11.715997999999956], [43.25909400000006, -11.71667699999989], [43.25897000000009, -11.716740999999956], [43.249331000000154, -11.728444999999965], [43.24627100000009, -11.727829999999813], [43.234009000000185, -11.724385999999868], [43.234166000000016, -11.723953999999935], [43.23475500000012, -11.723805999999911], [43.234857000000034, -11.723696999999959], [43.23494000000011, -11.723053999999877], [43.23513300000013, -11.722767999999917], [43.23562100000015, -11.722737999999936], [43.235809000000074, -11.722218999999882], [43.236244, -11.722218999999882], [43.236244, -11.72212999999988], [43.23611800000009, -11.721900999999946], [43.236045000000104, -11.72174199999995], [43.23628200000013, -11.721406999999942], [43.236373000000015, -11.721406999999942], [43.23651700000005, -11.721565999999939], [43.236590000000035, -11.72154799999987], [43.23666300000008, -11.721282999999971], [43.23689900000005, -11.721229999999935], [43.237135000000194, -11.720964999999978], [43.23718900000006, -11.720841999999891], [43.23700900000006, -11.720629999999971], [43.23700900000006, -11.720558999999923], [43.237498000000016, -11.720576999999935], [43.23769800000008, -11.720187999999894], [43.23807900000014, -11.72024099999993], [43.23809800000015, -11.71995899999996], [43.23835200000019, -11.719552999999905], [43.23849800000016, -11.719146999999907], [43.23868000000016, -11.719146999999907], [43.23886100000004, -11.71893499999993], [43.23889800000006, -11.71875799999998], [43.2387720000001, -11.718352999999922], [43.23911600000014, -11.718440999999927], [43.23935200000017, -11.718175999999971], [43.239534000000106, -11.717963999999881], [43.239571000000126, -11.717592999999852], [43.240117, -11.716886999999872], [43.24010000000004, -11.716339999999832], [43.239974000000075, -11.71575799999988], [43.239974000000075, -11.715510999999879], [43.24021100000016, -11.715316999999914], [43.24023000000011, -11.714645999999902], [43.240158000000065, -11.714275999999927], [43.2401220000001, -11.714151999999956], [43.24021300000015, -11.714027999999928], [43.24021300000015, -11.713939999999923], [43.2399420000001, -11.713904999999954], [43.23990600000013, -11.71379899999988], [43.24006900000012, -11.713745999999958], [43.24021400000004, -11.713639999999884], [43.24026900000018, -11.713533999999981], [43.24008800000013, -11.713322999999946], [43.240161000000114, -11.713181999999904], [43.24030600000003, -11.713075999999944], [43.240415000000155, -11.712810999999874], [43.240561000000184, -11.712475999999867], [43.240762000000075, -11.711839999999825], [43.240871000000084, -11.711698999999953], [43.240998000000104, -11.711451999999952], [43.24114400000008, -11.711151999999913], [43.241290000000106, -11.710445999999934], [43.2416530000001, -11.710497999999973], [43.24178000000012, -11.710427999999979], [43.24176200000005, -11.710180999999977], [43.24174400000015, -11.71007499999996], [43.24179900000013, -11.710056999999892], [43.241998000000024, -11.71010999999993], [43.2421250000001, -11.710197999999934], [43.24217900000008, -11.710197999999934], [43.24227000000019, -11.710126999999943], [43.24232500000011, -11.709897999999896], [43.24254300000018, -11.709826999999962], [43.24263300000018, -11.709756999999968], [43.24283300000002, -11.709703999999931], [43.24310600000007, -11.709367999999927], [43.24323300000009, -11.709261999999967], [43.24332400000014, -11.708979999999883], [43.243397000000186, -11.708696999999916], [43.24354300000016, -11.70844999999997], [43.24370700000003, -11.707867999999962], [43.24378000000007, -11.70754999999997], [43.244144000000176, -11.707108999999889], [43.24438000000015, -11.706825999999921], [43.244453000000135, -11.70666799999998], [43.244489999999985, -11.70640299999991], [43.24452700000006, -11.706049999999948], [43.24472700000007, -11.705802999999833], [43.245035000000144, -11.705484999999896], [43.245163000000105, -11.705290999999932], [43.24530800000019, -11.704937999999913], [43.24539900000008, -11.704778999999917], [43.245599000000084, -11.704548999999815], [43.245817000000045, -11.704478999999878], [43.24601600000017, -11.70446099999998], [43.246433000000025, -11.704548999999815], [43.246941000000106, -11.704600999999855], [43.247340000000065, -11.704582999999957], [43.24763000000013, -11.704564999999889], [43.24790100000013, -11.704617999999925], [43.24801000000008, -11.704776999999922], [43.24824500000017, -11.704846999999972], [43.24844500000006, -11.704917999999964], [43.24860800000005, -11.704917999999964], [43.248753000000136, -11.704846999999972], [43.248880000000156, -11.70486399999993], [43.24911600000013, -11.704599999999857], [43.249316000000135, -11.704546999999934], [43.24951500000009, -11.704598999999973], [43.24969600000014, -11.704528999999923], [43.2499140000001, -11.704351999999858], [43.250168000000144, -11.70431699999989], [43.25025900000003, -11.704404999999952], [43.2503670000001, -11.704474999999888], [43.25058500000017, -11.70433399999996], [43.25065800000016, -11.704174999999964], [43.2506590000001, -11.703786999999977], [43.25116700000018, -11.703256999999951], [43.25156599999997, -11.703309999999874], [43.25176600000003, -11.703309999999874], [43.251838000000134, -11.703450999999916], [43.25198300000005, -11.703432999999848], [43.25211000000007, -11.703273999999908], [43.25173100000012, -11.702603999999894], [43.25162300000011, -11.702374999999961], [43.25158700000014, -11.70214499999986], [43.25149700000014, -11.701862999999946], [43.25118900000007, -11.70152799999994], [43.25104500000003, -11.701209999999946], [43.25104500000003, -11.70110499999987], [43.25113600000009, -11.700927999999976], [43.251299000000074, -11.70087499999994], [43.25146300000017, -11.700803999999835], [43.25159000000019, -11.700591999999972], [43.25131900000014, -11.700380999999936], [43.251083000000165, -11.700115999999923], [43.25093900000013, -11.70001099999996], [43.25088500000015, -11.69972799999988], [43.25088500000015, -11.69955199999987], [43.251049000000194, -11.69933999999995], [43.25114000000008, -11.69905799999998], [43.251177000000155, -11.698863999999901], [43.25132200000007, -11.698721999999975], [43.25150400000018, -11.698651999999925], [43.251523000000134, -11.698157999999921], [43.25121500000006, -11.697839999999928], [43.25108900000015, -11.697663999999975], [43.251035000000115, -11.697504999999978], [43.250908000000095, -11.697381999999948], [43.25083600000016, -11.697222999999838], [43.25078200000013, -11.697116999999935], [43.25014699999997, -11.697099999999978], [43.249929000000066, -11.697223999999835], [43.24989400000004, -11.69702899999993], [43.250075000000095, -11.69692299999997], [43.25034700000003, -11.696763999999973], [43.250456000000156, -11.696693999999923], [43.25047600000005, -11.695740999999941], [43.25053100000014, -11.695687999999905], [43.25056799999999, -11.695528999999908], [43.2504770000001, -11.695352999999898], [43.250406999999996, -11.694399999999916], [43.250697, -11.694311999999854], [43.25071600000018, -11.694046999999955], [43.25058900000016, -11.693993999999918], [43.250553000000025, -11.693781999999942], [43.2507710000001, -11.693799999999953], [43.25087900000017, -11.693781999999942], [43.25097000000005, -11.693640999999957], [43.251643000000115, -11.692916999999966], [43.25178800000003, -11.692704999999933], [43.25187700000015, -11.69246899999996], [43.25193400000006, -11.692316999999889], [43.252116, -11.691769999999849], [43.25215300000008, -11.691539999999918], [43.25168300000007, -11.690851999999836], [43.251412000000016, -11.69051699999983], [43.25146700000016, -11.690287999999953], [43.25154000000015, -11.690040999999951], [43.25166800000005, -11.689546999999948], [43.25177700000006, -11.689193999999873], [43.25195900000017, -11.688857999999982], [43.252177000000074, -11.68866399999996], [43.25246800000019, -11.688469999999938], [43.25272200000006, -11.68829299999993], [43.25294000000014, -11.688169999999957], [43.25317600000017, -11.687763999999959], [43.25317700000005, -11.68762199999992], [43.25290700000011, -11.686686999999836], [43.25298000000009, -11.686333999999931], [43.25307100000015, -11.68615799999992], [43.253360999999984, -11.686051999999961], [43.25307200000009, -11.685663999999917], [43.25307200000009, -11.685504999999978], [43.25323600000013, -11.685310999999956], [43.25323700000007, -11.684833999999967], [43.25347300000004, -11.6846579999999], [43.253728000000194, -11.684357999999975], [43.25443600000011, -11.68359799999996], [43.254908000000114, -11.683385999999928], [43.25510800000012, -11.68303299999991], [43.255290000000116, -11.682785999999908], [43.25619700000016, -11.682290999999907], [43.256216000000165, -11.682043999999962], [43.25636100000008, -11.6819559999999], [43.256470000000036, -11.681867999999895], [43.25650800000017, -11.681320999999912], [43.25676200000004, -11.681108999999879], [43.256907000000126, -11.68112599999995], [43.25696100000016, -11.681319999999857], [43.25719600000008, -11.681319999999857], [43.25728800000019, -11.680878999999948], [43.25734300000016, -11.680702999999937], [43.25810400000006, -11.680542999999943], [43.258105000000114, -11.680401999999901], [43.25803200000013, -11.680366999999876], [43.258087000000046, -11.680242999999905], [43.25812300000018, -11.6801549999999], [43.258196, -11.68004899999994], [43.25834100000009, -11.679960999999935], [43.25832400000013, -11.679730999999833], [43.25887800000015, -11.679927999999961], [43.263406000000145, -11.681480999999962], [43.27004200000016, -11.683691999999894]]]}}]}