{"type": "FeatureCollection", "features": [{"type": "Feature", "properties": {"country": "Comoros", "pcode": "KM141", "name": "Bambao Mtrouni", "island": "Anjouan (Ndzouani)"}, "geometry": {"type": "Polygon", "coordinates": [[[44.47473800000006, -12.211508999999978], [44.468806000000086, -12.218138999999894], [44.46387500000009, -12.223607999999956], [44.45853400000016, -12.229513999999938], [44.45600500000012, -12.23151299999995], [44.45192700000007, -12.232368999999835], [44.45016700000008, -12.231079999999963], [44.4445080000001, -12.22810299999992], [44.442004000000054, -12.226614999999981], [44.43950000000018, -12.225225999999907], [44.43783400000018, -12.223739999999964], [44.43524200000013, -12.221657999999934], [44.433302000000026, -12.219477999999924], [44.43174100000016, -12.216309999999908], [44.43316000000016, -12.213244999999972], [44.435804000000076, -12.208104999999932], [44.445807000000116, -12.20106299999992], [44.447607000000005, -12.200492999999938], [44.45257400000014, -12.196589999999958], [44.45759100000009, -12.189766999999847], [44.458466000000044, -12.188871999999947], [44.46110000000016, -12.184868999999935], [44.464909000000034, -12.17962799999998], [44.47376100000008, -12.172391999999945], [44.477150000000165, -12.175735999999915], [44.47938500000015, -12.17717099999993], [44.48452800000007, -12.181249999999977], [44.49047200000018, -12.187332999999967], [44.49268600000005, -12.188163999999972], [44.49230600000004, -12.191120999999953], [44.48815300000018, -12.19426199999998], [44.486503000000084, -12.198934999999892], [44.481173000000126, -12.203218999999876], [44.47476500000016, -12.207787999999937], [44.47473800000006, -12.211508999999978]]]}}]}