{"type": "FeatureCollection", "features": [{"type": "Feature", "properties": {"country": "Comoros", "pcode": "KM242", "name": "Itsahidi", "island": "Grande Comore (Ngazidja)"}, "geometry": {"type": "Polygon", "coordinates": [[[43.455504000000076, -11.937472999999954], [43.45534100000009, -11.9373369999999], [43.45513300000016, -11.937223999999958], [43.45484200000004, -11.93709999999993], [43.45450600000015, -11.936873999999875], [43.45435500000008, -11.936771999999962], [43.454332000000136, -11.936602999999934], [43.45403000000016, -11.936398999999938], [43.45382100000012, -11.936297999999908], [43.45381099999997, -11.93574399999983], [43.453625000000045, -11.935562999999945], [43.453416000000175, -11.935562999999945], [43.45334600000007, -11.93593599999997], [43.45317100000017, -11.936003999999912], [43.45318400000019, -11.93573299999997], [43.4528590000001, -11.935325999999975], [43.45254500000004, -11.935574999999972], [43.45232400000009, -11.935551999999916], [43.45238300000017, -11.93505499999992], [43.452314000000115, -11.934929999999895], [43.45206900000011, -11.93509999999992], [43.451919000000146, -11.93496499999992], [43.45150100000018, -11.934591999999896], [43.45126899999997, -11.93442199999987], [43.4510600000001, -11.934240999999815], [43.450992000000156, -11.93374399999982], [43.45072500000009, -11.933652999999936], [43.45038800000009, -11.933653999999933], [43.45037700000006, -11.933359999999936], [43.450040000000115, -11.933359999999936], [43.450040000000115, -11.93302099999994], [43.44957600000009, -11.93302099999994], [43.44917000000004, -11.932624999999973], [43.44890200000009, -11.932647999999972], [43.44876400000004, -11.932331999999974], [43.44858900000014, -11.932331999999974], [43.44839100000007, -11.932546999999886], [43.44821700000006, -11.932591999999886], [43.44817100000017, -11.932512999999915], [43.448322000000076, -11.932150999999976], [43.44832300000013, -11.932003999999893], [43.448172000000056, -11.931879999999865], [43.447881000000166, -11.93209499999989], [43.44769500000007, -11.93209499999989], [43.44762500000013, -11.932037999999977], [43.447730999999976, -11.931483999999955], [43.44751100000008, -11.931336999999871], [43.44736000000006, -11.931359999999927], [43.44724300000013, -11.931766999999923], [43.44714899999997, -11.931879999999865], [43.44694099999998, -11.931699999999978], [43.446906000000126, -11.931382999999869], [43.44659300000018, -11.931224999999927], [43.44632600000011, -11.931088999999872], [43.44607000000008, -11.931032999999957], [43.445640000000026, -11.931270999999924], [43.44547700000004, -11.931236999999953], [43.44566400000002, -11.930851999999959], [43.44553700000017, -11.930614999999932], [43.44506000000018, -11.930591999999876], [43.44479300000012, -11.930535999999961], [43.44475900000015, -11.930298999999877], [43.444597000000044, -11.930139999999938], [43.444411000000116, -11.929981999999939], [43.444272000000126, -11.92982399999994], [43.444156000000135, -11.929574999999943], [43.44404000000014, -11.929405999999972], [43.44386600000013, -11.929405999999972], [43.443668000000116, -11.929473999999914], [43.44348300000007, -11.929405999999972], [43.443634000000145, -11.929224999999917], [43.443634000000145, -11.929145999999946], [43.44322800000009, -11.928874999999834], [43.44310100000007, -11.92869399999995], [43.44281100000006, -11.928478999999925], [43.44256700000011, -11.928241999999955], [43.44233500000013, -11.928049999999871], [43.44181300000008, -11.927868999999816], [43.44162700000015, -11.927642999999932], [43.441430000000025, -11.927518999999904], [43.441221000000155, -11.927484999999933], [43.441035, -11.927654999999959], [43.440698, -11.927597999999932], [43.44091900000018, -11.927281999999934], [43.440466000000185, -11.927383999999904], [43.440373000000136, -11.927349999999933], [43.4408150000001, -11.926874999999882], [43.44080400000007, -11.926738999999941], [43.44058400000017, -11.926580999999828], [43.44035200000019, -11.926365999999973], [43.440178000000174, -11.926252999999974], [43.43995700000016, -11.926116999999977], [43.439585000000136, -11.926094999999918], [43.43921400000016, -11.925947999999948], [43.43886500000008, -11.92598199999992], [43.438598000000184, -11.92583599999989], [43.440694000000065, -11.920027999999945], [43.44588900000019, -11.909721999999874], [43.445083000000125, -11.90522199999998], [43.44241600000004, -11.898203999999964], [43.45097200000009, -11.897971999999982], [43.46252800000002, -11.908166999999935], [43.47500000000008, -11.912166999999954], [43.48458300000004, -11.902360999999928], [43.48511100000019, -11.90074999999996], [43.49122200000011, -11.895999999999958], [43.49219400000004, -11.888693999999873], [43.49507100000005, -11.883241999999939], [43.49252800000016, -11.878721999999982], [43.47558300000003, -11.864527999999837], [43.45814000000007, -11.852393999999947], [43.43597200000016, -11.810082999999963], [43.45122200000003, -11.80699999999996], [43.461186000000055, -11.801314999999875], [43.461697000000015, -11.801450999999929], [43.461720000000184, -11.801552999999956], [43.46119700000003, -11.801563999999871], [43.46112700000015, -11.80167699999987], [43.461208000000056, -11.801789999999926], [43.46119600000014, -11.80203899999998], [43.46133400000019, -11.802411999999947], [43.461485000000096, -11.802841999999828], [43.46156500000012, -11.803474999999878], [43.461970000000065, -11.804096999999842], [43.462306000000126, -11.80453799999998], [43.46261900000013, -11.804955999999947], [43.46280400000012, -11.805362999999943], [43.462896000000114, -11.80560099999991], [43.46296600000005, -11.805860999999936], [43.462975000000085, -11.80667499999987], [43.463161000000184, -11.806697999999926], [43.46311400000002, -11.807194999999922], [43.46283500000004, -11.80708199999998], [43.46282300000013, -11.80722999999989], [43.46299700000014, -11.807500999999945], [43.462799000000075, -11.807590999999832], [43.462590000000034, -11.807523999999887], [43.462265000000116, -11.80758099999997], [43.46226300000012, -11.808213999999964], [43.46237900000017, -11.808677999999873], [43.462657000000036, -11.808970999999872], [43.46333100000004, -11.80894799999993], [43.46348200000011, -11.809038999999927], [43.46336500000018, -11.809196999999926], [43.46336500000018, -11.809400999999923], [43.463666000000046, -11.809761999999978], [43.46343200000007, -11.810463999999968], [43.46340700000013, -11.811232999999902], [43.46361500000012, -11.811809999999923], [43.46383500000019, -11.812283999999977], [43.464066000000116, -11.812770999999884], [43.46435700000001, -11.81278199999997], [43.464368000000036, -11.81306399999994], [43.46462300000019, -11.813256999999965], [43.46479700000003, -11.813346999999908], [43.46517000000017, -11.81291699999997], [43.46533300000016, -11.812938999999915], [43.46536700000013, -11.813165999999967], [43.46568100000013, -11.813130999999828], [43.46579700000018, -11.813232999999911], [43.46536600000019, -11.813606999999934], [43.46521400000006, -11.814171999999871], [43.46540000000016, -11.814171999999871], [43.465399000000104, -11.814477999999895], [43.46586400000018, -11.814510999999982], [43.46586300000013, -11.814827999999977], [43.46607200000017, -11.81497499999989], [43.46604800000017, -11.815109999999947], [43.46571200000005, -11.814963999999975], [43.465571000000125, -11.81532599999997], [43.465918000000045, -11.816139999999905], [43.46648800000014, -11.816127999999821], [43.46651100000008, -11.816319999999962], [43.4663010000001, -11.816659999999956], [43.46641700000015, -11.816783999999927], [43.46701000000019, -11.816624999999817], [43.46713700000004, -11.816760999999872], [43.467113000000154, -11.817020999999897], [43.46693900000014, -11.817099999999925], [43.46676400000007, -11.817269999999894], [43.46669400000013, -11.817609999999945], [43.46720500000015, -11.817619999999977], [43.467099000000076, -11.818242999999939], [43.467191000000014, -11.818694999999934], [43.467051000000026, -11.818875999999818], [43.46703900000006, -11.819067999999959], [43.46716700000019, -11.819271999999899], [43.46709599999997, -11.819723999999894], [43.467363000000034, -11.81998399999992], [43.46714200000008, -11.820153999999945], [43.46714099999997, -11.820515999999884], [43.46725700000019, -11.820628999999883], [43.46741900000006, -11.820854999999938], [43.46740600000004, -11.821352999999931], [43.467790000000036, -11.821272999999906], [43.4674280000001, -11.821883999999898], [43.467950000000144, -11.822234999999921], [43.46753100000012, -11.822641999999917], [43.46739200000013, -11.822698999999943], [43.46704300000005, -11.822777999999971], [43.46703000000002, -11.823343999999906], [43.46755200000007, -11.823738999999932], [43.467528000000016, -11.823987999999929], [43.46791100000013, -11.824416999999869], [43.46812100000005, -11.824247999999955], [43.4683060000001, -11.82466599999998], [43.46892100000019, -11.824778999999978], [43.469201000000055, -11.824415999999871], [43.46951400000006, -11.824449999999956], [43.469922000000054, -11.824257999999872], [43.47020000000015, -11.824449999999956], [43.47083900000007, -11.824539999999956], [43.47104800000011, -11.824550999999872], [43.471047000000056, -11.825014999999894], [43.47115200000002, -11.825081999999952], [43.471315000000004, -11.824934999999925], [43.471315000000004, -11.824663999999814], [43.47150100000016, -11.82452799999993], [43.47150100000016, -11.824730999999929], [43.47189600000013, -11.8247199999999], [43.472186000000136, -11.825069999999926], [43.47209200000003, -11.825646999999947], [43.47228900000016, -11.825725999999918], [43.47280100000006, -11.825544999999977], [43.473055999999985, -11.825544999999977], [43.47321899999997, -11.825713999999891], [43.473195000000146, -11.825928999999917], [43.47263600000008, -11.826313999999911], [43.47263600000008, -11.826528999999937], [43.47290200000003, -11.826946999999961], [43.47309899999999, -11.827161999999817], [43.47332000000017, -11.827217999999903], [43.47394700000018, -11.827262999999903], [43.473911000000044, -11.827828999999952], [43.47406200000012, -11.828110999999979], [43.47414300000008, -11.828257999999892], [43.47423500000002, -11.828393999999946], [43.47434000000004, -11.828472999999917], [43.474468000000115, -11.828540999999973], [43.47496700000005, -11.828720999999916], [43.475257000000056, -11.828811999999914], [43.47548900000004, -11.828935999999942], [43.475652000000025, -11.829048999999884], [43.47565100000014, -11.829399999999964], [43.475895000000094, -11.829579999999964], [43.47589400000015, -11.82989699999996], [43.476067000000114, -11.830224999999928], [43.47590500000018, -11.830360999999982], [43.47589199999999, -11.830552999999895], [43.47626400000007, -11.830880999999863], [43.476508000000194, -11.830902999999978], [43.476751000000036, -11.83102699999995], [43.47655300000014, -11.831196999999975], [43.47646000000009, -11.831445999999971], [43.476134000000116, -11.83176299999991], [43.47612200000003, -11.831886999999881], [43.476273000000106, -11.832022999999936], [43.476179000000116, -11.832226999999932], [43.476306000000136, -11.832667999999842], [43.4763870000001, -11.832904999999926], [43.47661900000014, -11.833096999999896], [43.47724600000015, -11.83323299999995], [43.477467000000104, -11.83332299999995], [43.477687, -11.83352599999995], [43.477687, -11.833718999999917], [43.47748900000016, -11.834034999999972], [43.477546000000075, -11.834170999999856], [43.47787300000016, -11.833763999999917], [43.47819700000014, -11.834102999999914], [43.477766000000145, -11.83458899999988], [43.477987000000155, -11.834814999999935], [43.478196000000025, -11.834814999999935], [43.47827700000016, -11.834916999999848], [43.47814900000003, -11.83514299999996], [43.47828800000019, -11.835391999999956], [43.47861300000005, -11.835436999999956], [43.47863600000005, -11.835515999999927], [43.478345000000104, -11.835708999999895], [43.47828700000008, -11.83583299999998], [43.47830900000014, -11.836319999999944], [43.47837800000019, -11.836443999999972], [43.478076000000044, -11.836703999999827], [43.47807500000016, -11.836794999999881], [43.47836600000005, -11.83665899999994], [43.478540000000066, -11.836884999999882], [43.478237000000036, -11.837144999999964], [43.478248000000065, -11.837359999999933], [43.47844600000013, -11.837223999999935], [43.47870200000017, -11.837257999999906], [43.478737000000194, -11.837359999999933], [43.47863200000006, -11.837472999999932], [43.47864300000009, -11.83760899999993], [43.478817000000106, -11.837585999999874], [43.478817000000106, -11.83767599999993], [43.47870100000006, -11.837856999999929], [43.47879300000005, -11.838105999999982], [43.47910700000011, -11.838105999999982], [43.479328000000066, -11.837969999999927], [43.47951300000011, -11.838229999999953], [43.47919900000005, -11.83851299999992], [43.47922199999999, -11.838648999999975], [43.47958100000005, -11.838964999999916], [43.479849, -11.83895399999983], [43.47986000000003, -11.839077999999972], [43.480266000000086, -11.839495999999883], [43.48028900000003, -11.839699999999823], [43.48046300000004, -11.839755999999909], [43.48071800000014, -11.839891999999963], [43.48069400000014, -11.840377999999873], [43.48099600000006, -11.84058199999987], [43.48103000000003, -11.840716999999927], [43.481192000000135, -11.840908999999954], [43.48141300000009, -11.841055999999924], [43.481412000000034, -11.841338999999891], [43.481749000000036, -11.84136099999995], [43.4820160000001, -11.841643999999974], [43.48209700000007, -11.841880999999887], [43.482387000000074, -11.842095999999913], [43.48238600000013, -11.842321999999967], [43.48282700000004, -11.842660999999964], [43.48282700000004, -11.842807999999934], [43.48272200000008, -11.842875999999876], [43.48272200000008, -11.843113999999957], [43.482884000000126, -11.843282999999872], [43.483325000000036, -11.843440999999927], [43.48341700000003, -11.84381499999995], [43.48356800000005, -11.843960999999865], [43.483788000000175, -11.84417599999989], [43.483904000000166, -11.844435999999973], [43.483997000000045, -11.844605999999942], [43.483960000000025, -11.84520499999985], [43.48378600000018, -11.845408999999961], [43.483866000000035, -11.845894999999928], [43.483866000000035, -11.846007999999927], [43.48358700000006, -11.846064999999953], [43.48355100000009, -11.846720999999945], [43.48374800000005, -11.846890999999971], [43.483747000000164, -11.847093999999913], [43.483515000000125, -11.84725299999991], [43.4835020000001, -11.847636999999906], [43.48333800000006, -11.848394999999925], [43.48340700000006, -11.848598999999922], [43.48362800000007, -11.84871199999992], [43.484046000000035, -11.848665999999866], [43.483743000000175, -11.849005999999918], [43.483731000000034, -11.849220999999943], [43.48356800000005, -11.849242999999888], [43.483567000000164, -11.84994499999982], [43.48400700000013, -11.850656999999956], [43.48400600000008, -11.851312999999948], [43.48450400000007, -11.851775999999973], [43.484655000000146, -11.851945999999828], [43.48480599999999, -11.852126999999882], [43.485095000000115, -11.852713999999935], [43.48526900000013, -11.852759999999932], [43.48557100000005, -11.853052999999932], [43.485570000000166, -11.853392999999926], [43.48574400000018, -11.853561999999954], [43.486196000000064, -11.854025999999976], [43.48631200000011, -11.854149999999947], [43.48639300000002, -11.854341999999917], [43.48658999999998, -11.85469299999994], [43.486798000000135, -11.855155999999965], [43.486924999999985, -11.855381999999906], [43.487064000000146, -11.855404999999962], [43.487239000000045, -11.855257999999935], [43.48797100000007, -11.855245999999909], [43.48809900000015, -11.855448999999965], [43.48837700000007, -11.855437999999936], [43.48856300000017, -11.855606999999964], [43.48858600000011, -11.855776999999819], [43.48901600000016, -11.855708999999877], [43.48912100000018, -11.855346999999938], [43.4894700000001, -11.85525599999994], [43.49002700000017, -11.855458999999883], [43.490631000000064, -11.855684999999937], [43.49091000000004, -11.855853999999965], [43.49100300000009, -11.855910999999878], [43.4912690000001, -11.856170999999904], [43.491953000000194, -11.856927999999925], [43.49196300000011, -11.857594999999947], [43.492125000000044, -11.85804799999994], [43.49213600000007, -11.858363999999881], [43.49233300000003, -11.85853399999985], [43.492390000000114, -11.859053999999958], [43.49246000000005, -11.859098999999958], [43.49332100000004, -11.858555999999965], [43.49354200000005, -11.85865699999988], [43.49387800000011, -11.858849999999961], [43.494052000000124, -11.85900799999996], [43.49407400000018, -11.859719999999925], [43.49413199999998, -11.859776999999951], [43.49413199999998, -11.85988999999995], [43.4937470000001, -11.860364999999888], [43.49358400000011, -11.86048999999997], [43.49336400000004, -11.860070999999834], [43.49323600000014, -11.860184999999944], [43.49340800000016, -11.861292999999932], [43.49344100000019, -11.862174999999922], [43.49380100000013, -11.862434999999948], [43.494265000000155, -11.862637999999947], [43.49445100000008, -11.862773999999945], [43.49455500000016, -11.862954999999886], [43.49476400000009, -11.863134999999943], [43.495007999999984, -11.863247999999885], [43.49520500000011, -11.86323699999997], [43.49542600000012, -11.86306699999983], [43.495879000000116, -11.863326999999913], [43.49637800000005, -11.86365499999988], [43.49661000000003, -11.86394799999988], [43.49665500000003, -11.864389999999958], [43.49652600000019, -11.864977999999951], [43.49657200000007, -11.865271999999948], [43.49656000000016, -11.865554999999972], [43.49617500000011, -11.866063999999824], [43.49657900000011, -11.867171999999925], [43.49664900000005, -11.867329999999924], [43.496858000000145, -11.867239999999981], [43.49700899999999, -11.867295999999953], [43.496869000000174, -11.86744299999998], [43.49670700000007, -11.867521999999951], [43.49669400000005, -11.867736999999977], [43.49703100000005, -11.868075999999917], [43.49765900000017, -11.867736999999977], [43.497821000000044, -11.867883999999947], [43.49823900000018, -11.867950999999891], [43.49823900000018, -11.868210999999917], [43.497948000000065, -11.868369999999913], [43.497982000000036, -11.868640999999968], [43.498121000000026, -11.868889999999965], [43.498121000000026, -11.869059999999934], [43.49773700000003, -11.869376999999929], [43.497712999999976, -11.869443999999874], [43.49779400000011, -11.86964799999987], [43.497817000000055, -11.869862999999896], [43.49797900000016, -11.87000999999998], [43.497874000000195, -11.870280999999864], [43.49802500000004, -11.870518999999945], [43.49804799999998, -11.870744999999886], [43.497907000000055, -11.871196999999881], [43.49826700000017, -11.871309999999937], [43.49849900000004, -11.871388999999965], [43.4987900000001, -11.871546999999964], [43.499185000000125, -11.871422999999936], [43.499184000000184, -11.871682999999962], [43.49938200000008, -11.871783999999877], [43.49963800000012, -11.87145599999991], [43.50004500000006, -11.87145599999991], [43.50002200000006, -11.871025999999972], [43.500592000000154, -11.871013999999946], [43.50074100000006, -11.87169299999988], [43.50096300000013, -11.871228999999971], [43.501161000000025, -11.871194999999886], [43.501183000000026, -11.871771999999964], [43.501276000000075, -11.871793999999909], [43.50184500000012, -11.871669999999938], [43.501949000000025, -11.872098999999935], [43.502042000000074, -11.872279999999876], [43.502658000000054, -11.87190599999991], [43.50272800000016, -11.871985999999879], [43.50253000000009, -11.872347999999931], [43.50252900000004, -11.872494999999901], [43.50264500000003, -11.872573999999872], [43.50301700000011, -11.87247199999996], [43.50307500000008, -11.872584999999958], [43.50280700000013, -11.872810999999956], [43.5027960000001, -11.872923999999955], [43.50291100000004, -11.873070999999982], [43.50317900000016, -11.873161999999923], [43.50393300000019, -11.87331899999998], [43.504665000000045, -11.873442999999895], [43.505153000000064, -11.87356699999998], [43.505374000000074, -11.87361199999998], [43.50600100000008, -11.873871999999892], [43.506337000000144, -11.87404099999992], [43.50669700000009, -11.874278999999888], [43.50715000000008, -11.874526999999887], [43.50756800000005, -11.874695999999858], [43.50811400000009, -11.874820999999883], [43.50819500000006, -11.874876999999913], [43.508101000000124, -11.875068999999883], [43.507880000000114, -11.875385999999935], [43.50783300000012, -11.875532999999905], [43.507832000000064, -11.876098999999954], [43.507727000000045, -11.876290999999924], [43.50771500000013, -11.876471999999978], [43.50790000000018, -11.876844999999946], [43.507957999999974, -11.876889999999946], [43.50845800000013, -11.87668599999995], [43.50859800000018, -11.87668599999995], [43.509143000000165, -11.87691199999989], [43.509457000000054, -11.877103999999974], [43.50972400000012, -11.877216999999973], [43.51003700000007, -11.877386999999942], [43.510234000000025, -11.877532999999914], [43.510234000000025, -11.877793999999938], [43.51046600000001, -11.878030999999908], [43.51044100000007, -11.878641999999957], [43.510290000000055, -11.878799999999956], [43.50971900000002, -11.879161999999894], [43.50994000000003, -11.879410999999891], [43.510009000000025, -11.87956899999989], [43.50999600000006, -11.88015799999988], [43.51026300000012, -11.880213999999967], [43.51035500000006, -11.880643999999961], [43.51048300000019, -11.880665999999962], [43.51091300000007, -11.880574999999908], [43.510947000000044, -11.881015999999818], [43.51049400000005, -11.881197999999927], [43.510293000000104, -11.882520999999883], [43.51065300000005, -11.882644999999968], [43.510932000000025, -11.882927999999936], [43.51094200000017, -11.883504999999957], [43.51105800000016, -11.883673999999928], [43.51095200000009, -11.884035999999924], [43.51099799999997, -11.884397999999976], [43.51077700000019, -11.884669999999971], [43.51066000000009, -11.884748999999942], [43.510451000000046, -11.884748999999942], [43.51031100000017, -11.88488499999994], [43.509928000000116, -11.88474999999994], [43.50976500000013, -11.88488499999994], [43.50967200000008, -11.885099999999966], [43.50969500000019, -11.885348999999962], [43.509752000000105, -11.8857339999999], [43.50979800000016, -11.885959999999955], [43.50996000000009, -11.886196999999925], [43.510111000000165, -11.886388999999951], [43.510319000000095, -11.886637999999948], [43.51045900000014, -11.886761999999976], [43.51056300000005, -11.886852999999974], [43.510667000000126, -11.88689799999986], [43.510853000000054, -11.886942999999917], [43.51100400000013, -11.887033999999915], [43.51101500000016, -11.887146999999857], [43.510910000000194, -11.887519999999881], [43.511037000000044, -11.887926999999934], [43.51104700000013, -11.888548999999955], [43.511511000000155, -11.889170999999976], [43.511777000000166, -11.889599999999973], [43.51205600000014, -11.88983799999994], [43.51263700000004, -11.889836999999943], [43.51286900000008, -11.88992799999994], [43.513020000000154, -11.88989399999997], [43.51339200000018, -11.889892999999972], [43.51383300000009, -11.890039999999942], [43.5140310000001, -11.890050999999971], [43.51429900000011, -11.889665999999977], [43.51442700000018, -11.88941699999998], [43.51453200000003, -11.889303999999981], [43.51493900000008, -11.889201999999955], [43.515183000000036, -11.889280999999926], [43.51525200000009, -11.889371999999923], [43.51539000000014, -11.890174999999942], [43.51582000000019, -11.890162999999916], [43.51627200000007, -11.890422999999942], [43.51671400000009, -11.890602999999885], [43.51671300000015, -11.89078399999994], [43.51678300000009, -11.890829999999937], [43.517039000000125, -11.89073899999994], [43.51734000000016, -11.891032999999936], [43.51742100000013, -11.891167999999936], [43.51746200000014, -11.893712999999934], [43.517357000000175, -11.89411999999993], [43.51718200000005, -11.894459999999981], [43.51697200000012, -11.894696999999894], [43.516553000000044, -11.894946999999945], [43.51629700000001, -11.895172999999943], [43.51611100000008, -11.895217999999943], [43.515844000000186, -11.895184999999856], [43.51555400000018, -11.894958999999972], [43.51539100000019, -11.895060999999885], [43.514750000000106, -11.89571699999982], [43.514226000000065, -11.896395999999868], [43.51394600000003, -11.896938999999918], [43.51373600000005, -11.89741399999997], [43.51364200000006, -11.897707999999966], [43.51354900000001, -11.898024999999905], [43.513490000000104, -11.898386999999957], [43.51357100000007, -11.898556999999869], [43.51398900000004, -11.898827999999924], [43.514186000000166, -11.898985999999923], [43.51411500000012, -11.899245999999948], [43.51398700000004, -11.899438999999916], [43.51385900000008, -11.899585999999942], [43.51356800000019, -11.899687999999912], [43.513266000000044, -11.899789999999939], [43.51289400000019, -11.899710999999968], [43.512650000000065, -11.899676999999826], [43.51232500000003, -11.899812999999881], [43.51174400000008, -11.899835999999937], [43.51168500000017, -11.899926999999877], [43.511418000000106, -11.899926999999877], [43.51122100000015, -11.899756999999966], [43.51108199999999, -11.899621999999965], [43.51087300000012, -11.899553999999966], [43.510443000000066, -11.899542999999937], [43.510129000000006, -11.899678999999878], [43.509221000000025, -11.900233999999898], [43.50838300000015, -11.900822999999946], [43.50788300000016, -11.901127999999972], [43.50787100000008, -11.90125299999994], [43.5079980000001, -11.901580999999965], [43.50797500000016, -11.901783999999964], [43.507742000000064, -11.901964999999961], [43.50749800000011, -11.901965999999959], [43.507335000000126, -11.901852999999903], [43.507115000000056, -11.901829999999961], [43.506603000000155, -11.902192999999897], [43.506102000000055, -11.902475999999865], [43.50584600000002, -11.902622999999949], [43.505463000000134, -11.902826999999945], [43.50499700000012, -11.903188999999884], [43.504578000000095, -11.903629999999964], [43.50457700000004, -11.90374399999996], [43.504612000000066, -11.903890999999874], [43.50478600000008, -11.904048999999873], [43.505088, -11.904240999999956], [43.50516900000014, -11.904398999999898], [43.50514500000014, -11.904602999999895], [43.50501700000018, -11.904794999999979], [43.504679000000124, -11.905043999999975], [43.50431900000018, -11.905247999999972], [43.50390000000016, -11.90560999999991], [43.50367800000009, -11.905926999999963], [43.50350300000014, -11.906299999999874], [43.50338600000009, -11.906582999999955], [43.50325800000013, -11.906831999999952], [43.50317600000011, -11.90694499999995], [43.502991000000065, -11.906831999999952], [43.50293200000016, -11.906831999999952], [43.50289700000013, -11.90730699999989], [43.502826000000084, -11.907487999999944], [43.50253600000008, -11.907522999999912], [43.502338000000066, -11.907748999999967], [43.50207000000006, -11.907816999999909], [43.50183800000008, -11.90785099999988], [43.5015360000001, -11.907794999999965], [43.50132700000006, -11.907670999999823], [43.501153000000045, -11.907500999999968], [43.50094500000006, -11.907240999999942], [43.50086300000004, -11.907206999999971], [43.50053800000012, -11.907387999999855], [43.500316000000055, -11.90752399999991], [43.499805000000094, -11.90751299999988], [43.49925800000011, -11.907807999999875], [43.49911900000018, -11.90784199999996], [43.49892100000011, -11.9080229999999], [43.49873500000018, -11.908260999999982], [43.498665000000074, -11.90841899999998], [43.49810700000006, -11.908452999999952], [43.497896000000026, -11.908939999999916], [43.4976630000001, -11.909572999999966], [43.49765100000019, -11.909821999999963], [43.49762600000008, -11.9102749999999], [43.49771900000013, -11.910602999999924], [43.49781100000013, -11.910929999999894], [43.49792600000001, -11.911314999999945], [43.49795999999998, -11.911721999999884], [43.498076000000026, -11.91183499999994], [43.49830800000018, -11.912004999999965], [43.49865600000004, -11.912207999999964], [43.49877300000014, -11.912229999999909], [43.49876200000011, -11.911913999999967], [43.49874999999997, -11.911709999999971], [43.49885500000016, -11.911607999999944], [43.499170000000106, -11.91131399999989], [43.499274000000185, -11.911256999999978], [43.49951800000014, -11.911222999999893], [43.49976200000009, -11.91127999999992], [43.49993600000005, -11.911369999999977], [43.50018000000017, -11.911505999999974], [43.500354000000186, -11.911663999999973], [43.500493000000176, -11.911866999999972], [43.500667000000135, -11.912138999999911], [43.50077100000004, -11.912352999999882], [43.50091000000003, -11.912511999999879], [43.50110700000016, -11.912669999999821], [43.50129300000009, -11.912793999999963], [43.50162899999998, -11.91308799999996], [43.501105000000166, -11.91370999999998], [43.501232000000186, -11.914331999999945], [43.50119600000005, -11.91464899999994], [43.501205000000084, -11.915870999999981], [43.50096000000008, -11.916153999999949], [43.50078600000006, -11.916345999999862], [43.5006810000001, -11.916515999999888], [43.500541000000055, -11.91686599999997], [43.50015300000007, -11.918969999999888], [43.49979200000007, -11.919320999999968], [43.499535000000094, -11.919603999999936], [43.499476000000186, -11.920157999999958], [43.49924300000009, -11.920316999999955], [43.49910300000005, -11.920723999999893], [43.49895200000003, -11.920904999999948], [43.49860300000012, -11.921063999999944], [43.49859000000009, -11.921391999999912], [43.49836900000008, -11.921832999999822], [43.49827400000004, -11.922613999999953], [43.49813399999999, -11.922884999999894], [43.49790100000007, -11.923359999999946], [43.49783000000008, -11.923721999999884], [43.49756200000013, -11.924004999999852], [43.49723600000016, -11.924547999999902], [43.497119000000055, -11.9246839999999], [43.49678200000005, -11.92483199999998], [43.49649100000016, -11.92494499999998], [43.49647900000019, -11.925193999999976], [43.496282000000065, -11.925091999999893], [43.496107000000165, -11.925227999999947], [43.49578200000008, -11.925238999999976], [43.495584000000065, -11.925420999999972], [43.49552600000004, -11.925329999999974], [43.49532800000003, -11.925341999999887], [43.49513000000013, -11.925556999999912], [43.49477000000019, -11.925556999999912], [43.49468900000005, -11.925364999999942], [43.494399000000044, -11.925059999999917], [43.49422500000003, -11.925307999999916], [43.49405000000013, -11.925296999999887], [43.49395700000008, -11.925421999999855], [43.49345700000009, -11.925636999999881], [43.49323700000019, -11.925297999999884], [43.49308600000012, -11.925263999999913], [43.492738000000145, -11.924992999999972], [43.492203000000075, -11.924992999999972], [43.492052, -11.925151999999969], [43.491900000000044, -11.925343999999882], [43.49188800000013, -11.925592999999878], [43.491841000000136, -11.925773999999933], [43.49159700000001, -11.925965999999903], [43.491422000000114, -11.926124999999956], [43.49105100000014, -11.926124999999956], [43.49091000000004, -11.92641899999984], [43.49081700000016, -11.92641899999984], [43.49064300000015, -11.92640799999998], [43.490585000000124, -11.926328999999953], [43.49064400000003, -11.926158999999927], [43.49064400000003, -11.9259219999999], [43.490575000000035, -11.925853999999958], [43.490447000000074, -11.925808999999902], [43.49033100000008, -11.92588799999993], [43.49011000000013, -11.9259219999999], [43.48988900000012, -11.925944999999956], [43.48977300000013, -11.925933999999927], [43.489645000000166, -11.925876999999844], [43.4893780000001, -11.925628999999844], [43.489077000000066, -11.925436999999931], [43.48861100000005, -11.925572999999929], [43.488472000000115, -11.925504999999873], [43.48822800000016, -11.925380999999902], [43.48800800000009, -11.925142999999935], [43.48792700000013, -11.924950999999965], [43.487777000000165, -11.924792999999966], [43.48745100000019, -11.924894999999935], [43.48725300000012, -11.925154999999961], [43.487287000000094, -11.925573999999926], [43.48718200000013, -11.925765999999896], [43.48697200000015, -11.925991999999951], [43.48665800000015, -11.926139999999918], [43.48657700000018, -11.926241999999945], [43.486413000000084, -11.92680699999994], [43.48641200000003, -11.927055999999936], [43.48643500000014, -11.927338999999904], [43.486481000000026, -11.92749699999996], [43.486585000000105, -11.927609999999959], [43.486690000000124, -11.927699999999959], [43.48694500000005, -11.927699999999959], [43.487247000000025, -11.92773399999993], [43.48739800000004, -11.927789999999959], [43.48788600000012, -11.928083999999842], [43.488303000000144, -11.928388999999925], [43.48846600000013, -11.928513999999893], [43.488535000000184, -11.92869399999995], [43.48862800000006, -11.928942999999947], [43.488767000000166, -11.92908999999986], [43.488999000000035, -11.929213999999888], [43.489208000000076, -11.929258999999888], [43.48937000000018, -11.929304999999886], [43.48941700000012, -11.929383999999914], [43.48910200000017, -11.929711999999881], [43.48877600000003, -11.929960999999878], [43.488218000000074, -11.9304249999999], [43.488240000000076, -11.930763999999897], [43.488147000000026, -11.931046999999865], [43.487646000000154, -11.931307999999945], [43.48753000000016, -11.931544999999858], [43.487332000000094, -11.931793999999854], [43.4872160000001, -11.931646999999941], [43.48665800000015, -11.931658999999968], [43.48585500000013, -11.932100999999932], [43.485297000000116, -11.9323389999999], [43.48507600000016, -11.93237299999987], [43.484786000000156, -11.932361999999955], [43.484449000000154, -11.932248999999842], [43.484228000000144, -11.93214699999993], [43.48407700000007, -11.9321809999999], [43.48386800000003, -11.932169999999871], [43.483590000000106, -11.931966999999872], [43.48324100000019, -11.93186499999996], [43.48298600000004, -11.93177499999996], [43.48283500000019, -11.931842999999901], [43.4826020000001, -11.931899999999928], [43.482451000000026, -11.931786999999872], [43.48227700000018, -11.93171899999993], [43.481928000000096, -11.93192299999987], [43.48157900000018, -11.932171999999866], [43.48112500000008, -11.932522999999946], [43.48085700000013, -11.93270399999983], [43.48072900000017, -11.932929999999942], [43.480449000000135, -11.93329199999988], [43.48001800000014, -11.933778999999959], [43.47962200000006, -11.934174999999925], [43.479552000000126, -11.93438999999995], [43.4795860000001, -11.934774999999945], [43.479353, -11.93503499999997], [43.479283000000066, -11.93522699999994], [43.47927100000015, -11.935520999999937], [43.479061, -11.93587199999996], [43.47879300000005, -11.936086999999873], [43.478375000000085, -11.936301999999898], [43.477898000000096, -11.936505999999895], [43.47779300000008, -11.93644999999998], [43.47741000000019, -11.93643899999995], [43.477165000000184, -11.936743999999976], [43.47700200000003, -11.936744999999974], [43.47685200000001, -11.936585999999863], [43.47650300000009, -11.93658699999986], [43.47608500000018, -11.936326999999949], [43.47574800000018, -11.936756999999886], [43.475468999999975, -11.936632999999915], [43.47521300000011, -11.936666999999886], [43.47503800000004, -11.93684799999994], [43.475085000000036, -11.936960999999883], [43.47555000000011, -11.936971999999912], [43.47587500000003, -11.936846999999943], [43.47634000000011, -11.936857999999972], [43.476153000000124, -11.937106999999969], [43.47586300000012, -11.937310999999966], [43.47506100000015, -11.937322999999935], [43.47487400000017, -11.93749299999996], [43.47449000000017, -11.937797999999873], [43.47418800000008, -11.937944999999957], [43.47299000000004, -11.938217999999893], [43.47253600000016, -11.938783999999828], [43.472537000000045, -11.938534999999831], [43.4728980000001, -11.937945999999954], [43.473038000000145, -11.93766399999987], [43.473027000000116, -11.937561999999957], [43.472981000000004, -11.937414999999874], [43.47309700000005, -11.937255999999877], [43.47301600000009, -11.936995999999965], [43.47274900000019, -11.937199999999962], [43.47279400000019, -11.937550999999928], [43.47275900000011, -11.93766399999987], [43.472339000000034, -11.938376999999889], [43.47194400000018, -11.938534999999831], [43.4714790000001, -11.938376999999889], [43.47131700000017, -11.938376999999889], [43.470968000000084, -11.938535999999829], [43.47096700000003, -11.938829999999882], [43.471234000000095, -11.939032999999824], [43.471234000000095, -11.939168999999879], [43.47102500000017, -11.939168999999879], [43.470838000000185, -11.939395999999931], [43.47064100000006, -11.939338999999904], [43.47038500000019, -11.939440999999931], [43.47022199999998, -11.939395999999931], [43.469768999999985, -11.939248999999847], [43.46959499999997, -11.93927199999996], [43.46938700000004, -11.938887999999906], [43.46922300000011, -11.93927199999996], [43.46900200000016, -11.939328999999873], [43.468992000000185, -11.93898999999982], [43.46860800000002, -11.939102999999932], [43.46827100000007, -11.939046999999903], [43.46827100000007, -11.93893399999996], [43.46838800000012, -11.938786999999877], [43.46870200000018, -11.938684999999964], [43.46892300000019, -11.938514999999938], [43.46892300000019, -11.938412999999969], [43.468656000000124, -11.938310999999942], [43.468436, -11.938118999999972], [43.46828500000015, -11.937802999999917], [43.46809900000005, -11.937802999999917], [43.467681000000084, -11.937915999999973], [43.46726200000006, -11.93830099999991], [43.46714500000013, -11.938707999999849], [43.467005000000086, -11.938730999999962], [43.46693600000009, -11.938617999999963], [43.46683100000007, -11.938606999999934], [43.46623700000015, -11.939172999999926], [43.465970000000084, -11.939172999999926], [43.46563300000008, -11.938946999999814], [43.46554000000003, -11.938946999999814], [43.46540000000016, -11.939240999999981], [43.465272000000084, -11.939274999999952], [43.465192, -11.939003999999898], [43.464913000000195, -11.939150999999981], [43.46471500000018, -11.939003999999898], [43.46440200000001, -11.93867599999993], [43.46412300000003, -11.938664999999844], [43.46408900000006, -11.938506999999902], [43.463636000000065, -11.93834899999996], [43.463461000000166, -11.938484999999957], [43.463113000000135, -11.938484999999957], [43.463009000000056, -11.938201999999876], [43.46270700000014, -11.938303999999903], [43.462463000000184, -11.93810099999996], [43.46233500000005, -11.938179999999932], [43.46235700000011, -11.938564999999926], [43.462067000000104, -11.938689999999951], [43.46193900000014, -11.938598999999954], [43.461928000000114, -11.938474999999926], [43.46195100000011, -11.93831599999993], [43.461626000000194, -11.93822599999993], [43.461347000000046, -11.938090999999929], [43.461185000000114, -11.937943999999959], [43.46112800000003, -11.937524999999937], [43.46093100000007, -11.93734399999994], [43.460663000000125, -11.937321999999938], [43.460640000000126, -11.937445999999966], [43.46039600000006, -11.937570999999934], [43.45996600000018, -11.937559999999962], [43.45968600000009, -11.937774999999931], [43.45952399999999, -11.937774999999931], [43.45927900000015, -11.938136999999927], [43.458896000000095, -11.938137999999924], [43.45874400000014, -11.938261999999895], [43.45836100000008, -11.938126999999895], [43.458070000000134, -11.938273999999979], [43.45709400000004, -11.93814999999995], [43.4566870000001, -11.938240999999948], [43.45578200000017, -11.937958999999978], [43.455504000000076, -11.937472999999954]]]}}]}