{"type": "FeatureCollection", "features": [{"type": "Feature", "properties": {"country": "Comoros", "pcode": "KM241", "name": "Domba", "island": "Grande Comore (Ngazidja)"}, "geometry": {"type": "Polygon", "coordinates": [[[43.45596100000006, -11.76117899999997], [43.45561100000009, -11.761563999999964], [43.45561100000009, -11.761981999999819], [43.45531900000009, -11.762491999999895], [43.455411000000026, -11.762932999999975], [43.455642000000125, -11.763723999999968], [43.45551300000011, -11.764187999999933], [43.45550100000003, -11.764413999999874], [43.45536100000015, -11.764470999999958], [43.45532600000013, -11.764685999999926], [43.45557000000008, -11.76477599999987], [43.45554600000003, -11.765001999999924], [43.455325000000016, -11.765035999999895], [43.45521500000018, -11.767603999999949], [43.455296000000146, -11.768044999999915], [43.455411000000026, -11.768609999999967], [43.455642000000125, -11.769073999999875], [43.45589600000005, -11.76965099999984], [43.45602300000007, -11.76997799999998], [43.45612600000004, -11.770746999999915], [43.45638100000019, -11.771018999999967], [43.456625000000145, -11.771391999999935], [43.45672900000005, -11.771560999999963], [43.45690200000013, -11.771979999999871], [43.457062000000064, -11.773438999999826], [43.457314999999994, -11.774772999999982], [43.45724400000017, -11.77519199999989], [43.45737000000014, -11.77589299999994], [43.457241000000124, -11.776638999999932], [43.45685700000013, -11.776887999999929], [43.45681000000013, -11.776989999999898], [43.456961000000035, -11.777362999999866], [43.45657700000004, -11.77757899999989], [43.456483000000105, -11.777770999999973], [43.456808000000194, -11.777905999999916], [43.45642400000003, -11.77816699999994], [43.456423000000086, -11.778980999999874], [43.4562600000001, -11.779127999999957], [43.45631700000007, -11.779308999999955], [43.45602600000012, -11.779535999999894], [43.4559680000001, -11.779738999999893], [43.45595500000013, -11.780236999999886], [43.455688000000066, -11.78038399999997], [43.45581500000009, -11.780621999999937], [43.455698000000154, -11.78085899999985], [43.45554700000008, -11.780881999999963], [43.45537200000018, -11.781051999999931], [43.4552680000001, -11.781186999999875], [43.45507000000009, -11.781402999999898], [43.45452300000011, -11.781391999999869], [43.4543020000001, -11.78171999999995], [43.454290000000185, -11.78192299999995], [43.45409200000017, -11.782115999999917], [43.45406800000012, -11.782228999999973], [43.45419600000008, -11.782431999999972], [43.45420700000005, -11.782533999999885], [43.45389300000005, -11.782771999999966], [43.45390300000014, -11.783359999999902], [43.453682000000185, -11.783699999999897], [43.45341400000018, -11.783925999999951], [43.45313500000003, -11.783982999999978], [43.45272800000009, -11.784174999999948], [43.45230900000007, -11.784457999999916], [43.45212200000003, -11.784774999999854], [43.45206300000012, -11.785215999999934], [43.45207400000015, -11.7855669999999], [43.45224800000017, -11.785781999999926], [43.45258500000017, -11.785927999999956], [43.45332900000011, -11.785882999999956], [43.45379300000013, -11.785893999999871], [43.45397900000006, -11.78614199999987], [43.454327000000035, -11.786288999999954], [43.45462900000018, -11.78650399999998], [43.45491900000019, -11.786751999999979], [43.45516200000003, -11.78702399999986], [43.455440000000124, -11.78752099999997], [43.45568300000019, -11.787995999999907], [43.45589100000012, -11.788323999999932], [43.456029, -11.789035999999953], [43.455993000000035, -11.789567999999917], [43.455504000000076, -11.790008999999941], [43.45534100000009, -11.790201999999908], [43.455306000000064, -11.790359999999907], [43.45528200000001, -11.790540999999962], [43.455945000000156, -11.790528999999879], [43.45600300000018, -11.790585999999962], [43.45600200000007, -11.790777999999875], [43.45580500000011, -11.790834999999959], [43.455653000000154, -11.791060999999843], [43.45585000000011, -11.79118499999987], [43.45623400000011, -11.791218999999955], [43.456431000000066, -11.791342999999813], [43.45667500000019, -11.791647999999896], [43.45682500000015, -11.791998999999976], [43.45689399999998, -11.792416999999944], [43.45705600000008, -11.792654999999911], [43.45728700000018, -11.793004999999937], [43.457589000000155, -11.793422999999962], [43.45791400000019, -11.793456999999933], [43.45789000000019, -11.793615999999929], [43.45861100000013, -11.793648999999903], [43.458191, -11.794146999999896], [43.458493000000146, -11.794553999999948], [43.45836400000013, -11.79477999999989], [43.458596000000114, -11.794903999999917], [43.45855000000006, -11.795039999999972], [43.45880500000004, -11.79526599999997], [43.45861800000017, -11.795548999999937], [43.4591410000001, -11.795898999999906], [43.45915200000013, -11.795989999999904], [43.45890800000018, -11.796181999999874], [43.45927900000015, -11.79643099999987], [43.45926700000007, -11.796498999999926], [43.45915100000008, -11.7964869999999], [43.45905799999997, -11.796622999999954], [43.45919700000013, -11.796735999999896], [43.459429000000114, -11.796780999999896], [43.459557000000075, -11.79672499999998], [43.45972000000006, -11.79672499999998], [43.459964000000184, -11.796825999999953], [43.459870000000194, -11.79696199999995], [43.46011300000009, -11.797357999999917], [43.46021900000011, -11.797130999999979], [43.460486, -11.797130999999979], [43.46048500000012, -11.797322999999949], [43.46025300000008, -11.797436999999888], [43.46025300000008, -11.797537999999975], [43.460659000000135, -11.797684999999888], [43.46083300000015, -11.797854999999913], [43.46111200000013, -11.797831999999971], [43.46111100000002, -11.79800199999994], [43.46097100000003, -11.798250999999937], [43.460820000000126, -11.79823899999991], [43.46065700000014, -11.798431999999877], [43.46075000000019, -11.798498999999936], [43.46076100000005, -11.798657999999932], [43.46063300000009, -11.798815999999874], [43.460726000000136, -11.7989859999999], [43.46140000000014, -11.798917999999958], [43.461574000000155, -11.799086999999929], [43.4615730000001, -11.799301999999955], [43.461410000000114, -11.799539999999979], [43.461410000000114, -11.79966399999995], [43.46167700000018, -11.799889999999891], [43.461444000000085, -11.799912999999947], [43.461432000000116, -11.800115999999946], [43.461582000000135, -11.800636999999881], [43.46186100000011, -11.80070399999994], [43.46190700000017, -11.800805999999966], [43.46182600000003, -11.800873999999965], [43.461570000000165, -11.800749999999937], [43.46124500000013, -11.800749999999937], [43.461152000000084, -11.800828999999965], [43.461186000000055, -11.801314999999875], [43.45122200000003, -11.80699999999996], [43.43597200000016, -11.810082999999963], [43.41841299999999, -11.816185999999902], [43.376278000000184, -11.768946999999855], [43.37647500000014, -11.768471999999974], [43.376671000000044, -11.767995999999926], [43.376892, -11.767400999999836], [43.376966000000095, -11.767210999999918], [43.37716200000017, -11.766830999999911], [43.37745700000005, -11.766378999999915], [43.37767800000006, -11.765807999999936], [43.3777520000001, -11.765426999999931], [43.37780100000009, -11.765189999999961], [43.37814500000013, -11.764333999999906], [43.378318000000036, -11.763690999999824], [43.37831900000015, -11.76331099999993], [43.3782710000001, -11.762858999999821], [43.378247000000044, -11.762621999999908], [43.37810100000007, -11.762240999999847], [43.37780900000007, -11.761717999999917], [43.37761500000016, -11.761218999999926], [43.37737100000004, -11.760743999999875], [43.377104000000145, -11.76026799999994], [43.37661700000018, -11.759531999999979], [43.37605600000012, -11.759008999999935], [43.375519999999995, -11.758580999999879], [43.374933999999996, -11.75836699999985], [43.37400600000018, -11.758010999999954], [43.37332200000003, -11.757892999999967], [43.37261400000011, -11.757631999999944], [43.37195500000007, -11.7575369999999], [43.37154000000004, -11.757513999999958], [43.370855000000006, -11.757679999999937], [43.37014600000015, -11.757941999999957], [43.369511000000045, -11.758203999999864], [43.36904500000003, -11.758655999999974], [43.368580000000065, -11.759131999999909], [43.368140000000096, -11.759322999999881], [43.367725000000064, -11.759203999999897], [43.367309999999975, -11.75898999999987], [43.3669440000001, -11.758656999999971], [43.36645700000014, -11.758110999999872], [43.36633500000016, -11.757848999999965], [43.366190000000074, -11.757159999999885], [43.36629000000016, -11.756469999999922], [43.366511000000116, -11.75570899999991], [43.36653800000005, -11.754805999999974], [43.400876000000096, -11.747229999999945], [43.40249200000005, -11.747299999999939], [43.40344600000009, -11.747299999999939], [43.404402000000175, -11.746941999999933], [43.40543000000014, -11.746797999999899], [43.4064580000001, -11.746940999999936], [43.40792700000014, -11.747153999999966], [43.40946900000017, -11.747224999999958], [43.410497000000134, -11.747295999999892], [43.41137800000007, -11.74750999999992], [43.41270000000003, -11.747508999999923], [43.41380200000003, -11.747150999999974], [43.41505200000012, -11.746720999999923], [43.416154000000176, -11.746505999999897], [43.417696000000035, -11.7465049999999], [43.41938600000003, -11.746289999999874], [43.42056100000008, -11.746074999999962], [43.42122200000006, -11.746073999999965], [43.42210200000005, -11.746573999999953], [43.423056000000145, -11.747073999999827], [43.42423100000019, -11.747072999999943], [43.4260680000001, -11.746857999999975], [43.42761100000007, -11.74657099999996], [43.428786000000116, -11.746569999999963], [43.42974100000009, -11.7462119999999], [43.430639000000156, -11.746055999999953], [43.431833000000154, -11.745221999999956], [43.4321690000001, -11.744566999999961], [43.43246300000004, -11.744065999999975], [43.43334600000014, -11.743493999999828], [43.43415500000009, -11.743207999999981], [43.43503600000014, -11.743349999999964], [43.43562300000002, -11.743349999999964], [43.436432000000025, -11.742991999999958], [43.43753500000014, -11.742204999999842], [43.438711000000126, -11.741775999999959], [43.43963900000017, -11.741916999999887], [43.4470280000001, -11.737832999999966], [43.45038900000003, -11.735638999999935], [43.45071700000017, -11.735564999999951], [43.450693000000115, -11.735790999999836], [43.45087800000016, -11.736333999999886], [43.45106299999998, -11.736831999999879], [43.45100400000007, -11.737102999999934], [43.451201000000026, -11.737498999999843], [43.45142100000015, -11.737894999999924], [43.45151300000009, -11.738086999999894], [43.45146600000015, -11.738210999999978], [43.451350000000105, -11.738448999999946], [43.45155800000009, -11.738787999999829], [43.45179000000013, -11.73902499999997], [43.45172000000019, -11.739398999999935], [43.45191600000004, -11.739963999999873], [43.45191600000004, -11.740099999999927], [43.45176400000008, -11.740370999999982], [43.45208900000017, -11.740460999999982], [43.452087000000176, -11.741331999999886], [43.452180000000055, -11.74155799999994], [43.45233000000019, -11.741818999999964], [43.452411000000154, -11.742089999999905], [43.45253700000012, -11.742756999999926], [43.452699000000166, -11.74337899999989], [43.45261600000009, -11.743966999999884], [43.45268500000009, -11.74453299999982], [43.45258900000016, -11.745640999999921], [43.452844000000084, -11.746047999999917], [43.45284300000003, -11.746364999999969], [43.45327300000008, -11.74668099999991], [43.45327199999997, -11.746884999999907], [43.45360900000014, -11.747121999999877], [43.45395700000017, -11.747381999999902], [43.45396800000003, -11.747777999999812], [43.454363, -11.747697999999957], [43.45472200000006, -11.74811699999998], [43.45472200000006, -11.74829799999992], [43.45502399999998, -11.748296999999923], [43.45524400000011, -11.74854599999992], [43.45499900000004, -11.748873999999887], [43.45516200000003, -11.74906599999997], [43.455034000000126, -11.749201999999968], [43.454951000000165, -11.749835999999902], [43.454765000000066, -11.750027999999816], [43.45475200000004, -11.750491999999838], [43.45460099999997, -11.75064999999995], [43.45463500000017, -11.750853999999947], [43.45440200000007, -11.751204999999857], [43.45449400000018, -11.751418999999885], [43.45433000000014, -11.751961999999878], [43.45400300000006, -11.753059999999948], [43.453850000000045, -11.753670999999883], [43.45375700000017, -11.754020999999966], [43.453592000000185, -11.755050999999924], [43.45343900000012, -11.755921999999941], [43.453412000000185, -11.757459999999924], [43.453585000000146, -11.75843199999997], [43.45369900000014, -11.759099999999933], [43.4542330000001, -11.759539999999902], [43.454384000000175, -11.759709999999927], [43.45458200000019, -11.759584999999902], [43.4546390000001, -11.759890999999982], [43.45520800000014, -11.75994699999984], [43.45541700000018, -11.760104999999953], [43.45559100000003, -11.760285999999894], [43.455590000000086, -11.760850999999946], [43.455740000000105, -11.761065999999971], [43.45596100000006, -11.76117899999997]]]}}]}