{"type": "FeatureCollection", "features": [{"type": "Feature", "properties": {"country": "Comoros", "pcode": "KM132", "name": "Bandrani Ya Mtsangani", "island": "Anjouan (Ndzouani)"}, "geometry": {"type": "Polygon", "coordinates": [[[44.344588000000044, -12.187984999999912], [44.34482800000018, -12.194403999999906], [44.33992100000006, -12.203398999999933], [44.33953300000013, -12.205673999999874], [44.339232000000095, -12.208640999999886], [44.33482200000009, -12.21328399999993], [44.322431000000165, -12.214054999999917], [44.31704200000013, -12.212364999999977], [44.31139100000007, -12.20829899999984], [44.30990500000007, -12.20770299999998], [44.297491000000036, -12.198679999999854], [44.29723500000017, -12.195102999999904], [44.29833600000012, -12.194710999999927], [44.29871000000014, -12.194665999999927], [44.29945700000013, -12.194678999999837], [44.29962100000006, -12.194724999999892], [44.299970000000144, -12.19484999999986], [44.30033200000008, -12.195041999999944], [44.30062200000009, -12.19529099999994], [44.30094800000006, -12.195459999999969], [44.30122800000015, -12.195607999999936], [44.301449000000105, -12.195686999999907], [44.302278000000115, -12.195834999999931], [44.302816000000064, -12.195666999999958], [44.30342400000012, -12.195634999999982], [44.303470000000175, -12.195690999999897], [44.30384100000015, -12.196266999999864], [44.304201999999975, -12.19648199999989], [44.30603200000007, -12.197240999999963], [44.306895000000054, -12.197468999999842], [44.30807700000014, -12.197188999999923], [44.30866300000014, -12.196829999999977], [44.30943800000017, -12.19610999999992], [44.31002400000011, -12.195670999999948], [44.310306000000026, -12.195344999999975], [44.31030700000008, -12.195231999999919], [44.31004200000001, -12.194633999999951], [44.31002100000006, -12.194238999999925], [44.310022000000174, -12.193922999999813], [44.310235000000034, -12.193449999999928], [44.310275000000104, -12.192671999999959], [44.31062500000013, -12.192672999999957], [44.31071900000006, -12.1925599999999], [44.31087100000008, -12.192571999999927], [44.310929000000044, -12.192627999999957], [44.31112800000017, -12.192583999999954], [44.31125700000018, -12.192560999999898], [44.311408000000085, -12.192628999999954], [44.311653999999976, -12.19259599999998], [44.31181700000019, -12.19255099999998], [44.31207400000011, -12.192562999999893], [44.312760000000026, -12.193229999999915], [44.313422000000116, -12.193929999999966], [44.31373700000006, -12.193919999999935], [44.31450700000016, -12.194202999999959], [44.31485700000019, -12.194214999999815], [44.31555400000008, -12.194982999999922], [44.31581100000005, -12.194994999999949], [44.316361000000086, -12.194747999999947], [44.316947000000084, -12.194365999999945], [44.31694900000008, -12.194128999999975], [44.31679900000006, -12.193767999999864], [44.31699800000001, -12.193598999999892], [44.317163000000164, -12.19336299999992], [44.317156000000125, -12.192618999999922], [44.31742700000018, -12.192224999999894], [44.317249000000174, -12.190487999999903], [44.317018000000076, -12.190114999999935], [44.31701900000019, -12.189798999999937], [44.31761800000015, -12.189270999999906], [44.31766400000009, -12.189518999999905], [44.31783800000005, -12.18967699999996], [44.31822400000004, -12.189564999999902], [44.318422000000055, -12.1896109999999], [44.318501000000026, -12.19018599999987], [44.3187870000001, -12.191257999999948], [44.318956000000014, -12.192418999999973], [44.31910200000004, -12.193535999999938], [44.31928500000009, -12.19422399999985], [44.31943600000011, -12.194348999999875], [44.31965700000012, -12.194472999999846], [44.32025200000015, -12.194541999999956], [44.32032099999998, -12.194744999999955], [44.320496000000105, -12.194801999999981], [44.32091600000018, -12.194903999999951], [44.32143100000019, -12.194859999999892], [44.32192200000014, -12.194680999999889], [44.32235600000013, -12.194376999999974], [44.322811000000115, -12.194434999999885], [44.32363800000019, -12.194954999999936], [44.32424500000013, -12.195000999999934], [44.32465500000012, -12.194911999999931], [44.324843000000044, -12.194618999999932], [44.32634000000007, -12.194283999999925], [44.32665700000001, -12.194047999999952], [44.32694900000001, -12.194059999999865], [44.32706300000007, -12.194623999999976], [44.327436000000034, -12.194658999999945], [44.327940000000126, -12.194512999999972], [44.328340000000026, -12.193949999999916], [44.32867000000016, -12.193408999999917], [44.32910600000014, -12.192676999999833], [44.329214000000036, -12.192282999999918], [44.33011700000014, -12.191619999999944], [44.33030300000007, -12.191754999999944], [44.330536000000166, -12.19183499999997], [44.33086300000008, -12.191801999999825], [44.331907000000115, -12.191070999999909], [44.33292800000004, -12.19022699999988], [44.333445000000154, -12.189686999999878], [44.33344700000015, -12.189404999999908], [44.334048000000166, -12.188526999999908], [44.33445900000004, -12.188008999999965], [44.33482300000014, -12.187727999999879], [44.33501000000018, -12.187705999999935], [44.33574400000015, -12.18803399999996], [44.3365960000001, -12.188227999999981], [44.33836000000008, -12.188230999999917], [44.339108000000124, -12.188130999999942], [44.339366000000155, -12.187973999999883], [44.33965100000012, -12.18721899999997], [44.33971900000006, -12.187444999999911], [44.34059400000018, -12.187637999999879], [44.34065100000009, -12.187964999999963], [44.34178200000002, -12.188350999999898], [44.34252800000013, -12.18857799999995], [44.34354500000006, -12.188579999999945], [44.34410800000012, -12.188073999999915], [44.344308000000126, -12.187893999999858], [44.344588000000044, -12.187984999999912]]]}}]}