{"type": "FeatureCollection", "features": [{"type": "Feature", "properties": {"country": "Comoros", "pcode": "KM322", "name": "Moili Mdjini", "island": "Moh\u00e9li (Mwali)"}, "geometry": {"type": "Polygon", "coordinates": [[[43.80316200000004, -12.32177699999994], [43.79434800000013, -12.334290999999894], [43.785382000000084, -12.333974999999953], [43.78463199999999, -12.333724999999959], [43.779327000000194, -12.329502999999875], [43.763527000000124, -12.328825999999822], [43.74446000000006, -12.340593999999953], [43.74296200000015, -12.33953299999996], [43.74215200000009, -12.33800999999994], [43.74062800000013, -12.335609999999974], [43.739629000000036, -12.334915999999907], [43.7378690000001, -12.333940999999982], [43.73734500000006, -12.333247999999855], [43.73672500000009, -12.331358999999964], [43.73653300000001, -12.329516999999953], [43.73491600000017, -12.328542999999854], [43.73325100000011, -12.327338999999881], [43.73258500000003, -12.327197999999953], [43.73111100000011, -12.326546999999891], [43.72987400000011, -12.325850999999943], [43.728590000000054, -12.325476999999921], [43.72730700000017, -12.325654999999927], [43.726690000000076, -12.326020999999969], [43.72578700000014, -12.326291999999853], [43.7351470000001, -12.318458999999962], [43.74080600000008, -12.31304299999988], [43.748246000000165, -12.290262999999982], [43.75099600000016, -12.286640999999975], [43.75118100000003, -12.286756999999966], [43.751410000000135, -12.28702299999992], [43.751667000000054, -12.287200999999925], [43.75191000000012, -12.287455999999963], [43.75201700000008, -12.287643999999887], [43.752202000000125, -12.287842999999953], [43.75244400000008, -12.28811799999994], [43.75265900000011, -12.288370999999927], [43.752960000000144, -12.28867299999996], [43.75316400000014, -12.288899999999899], [43.75323300000014, -12.289050999999972], [43.75332100000014, -12.289436999999907], [43.7531360000001, -12.289679999999976], [43.75291300000015, -12.289923999999814], [43.752855000000125, -12.290054999999882], [43.75292300000007, -12.290346999999883], [43.753069000000096, -12.290488999999923], [43.75324500000005, -12.290836999999954], [43.75328400000012, -12.291043999999943], [43.75336900000019, -12.291201999999942], [43.75358500000016, -12.291148999999905], [43.753730000000076, -12.291313999999886], [43.753980000000126, -12.291662999999971], [43.75419700000015, -12.291790999999932], [43.75457600000004, -12.291792999999927], [43.75485800000013, -12.291568999999924], [43.75511, -12.291560999999888], [43.75525600000003, -12.291551999999967], [43.75551800000005, -12.291289999999947], [43.755615000000034, -12.291289999999947], [43.755761000000064, -12.291487999999902], [43.75616900000006, -12.29164999999989], [43.756198000000154, -12.291790999999932], [43.75602400000014, -12.29216699999995], [43.75609200000008, -12.29262799999998], [43.75620900000018, -12.29285399999992], [43.75672400000013, -12.2931099999999], [43.756986000000154, -12.29316799999998], [43.75704400000018, -12.293064999999899], [43.757228999999995, -12.29300899999987], [43.75750100000016, -12.29294399999992], [43.75764600000008, -12.292982999999936], [43.75788000000006, -12.293039999999962], [43.758006000000194, -12.29304099999996], [43.75818100000009, -12.29298499999993], [43.75830700000006, -12.292891999999881], [43.75845200000015, -12.292741999999919], [43.75861700000013, -12.292431999999849], [43.75869500000016, -12.292432999999903], [43.75875300000018, -12.292498999999964], [43.758821000000125, -12.292498999999964], [43.75893700000012, -12.292264999999873], [43.759044000000074, -12.292245999999977], [43.759112000000016, -12.292565999999908], [43.759355000000085, -12.292548999999951], [43.75958800000018, -12.292690999999934], [43.75978300000014, -12.29274799999996], [43.759967000000074, -12.292908999999952], [43.7601130000001, -12.292918999999927], [43.76024900000016, -12.292655999999909], [43.760326000000134, -12.292618999999945], [43.76039500000013, -12.292900999999915], [43.76056000000011, -12.29288299999996], [43.76060800000016, -12.29258299999998], [43.76080200000007, -12.292470999999978], [43.760889000000134, -12.292461999999944], [43.76108400000015, -12.292593999999838], [43.761055000000056, -12.292856999999913], [43.7611720000001, -12.292970999999966], [43.76138500000019, -12.29297199999985], [43.76157000000018, -12.292924999999968], [43.76173500000016, -12.292935999999884], [43.761978, -12.293039999999962], [43.76206500000012, -12.29317199999997], [43.762328000000025, -12.293182999999885], [43.76239600000014, -12.293154999999956], [43.76257000000015, -12.293127999999967], [43.76265800000016, -12.293183999999883], [43.76282300000014, -12.29321299999998], [43.7629300000001, -12.293156999999951], [43.762997000000155, -12.293034999999975], [43.76314300000013, -12.292875999999978], [43.76330800000011, -12.292688999999882], [43.76354100000003, -12.292539999999974], [43.7638510000001, -12.292427999999973], [43.764278000000104, -12.292316999999912], [43.76486100000017, -12.292216999999823], [43.76613300000008, -12.29208099999994], [43.76625900000005, -12.292156999999918], [43.76625900000005, -12.29220399999997], [43.76618200000007, -12.292335999999978], [43.76601700000009, -12.292484999999942], [43.766008000000056, -12.292700999999965], [43.766105000000096, -12.292814999999905], [43.76621200000005, -12.292814999999905], [43.766687000000104, -12.292572999999948], [43.76694000000009, -12.292940999999928], [43.76723100000015, -12.292969999999968], [43.76741800000019, -12.293111999999951], [43.767543000000046, -12.293262999999968], [43.767718000000116, -12.29347099999984], [43.767902000000106, -12.29358499999995], [43.768057999999996, -12.293594999999982], [43.76826100000011, -12.293454999999938], [43.768465000000106, -12.293172999999967], [43.768611000000135, -12.293051999999875], [43.76874700000019, -12.293042999999955], [43.768804999999986, -12.293108999999902], [43.76895000000013, -12.293217999999968], [43.769310000000075, -12.293223999999896], [43.76946500000008, -12.293102999999917], [43.76956200000012, -12.293102999999917], [43.76972800000016, -12.293357999999898], [43.76998000000009, -12.293462999999974], [43.770146000000125, -12.29373599999991], [43.77028200000018, -12.293830999999955], [43.77061200000014, -12.293765999999891], [43.770748000000026, -12.293757999999968], [43.77110800000014, -12.294191999999896], [43.77122400000013, -12.294304999999895], [43.77115700000013, -12.294539999999927], [43.77107000000018, -12.294717999999875], [43.77091400000006, -12.294773999999904], [43.7708760000001, -12.294848999999886], [43.77090500000003, -12.29492399999998], [43.771158000000185, -12.295122999999933], [43.77118700000011, -12.295301999999879], [43.771158000000185, -12.295432999999889], [43.77111900000017, -12.295517999999902], [43.77117800000008, -12.295639999999878], [43.77125500000005, -12.295668999999975], [43.77134300000006, -12.295659999999941], [43.7714400000001, -12.295603999999912], [43.77156600000018, -12.295641999999873], [43.771595000000104, -12.295697999999959], [43.77151800000013, -12.295829999999967], [43.771460000000104, -12.295932999999877], [43.77147900000011, -12.296064999999885], [43.771528000000046, -12.296111999999937], [43.77170300000017, -12.296140999999864], [43.77184800000009, -12.296084999999948], [43.77205200000009, -12.296113999999932], [43.772062000000005, -12.296273999999926], [43.77197500000011, -12.296508999999958], [43.77197500000011, -12.296752999999967], [43.77204300000005, -12.29683799999998], [43.772160000000156, -12.296904999999924], [43.77231500000016, -12.296923999999876], [43.772432000000094, -12.296989999999937], [43.77256800000015, -12.297122999999942], [43.77263600000009, -12.297272999999905], [43.77266600000007, -12.297517999999911], [43.772734000000185, -12.29759399999989], [43.77285100000012, -12.297744999999964], [43.77298700000017, -12.297801999999876], [43.77347200000014, -12.297822999999937], [43.77367700000008, -12.298114999999939], [43.77367700000008, -12.298312999999894], [43.77335700000003, -12.29900699999996], [43.77336700000018, -12.299344999999846], [43.77349400000003, -12.299787999999978], [43.77359100000007, -12.299919999999815], [43.773563000000024, -12.30017399999997], [43.77341700000005, -12.300370999999927], [43.77342699999997, -12.300548999999876], [43.773534000000154, -12.30064399999992], [43.77363200000008, -12.30092599999989], [43.77394300000003, -12.301576999999952], [43.77438100000006, -12.302555999999868], [43.77456600000011, -12.302876999999967], [43.774722, -12.303178999999886], [43.774800000000084, -12.303413999999975], [43.77500400000008, -12.303687999999909], [43.77515000000011, -12.30403599999994], [43.77543300000008, -12.30458299999998], [43.77565700000014, -12.304987999999923], [43.77585100000016, -12.305270999999891], [43.77603600000003, -12.305478999999934], [43.77625899999998, -12.305535999999961], [43.77640500000018, -12.305508999999972], [43.77658000000008, -12.30541599999998], [43.776813000000175, -12.305293999999947], [43.77700700000008, -12.305163999999934], [43.77715200000017, -12.305182999999886], [43.7772690000001, -12.305296999999882], [43.77745400000009, -12.30540099999996], [43.77766800000006, -12.305551999999977], [43.77780400000012, -12.30579699999987], [43.77787200000006, -12.305994999999939], [43.77794000000017, -12.306154999999933], [43.77821200000011, -12.30615599999993], [43.778347999999994, -12.306100999999899], [43.778513000000146, -12.305903999999941], [43.77868700000016, -12.305688999999916], [43.77894000000015, -12.305519999999888], [43.77902700000004, -12.305416999999977], [43.77906500000017, -12.305125999999973], [43.77925900000008, -12.304882999999847], [43.77938499999999, -12.304769999999905], [43.77954100000011, -12.304723999999908], [43.77968600000003, -12.304695999999922], [43.779841999999974, -12.30470699999995], [43.780007000000126, -12.304772999999898], [43.78013300000009, -12.304904999999962], [43.78021100000012, -12.305027999999936], [43.780318000000136, -12.305244999999957], [43.78048400000017, -12.305574999999976], [43.780795000000126, -12.305951999999934], [43.78104800000011, -12.306281999999953], [43.78118400000017, -12.30652699999996], [43.78131100000002, -12.306734999999946], [43.78166100000004, -12.307055999999875], [43.78205900000012, -12.307452999999953], [43.78230200000013, -12.307481999999936], [43.782565000000034, -12.307680999999889], [43.782924000000094, -12.307766999999899], [43.78349700000007, -12.308042999999827], [43.78387600000019, -12.308222999999884], [43.78411900000003, -12.308421999999837], [43.784469, -12.308648999999946], [43.7847900000001, -12.308847999999898], [43.785091000000136, -12.308942999999942], [43.78526600000009, -12.30888799999991], [43.7854210000001, -12.308793999999978], [43.78573200000005, -12.308776999999964], [43.785984000000155, -12.308711999999957], [43.78621700000008, -12.308628999999883], [43.7864110000001, -12.30850699999985], [43.78657600000008, -12.308357999999942], [43.78667300000012, -12.308235999999965], [43.78666300000003, -12.307859999999948], [43.78679900000009, -12.307483999999931], [43.78690500000016, -12.307465999999977], [43.787003000000084, -12.30753199999998], [43.78696400000007, -12.30781399999995], [43.787081000000114, -12.307823999999925], [43.787265000000104, -12.307711999999981], [43.78728400000006, -12.307438999999931], [43.78733300000005, -12.307410999999945], [43.78744900000004, -12.307420999999977], [43.787575000000174, -12.307496999999955], [43.78758500000009, -12.30775999999986], [43.78740100000016, -12.307871999999975], [43.78738199999998, -12.308088999999882], [43.78730400000012, -12.308247999999935], [43.78732400000018, -12.308398999999952], [43.7876260000001, -12.308832999999822], [43.78787799999998, -12.308852999999942], [43.78803300000004, -12.308711999999957], [43.78814000000017, -12.308721999999875], [43.78819900000008, -12.308872999999949], [43.78827600000005, -12.308872999999949], [43.78845100000018, -12.308694999999943], [43.78876200000013, -12.308705999999972], [43.788781000000085, -12.308856999999932], [43.7888430000001, -12.308829999999944], [43.788927000000115, -12.30874499999993], [43.78905300000008, -12.308735999999953], [43.78904400000005, -12.309195999999929], [43.789200000000164, -12.30941299999995], [43.78930600000001, -12.309441999999933], [43.78942300000011, -12.309385999999904], [43.789666000000125, -12.309292999999968], [43.78983000000005, -12.308917999999949], [43.79002400000013, -12.308918999999833], [43.79020900000012, -12.308749999999975], [43.790208000000064, -12.30845899999997], [43.79034400000012, -12.308430999999871], [43.790354000000036, -12.308167999999966], [43.79046100000005, -12.308186999999918], [43.7905090000001, -12.308384999999873], [43.79074200000019, -12.308432999999923], [43.790854000000195, -12.308570999999972], [43.79086900000004, -12.308705999999972], [43.790500000000065, -12.308713999999839], [43.790510000000154, -12.308901999999932], [43.79044200000004, -12.309174999999982], [43.79025800000011, -12.30953999999997], [43.79016200000018, -12.310075999999981], [43.79031800000007, -12.310283999999967], [43.790589000000125, -12.310303999999917], [43.79069600000008, -12.310378999999841], [43.79069700000019, -12.310576999999967], [43.790522000000124, -12.310725999999931], [43.79044500000015, -12.310923999999886], [43.79045400000018, -12.311082999999826], [43.79073600000004, -12.311309999999935], [43.790842999999995, -12.311319999999967], [43.79095000000018, -12.311085999999875], [43.79107600000009, -12.311057999999889], [43.79107600000009, -12.311217999999883], [43.791232000000036, -12.31134999999989], [43.79141599999997, -12.311369999999954], [43.79155200000008, -12.311050999999907], [43.79175600000008, -12.311013999999886], [43.79175600000008, -12.31122999999991], [43.79189200000013, -12.311249999999973], [43.79193100000015, -12.311174999999878], [43.79201900000015, -12.311151999999936], [43.79205700000011, -12.311391999999898], [43.79184400000008, -12.311559999999929], [43.79184400000008, -12.31163499999991], [43.79204800000008, -12.311635999999908], [43.79219300000017, -12.31150499999984], [43.79228100000017, -12.311514999999929], [43.79227100000003, -12.31167499999998], [43.79212600000011, -12.311786999999981], [43.79211600000019, -12.311908999999957], [43.79229100000009, -12.311909999999955], [43.79230100000001, -12.311853999999926], [43.79245600000007, -12.311834999999974], [43.792446000000155, -12.311938999999938], [43.79239800000005, -12.31205199999988], [43.79236900000018, -12.312238999999977], [43.792476000000136, -12.312267999999904], [43.79252500000007, -12.312371999999982], [43.792573000000175, -12.312418999999977], [43.792738000000156, -12.312315999999953], [43.79294200000015, -12.31231699999995], [43.79293300000012, -12.312589999999886], [43.793137000000115, -12.312618999999927], [43.79341800000009, -12.312459999999874], [43.79350600000009, -12.312554999999918], [43.79353500000019, -12.31269599999996], [43.793671000000074, -12.312677999999892], [43.79390400000017, -12.312528999999927], [43.79400099999998, -12.312500999999827], [43.794011000000125, -12.312782999999968], [43.79405000000014, -12.312820999999929], [43.79414700000018, -12.312670999999966], [43.79424400000005, -12.312529999999981], [43.79436000000004, -12.312454999999943], [43.79436000000004, -12.31260599999996], [43.794302000000016, -12.312811999999951], [43.79421500000012, -12.312980999999922], [43.79407900000007, -12.313102999999899], [43.793924000000004, -12.3132149999999], [43.793779000000086, -12.313373999999953], [43.793779000000086, -12.313430999999923], [43.793963000000076, -12.313506999999902], [43.79412800000006, -12.313553999999897], [43.79412900000011, -12.313864999999964], [43.79408100000006, -12.31411799999995], [43.79421700000012, -12.314842999999883], [43.79436400000003, -12.31515399999995], [43.79449000000017, -12.315332999999953], [43.79465500000009, -12.315361999999936], [43.79490800000008, -12.315438999999913], [43.79523800000004, -12.315486999999962], [43.79529700000012, -12.315957999999966], [43.79553000000004, -12.316193999999939], [43.795628000000136, -12.316353999999933], [43.79571500000009, -12.316560999999922], [43.79573500000015, -12.316720999999916], [43.79578400000008, -12.31715399999996], [43.79615300000006, -12.317380999999898], [43.796628999999996, -12.317655999999943], [43.796921, -12.317798999999866], [43.797115000000076, -12.317780999999968], [43.797212000000115, -12.317733999999973], [43.79745500000013, -12.317471999999896], [43.79744500000004, -12.31714299999993], [43.79756100000003, -12.317039999999963], [43.79760900000008, -12.317039999999963], [43.79768700000017, -12.317237999999975], [43.79767800000013, -12.317340999999885], [43.79758100000009, -12.317490999999961], [43.797649000000035, -12.317744999999945], [43.79780500000015, -12.317745999999943], [43.79795999999999, -12.317972999999938], [43.798358000000064, -12.318030999999962], [43.798549000000094, -12.318193999999949], [43.79867000000013, -12.3182579999999], [43.79884500000003, -12.318568999999968], [43.798874000000126, -12.318672999999876], [43.79895200000004, -12.318822999999952], [43.799000999999976, -12.318973999999912], [43.79913700000003, -12.319039999999973], [43.79923400000007, -12.319096999999886], [43.799748000000136, -12.318845999999894], [43.79992300000009, -12.31882799999994], [43.80000100000012, -12.318921999999873], [43.80002000000013, -12.318997999999965], [43.799894000000165, -12.319212999999877], [43.799778000000174, -12.319259999999872], [43.799632000000145, -12.319296999999892], [43.799487000000056, -12.319417999999871], [43.79939000000019, -12.319520999999952], [43.79940000000016, -12.319718999999907], [43.799662000000126, -12.320142999999916], [43.79982800000005, -12.320434999999918], [43.79987699999998, -12.320613999999978], [43.80016899999998, -12.320981999999958], [43.80049000000008, -12.321406999999965], [43.800742000000184, -12.321745999999962], [43.80080100000009, -12.32178399999998], [43.80114100000014, -12.32183299999997], [43.80126700000005, -12.321917999999869], [43.80137400000007, -12.32191899999998], [43.801471000000106, -12.32185299999992], [43.80152900000007, -12.32158099999998], [43.80182000000019, -12.321609999999964], [43.80188800000013, -12.321544999999901], [43.80187799999999, -12.32134699999989], [43.8019460000001, -12.321215999999879], [43.802247000000136, -12.321207999999842], [43.80245100000019, -12.321293999999853], [43.80245100000019, -12.32146299999988], [43.802733000000046, -12.32157699999982], [43.803005000000155, -12.32165299999997], [43.80308300000007, -12.321700999999962], [43.80316200000004, -12.32177699999994]]]}}]}