{"type": "FeatureCollection", "features": [{"type": "Feature", "properties": {"country": "Comoros", "pcode": "KM211", "name": "Mboinkou", "island": "Grande Comore (Ngazidja)"}, "geometry": {"type": "Polygon", "coordinates": [[[43.40417900000017, -11.403537999999969], [43.40444100000019, -11.4039029999999], [43.404656000000045, -11.4039029999999], [43.40478400000018, -11.404026999999928], [43.40497500000015, -11.404259999999965], [43.40556300000014, -11.405089999999973], [43.40578600000009, -11.405360999999914], [43.40602500000017, -11.4055239999999], [43.40628700000019, -11.405911999999944], [43.40670000000006, -11.406524999999874], [43.406923000000006, -11.406811999999888], [43.40725700000013, -11.407222999999874], [43.40762400000011, -11.407238999999947], [43.40762300000006, -11.407463999999948], [43.40770300000008, -11.407563999999866], [43.40783800000008, -11.407610999999918], [43.407958000000065, -11.407408999999916], [43.408189000000164, -11.407656999999915], [43.40810900000008, -11.407874999999933], [43.40827600000006, -11.407982999999888], [43.40856400000007, -11.407827999999938], [43.40876300000002, -11.407889999999838], [43.409018000000174, -11.407873999999936], [43.40925700000008, -11.408152999999913], [43.40952000000016, -11.408012999999869], [43.409664000000134, -11.408012999999869], [43.409751000000085, -11.408268999999905], [43.40995000000004, -11.408392999999876], [43.409965, -11.408858999999893], [43.41010000000017, -11.408990999999958], [43.41030000000001, -11.409029999999916], [43.41029099999997, -11.409409999999923], [43.41058500000014, -11.409704999999974], [43.41088800000017, -11.409975999999858], [43.410935000000165, -11.41009299999996], [43.410808000000145, -11.410216999999818], [43.41041700000011, -11.410170999999934], [43.4102410000001, -11.41026399999987], [43.41003300000011, -11.410504999999944], [43.40980100000013, -11.410877999999968], [43.40964100000019, -11.411335999999949], [43.40964800000006, -11.411505999999974], [43.40968700000013, -11.412080999999944], [43.4099250000001, -11.412825999999939], [43.410099000000116, -11.413508999999976], [43.41032100000018, -11.414175999999827], [43.41082100000017, -11.415370999999936], [43.411106000000075, -11.416007999999977], [43.41144000000003, -11.416589999999871], [43.41167000000007, -11.417070999999908], [43.41196500000012, -11.417426999999975], [43.41209200000014, -11.417465999999877], [43.41233100000005, -11.417512999999872], [43.412339000000145, -11.417690999999934], [43.41261700000007, -11.417915999999934], [43.41261700000007, -11.418148999999914], [43.412832000000094, -11.41834299999988], [43.41285600000015, -11.418450999999948], [43.41266400000006, -11.418598999999858], [43.41236000000009, -11.418777999999918], [43.412288000000046, -11.418909999999926], [43.41249500000009, -11.419243999999935], [43.41273300000006, -11.419662999999957], [43.412948000000085, -11.419933999999898], [43.41304300000013, -11.420150999999919], [43.41309800000005, -11.420632999999839], [43.41332100000005, -11.420988999999963], [43.413527000000045, -11.421345999999858], [43.41373400000009, -11.421601999999893], [43.41376500000018, -11.421842999999967], [43.41371700000013, -11.422059999999874], [43.41377300000016, -11.422238999999934], [43.41370699999999, -11.422913999999935], [43.413531000000035, -11.42342699999989], [43.413546, -11.423829999999953], [43.41368000000011, -11.424567999999908], [43.413751000000104, -11.424978999999894], [43.413869999999974, -11.425211999999874], [43.414085, -11.425358999999958], [43.414308000000176, -11.425474999999892], [43.414308000000176, -11.425676999999894], [43.414012000000184, -11.426096999999913], [43.414043000000106, -11.426313999999934], [43.41385100000019, -11.42656999999997], [43.413714000000084, -11.427493999999967], [43.413624000000084, -11.428464999999846], [43.41355000000016, -11.429411999999957], [43.41325300000011, -11.430327999999975], [43.41309900000016, -11.431414999999959], [43.41333800000001, -11.431708999999955], [43.413569000000166, -11.431895999999938], [43.413568000000055, -11.432190999999932], [43.41364000000016, -11.432275999999945], [43.413751000000104, -11.432422999999972], [43.413519000000065, -11.432764999999904], [43.41339100000016, -11.432981999999924], [43.413389000000166, -11.433921999999882], [43.41350000000011, -11.434379999999976], [43.41359500000016, -11.434689999999932], [43.41373000000016, -11.434860999999955], [43.41419900000005, -11.435240999999962], [43.414446000000055, -11.435410999999931], [43.41459800000018, -11.435550999999862], [43.41482900000011, -11.435666999999967], [43.41504400000014, -11.435705999999982], [43.41529900000012, -11.43573699999996], [43.415514000000144, -11.435774999999921], [43.415674000000024, -11.435697999999945], [43.415858000000185, -11.43547199999989], [43.41583500000007, -11.43511499999994], [43.41593100000017, -11.43494499999997], [43.41609800000015, -11.434951999999953], [43.416194000000075, -11.43510699999996], [43.416257000000144, -11.435440999999969], [43.41641600000014, -11.435587999999882], [43.416743000000054, -11.435579999999959], [43.41683000000012, -11.435634999999877], [43.41706100000005, -11.435835999999881], [43.41706100000005, -11.435998999999981], [43.41671000000014, -11.436162999999965], [43.41652500000009, -11.43656599999997], [43.41653300000007, -11.43666699999983], [43.41666800000007, -11.436798999999894], [43.416540999999995, -11.436954999999955], [43.416373000000135, -11.437187999999935], [43.41649200000006, -11.437334999999962], [43.41649200000006, -11.437427999999898], [43.41624400000012, -11.437606999999957], [43.41638700000004, -11.437831999999958], [43.41622700000016, -11.438056999999901], [43.41645800000009, -11.43814999999995], [43.41656200000017, -11.438265999999942], [43.416553000000135, -11.438413999999966], [43.416370000000086, -11.438467999999887], [43.416154000000176, -11.43870099999998], [43.416146000000026, -11.438894999999945], [43.415898000000084, -11.439112999999963], [43.415810000000135, -11.439260999999874], [43.41579300000012, -11.439562999999964], [43.41543400000006, -11.439858999999956], [43.41548100000006, -11.440005999999869], [43.415313000000026, -11.44020799999987], [43.415368000000115, -11.440642999999909], [43.41525600000011, -11.440921999999887], [43.41516000000013, -11.441022999999973], [43.41481700000003, -11.441077999999948], [43.414753000000076, -11.441216999999881], [43.414849000000174, -11.441286999999818], [43.41484000000014, -11.441418999999883], [43.414673000000164, -11.441511999999932], [43.41472000000016, -11.441659999999956], [43.414927000000034, -11.441783999999814], [43.41519800000009, -11.441822999999943], [43.41538100000014, -11.442039999999963], [43.415070000000185, -11.442287999999962], [43.414838000000145, -11.442319999999938], [43.41470200000009, -11.442458999999872], [43.414917000000116, -11.442637999999931], [43.415197000000035, -11.442637999999931], [43.415331000000094, -11.44337499999989], [43.415107000000035, -11.443506999999897], [43.41485900000009, -11.443809999999928], [43.41473900000011, -11.443964999999878], [43.41459600000019, -11.443980999999951], [43.414196000000175, -11.444221999999911], [43.41416399999997, -11.444337999999902], [43.41422000000017, -11.444462999999871], [43.41422700000004, -11.444772999999941], [43.41433100000012, -11.444865999999934], [43.414450000000045, -11.444943999999964], [43.41453800000005, -11.444888999999932], [43.414562000000046, -11.444842999999878], [43.41465000000005, -11.444834999999898], [43.41472900000019, -11.444880999999896], [43.414793000000145, -11.44492799999989], [43.41489700000005, -11.444888999999932], [43.41503200000005, -11.444880999999896], [43.41511200000008, -11.444981999999982], [43.41503200000005, -11.445074999999974], [43.41488800000019, -11.445199999999943], [43.41495199999997, -11.44535499999995], [43.415223000000026, -11.445408999999813], [43.4153740000001, -11.445501999999976], [43.41555700000015, -11.445594999999912], [43.41578800000008, -11.445609999999931], [43.41582000000005, -11.445966999999882], [43.41583500000007, -11.446114999999963], [43.41550800000016, -11.44627799999995], [43.41534000000013, -11.446339999999907], [43.41493300000019, -11.446402999999975], [43.41445500000009, -11.446433999999954], [43.414271000000156, -11.44636399999996], [43.414080000000126, -11.446255999999892], [43.41391299999998, -11.446255999999892], [43.413785000000075, -11.446364999999957], [43.413785000000075, -11.446496999999965], [43.413968000000125, -11.44669099999993], [43.41398300000009, -11.447124999999971], [43.41383100000013, -11.447218999999905], [43.413799000000154, -11.447326999999973], [43.41396600000013, -11.447606999999948], [43.41395000000006, -11.447738999999956], [43.41425300000009, -11.447745999999881], [43.41422800000015, -11.448141999999962], [43.41441000000009, -11.448521999999969], [43.41459300000014, -11.448723999999913], [43.41471300000012, -11.448901999999975], [43.414656000000036, -11.449173999999914], [43.41446400000012, -11.449585999999897], [43.41434400000014, -11.449717999999905], [43.41396900000018, -11.449632999999892], [43.41380200000003, -11.449694999999963], [43.41376100000002, -11.450152999999943], [43.41346600000014, -11.450268999999935], [43.41321800000003, -11.450292999999874], [43.413138000000174, -11.450494999999876], [43.41300200000012, -11.450587999999868], [43.412604000000044, -11.450432999999919], [43.412381000000096, -11.450370999999961], [43.412197000000106, -11.450370999999961], [43.411727000000155, -11.450495999999873], [43.41143900000014, -11.450650999999937], [43.41117500000013, -11.45094599999993], [43.411031000000094, -11.451272999999958], [43.41078300000004, -11.451823999999817], [43.410550000000114, -11.452335999999889], [43.410542000000135, -11.452685999999972], [43.41036500000007, -11.45317499999993], [43.41037200000011, -11.453427999999917], [43.40867800000012, -11.452649999999949], [43.40726100000012, -11.452538999999888], [43.390361000000155, -11.449582999999848], [43.357341000000076, -11.457758999999896], [43.35533300000003, -11.453055999999947], [43.36694700000015, -11.412458999999956], [43.38422200000008, -11.40880599999997], [43.40006600000004, -11.405043999999975], [43.40401200000002, -11.403204999999957], [43.40417900000017, -11.403537999999969]]]}}]}