{"type": "FeatureCollection", "features": [{"type": "Feature", "properties": {"country": "Comoros", "pcode": "KM273", "name": "Bambao Yadjou", "island": "Grande Comore (Ngazidja)"}, "geometry": {"type": "Polygon", "coordinates": [[[43.274556000000075, -11.712166999999965], [43.346557000000075, -11.713755999999876], [43.357707000000175, -11.749056999999937], [43.35734000000019, -11.749318999999957], [43.35711900000018, -11.749627999999916], [43.35677600000008, -11.750269999999944], [43.35672600000004, -11.750650999999948], [43.356358000000114, -11.75124499999987], [43.35623500000008, -11.751649999999927], [43.35599000000002, -11.751958999999886], [43.35572100000019, -11.752148999999974], [43.35542700000019, -11.752458999999874], [43.3550350000001, -11.752814999999941], [43.35479000000004, -11.753147999999953], [43.35457000000014, -11.753504999999905], [43.354300000000194, -11.754075999999884], [43.35420100000016, -11.754479999999944], [43.35449300000016, -11.755192999999963], [43.35471200000018, -11.755668999999898], [43.35466100000002, -11.756215999999938], [43.354734000000064, -11.756761999999924], [43.35483000000016, -11.757118999999875], [43.2808060000001, -11.74874199999988], [43.27323100000001, -11.747773999999936], [43.26865800000019, -11.746663999999896], [43.26465900000011, -11.74471799999992], [43.26294800000011, -11.742770999999948], [43.25930400000004, -11.738147999999967], [43.256417000000056, -11.734360999999979], [43.2568060000001, -11.73161099999993], [43.249331000000154, -11.728444999999965], [43.25897000000009, -11.716740999999956], [43.25909400000006, -11.71667699999989], [43.25956700000012, -11.715997999999956], [43.259985000000086, -11.715311999999926], [43.26006100000012, -11.715166999999951], [43.26017200000007, -11.714959999999962], [43.260295000000156, -11.714486999999963], [43.26030000000003, -11.71433999999988], [43.260403, -11.714046999999823], [43.260634000000096, -11.713701999999955], [43.26070300000015, -11.71328399999993], [43.2611040000001, -11.712749999999971], [43.261038000000156, -11.711952999999937], [43.26105800000005, -11.711648999999909], [43.26109700000006, -11.711467999999968], [43.26136200000013, -11.711030999999934], [43.26155900000009, -11.710459999999955], [43.26161400000001, -11.709492999999952], [43.26175800000004, -11.708605999999918], [43.261915000000045, -11.708405999999911], [43.262653, -11.70787299999995], [43.262935000000084, -11.707663999999966], [43.274556000000075, -11.712166999999965]]]}}]}