{"type": "FeatureCollection", "features": [{"type": "Feature", "properties": {"country": "Comoros", "pcode": "KM112", "name": "Domoni", "island": "Anjouan (Ndzouani)"}, "geometry": {"type": "Polygon", "coordinates": [[[44.52709500000009, -12.232927999999902], [44.527471000000105, -12.233560999999952], [44.52755100000019, -12.233859999999936], [44.527554000000066, -12.234400999999934], [44.527804000000174, -12.234671999999875], [44.52808200000004, -12.234993999999972], [44.52837700000015, -12.235557999999969], [44.528387000000066, -12.235941999999966], [44.52842900000019, -12.236736999999948], [44.52856100000008, -12.237097999999946], [44.52867600000019, -12.237413999999887], [44.52895500000017, -12.237774999999942], [44.529246000000114, -12.237916999999868], [44.52950200000015, -12.238103999999964], [44.5296350000001, -12.238357999999948], [44.529813000000104, -12.238831999999888], [44.530067000000145, -12.2395029999999], [44.53025600000018, -12.240010999999924], [44.53017900000003, -12.240359999999953], [44.53022599999997, -12.241239999999834], [44.53035800000009, -12.241724999999974], [44.530560000000094, -12.242153999999971], [44.53069600000015, -12.242897999999968], [44.53067100000004, -12.243179999999938], [44.530505000000176, -12.243670999999893], [44.530556000000104, -12.24385099999995], [44.53074200000003, -12.244020999999975], [44.53098100000011, -12.244138999999961], [44.531290000000126, -12.244269999999972], [44.531290000000126, -12.244365999999843], [44.53114300000004, -12.2445009999999], [44.53113000000019, -12.244635999999957], [44.53135099999997, -12.244878999999912], [44.53150300000016, -12.244861999999955], [44.53170200000011, -12.24473299999994], [44.53182500000014, -12.244721999999967], [44.532175000000166, -12.244846999999936], [44.53235599999999, -12.244745999999907], [44.532533000000114, -12.244514999999978], [44.532925000000034, -12.244424999999922], [44.533194000000094, -12.244278999999949], [44.53335700000008, -12.244454999999903], [44.53347300000007, -12.244629999999916], [44.53358800000018, -12.244860999999958], [44.533874000000026, -12.244973999999957], [44.534072000000094, -12.244968999999912], [44.534329000000184, -12.245036999999854], [44.534445000000005, -12.24518999999998], [44.534415000000195, -12.24532499999998], [44.53429700000004, -12.245555999999965], [44.53405100000009, -12.24571299999991], [44.53377000000012, -12.245768999999939], [44.53346600000003, -12.245756999999912], [44.53314000000006, -12.2456719999999], [44.53289500000005, -12.245484999999974], [44.532698000000096, -12.245258999999919], [44.53256399999998, -12.245230999999933], [44.53245800000013, -12.245354999999961], [44.53225200000014, -12.245641999999975], [44.53206300000011, -12.24603599999989], [44.53197300000011, -12.246441999999945], [44.53198900000001, -12.246695999999872], [44.53220700000014, -12.24740699999984], [44.53223500000013, -12.247665999999924], [44.53213900000003, -12.24812199999991], [44.53197300000011, -12.248544999999922], [44.53200000000004, -12.248905999999977], [44.532020999999986, -12.250422999999955], [44.532089000000155, -12.250760999999954], [44.532141000000195, -12.250969999999938], [44.53228500000017, -12.25120099999998], [44.53248900000017, -12.251280999999892], [44.532712000000174, -12.251173999999935], [44.53301600000009, -12.251083999999935], [44.53339000000011, -12.251050999999961], [44.5336410000001, -12.251090999999917], [44.534020000000055, -12.251209999999901], [44.534433999999976, -12.25136299999997], [44.53466700000007, -12.251532999999881], [44.53465500000016, -12.251611999999966], [44.53438000000017, -12.25168999999994], [44.534064000000114, -12.251751999999897], [44.53378900000013, -12.2517959999999], [44.53346200000004, -12.251806999999928], [44.533164000000056, -12.25176099999993], [44.53289000000012, -12.251647999999818], [44.53249900000014, -12.251601999999934], [44.53225900000018, -12.251753999999949], [44.53205900000012, -12.251983999999823], [44.531951000000106, -12.25262099999992], [44.531901000000005, -12.253088999999932], [44.53186900000003, -12.253545999999915], [44.53207900000018, -12.253590999999915], [44.53224300000011, -12.253664999999899], [44.532446000000164, -12.253862999999967], [44.53240300000016, -12.254177999999968], [44.53279300000014, -12.254483999999877], [44.532914000000176, -12.25474899999989], [44.53288300000008, -12.255188999999973], [44.53247200000004, -12.255486999999846], [44.53223800000001, -12.255626999999947], [44.53223100000014, -12.255835999999931], [44.53224700000004, -12.256111999999973], [44.53214000000008, -12.256297999999958], [44.53178400000013, -12.25624599999992], [44.531464000000085, -12.25608799999992], [44.531289000000186, -12.256086999999923], [44.53107800000015, -12.256120999999894], [44.5310300000001, -12.25631199999998], [44.53080600000004, -12.25673999999998], [44.53051799999997, -12.25704399999995], [44.53048800000016, -12.257257999999922], [44.53065100000015, -12.257382999999948], [44.53068500000012, -12.257528999999977], [44.53065500000014, -12.257709999999918], [44.530595000000176, -12.257979999999975], [44.53074500000014, -12.258205999999916], [44.53096700000003, -12.258285999999885], [44.53122400000012, -12.258240999999884], [44.531430000000114, -12.258009999999956], [44.53159999999997, -12.257914999999912], [44.53174000000001, -12.257931999999926], [44.53206100000011, -12.258011999999951], [44.53228200000012, -12.258113999999978], [44.532615000000135, -12.258102999999949], [44.532786000000044, -12.257933999999977], [44.532962000000055, -12.257781999999906], [44.533388000000116, -12.257754999999918], [44.533645999999976, -12.257591999999931], [44.53386800000004, -12.257603999999958], [44.53407700000014, -12.257738999999901], [44.534198000000174, -12.258038999999883], [44.53425500000009, -12.258303999999953], [44.53441800000007, -12.25842799999998], [44.534710000000075, -12.25843999999995], [44.534860000000094, -12.25874499999992], [44.5351050000001, -12.258953999999903], [44.53539100000012, -12.25898299999983], [44.53572900000006, -12.259022999999956], [44.53602700000016, -12.258977999999956], [44.536687000000086, -12.258996999999908], [44.53722900000014, -12.259194999999977], [44.53755000000007, -12.259302999999932], [44.537871000000166, -12.259291999999903], [44.53822800000006, -12.2591579999999], [44.538715000000025, -12.258915999999942], [44.538890000000094, -12.258927999999969], [44.53922799999998, -12.258973999999967], [44.53956600000009, -12.259114999999895], [44.540033000000165, -12.259301999999934], [44.54044600000003, -12.259579999999914], [44.540672000000086, -12.259872999999914], [44.54058900000018, -12.260114999999871], [44.54043000000013, -12.2603289999999], [44.54013700000007, -12.26048099999997], [44.539634000000035, -12.26054199999993], [44.53917200000018, -12.260703999999919], [44.538845000000094, -12.260714999999948], [44.53836600000011, -12.260674999999935], [44.53804000000014, -12.26056699999998], [44.53775300000018, -12.26065599999987], [44.53746000000007, -12.260768999999982], [44.537093000000084, -12.260688999999957], [44.536771999999985, -12.26058699999993], [44.53656100000012, -12.260636999999974], [44.53637400000014, -12.260726999999974], [44.535947000000135, -12.260804999999948], [44.53552600000012, -12.26084899999995], [44.535234000000116, -12.260983999999837], [44.53475400000019, -12.261083999999926], [44.534456000000034, -12.261015999999927], [44.53406600000011, -12.2609139999999], [44.53385600000013, -12.260828999999887], [44.533519000000126, -12.260483999999963], [44.53333300000003, -12.260370999999907], [44.53302900000011, -12.26035899999988], [44.5328080000001, -12.26026799999994], [44.53266100000019, -12.260346999999967], [44.53254300000003, -12.260504999999966], [44.53242000000017, -12.260706999999911], [44.53242400000016, -12.260915999999895], [44.53250500000007, -12.261039999999923], [44.53250400000019, -12.261248999999907], [44.53247900000008, -12.261518999999964], [44.5324490000001, -12.261727999999948], [44.53289100000006, -12.262032999999917], [44.53328600000003, -12.262456999999927], [44.53333700000019, -12.26272199999994], [44.53312600000015, -12.262839999999926], [44.53279300000014, -12.262838999999929], [44.532525000000135, -12.262697999999887], [44.53240800000003, -12.262742999999887], [44.53239000000019, -12.262860999999873], [44.53253500000011, -12.263159999999914], [44.53265700000003, -12.264214999999979], [44.53260200000011, -12.26466599999992], [44.53243100000003, -12.264952999999934], [44.53201400000012, -12.265334999999936], [44.53146300000003, -12.265762999999936], [44.53109400000005, -12.265975999999966], [44.53070000000014, -12.266431999999952], [44.53019300000011, -12.267225999999823], [44.52982800000012, -12.267754999999966], [44.52929900000004, -12.268368999999893], [44.52915800000011, -12.26854899999995], [44.529190000000085, -12.268993999999907], [44.529093000000046, -12.269658999999933], [44.52876500000008, -12.270825999999886], [44.52883300000019, -12.271265999999969], [44.52898500000015, -12.272314999999878], [44.529010000000085, -12.273081999999931], [44.52894700000002, -12.273915999999929], [44.5287800000001, -12.27456999999987], [44.52842700000019, -12.274940999999899], [44.528046000000074, -12.2752329999999], [44.52662700000013, -12.276205999999945], [44.52619199999998, -12.27668999999986], [44.52570900000018, -12.27746099999996], [44.52569800000015, -12.278385999999955], [44.525631000000146, -12.278791999999953], [44.52551200000005, -12.279179999999826], [44.52520500000003, -12.279833999999937], [44.524887000000035, -12.28031199999998], [44.52123900000015, -12.28026599999987], [44.52015900000015, -12.27501999999987], [44.51961100000011, -12.272221999999942], [44.52019400000006, -12.270749999999964], [44.52119399999998, -12.269999999999925], [44.52058100000011, -12.268061999999873], [44.519478000000106, -12.266757999999982], [44.51575100000014, -12.265287999999941], [44.504567000000065, -12.259544999999946], [44.49517800000018, -12.253996999999913], [44.49001500000003, -12.24759599999993], [44.4854620000001, -12.243772999999976], [44.505455000000154, -12.235886999999934], [44.50769800000012, -12.236175999999944], [44.511563000000194, -12.23570599999988], [44.516147000000046, -12.235140999999942], [44.520371000000125, -12.234670999999878], [44.52208000000013, -12.234291999999982], [44.52478500000012, -12.23276999999996], [44.52709500000009, -12.232927999999902]]]}}]}