{"type": "FeatureCollection", "features": [{"type": "Feature", "properties": {"country": "Comoros", "pcode": "KM266", "name": "Nyumamro Souheili", "island": "Grande Comore (Ngazidja)"}, "geometry": {"type": "Polygon", "coordinates": [[[43.344985000000065, -11.46419799999984], [43.344847000000186, -11.47287499999993], [43.34733300000016, -11.488481999999976], [43.34711645900012, -11.506222603999845], [43.34711160100005, -11.506620568999892], [43.34708600000016, -11.508717999999874], [43.34142000000014, -11.507645999999909], [43.33336099999997, -11.507999999999981], [43.326857000000075, -11.508799999999951], [43.325553000000184, -11.509644999999864], [43.323484000000064, -11.520922999999982], [43.32167400000003, -11.526531999999975], [43.320619000000136, -11.527436999999907], [43.31436000000008, -11.527741999999932], [43.312379000000135, -11.527260999999896], [43.31058899999999, -11.524306999999908], [43.30700300000012, -11.52063099999998], [43.2995140000001, -11.516775999999936], [43.29072100000013, -11.514368999999931], [43.28743900000018, -11.513827999999933], [43.27852800000011, -11.513610999999912], [43.274828000000184, -11.513401999999928], [43.27510700000016, -11.513238999999942], [43.2751080000001, -11.512897999999893], [43.27541100000013, -11.512896999999896], [43.275467000000106, -11.512749999999926], [43.27567500000009, -11.512741999999946], [43.27579500000007, -11.51264099999986], [43.27594600000015, -11.512454999999932], [43.27597900000001, -11.512329999999963], [43.275923000000034, -11.512166999999977], [43.27610700000014, -11.511809999999912], [43.27611600000017, -11.511514999999974], [43.27620400000018, -11.51146099999994], [43.27632400000016, -11.511328999999932], [43.27639600000009, -11.511258999999825], [43.276397000000145, -11.510784999999942], [43.2765960000001, -11.510621999999955], [43.2766840000001, -11.510505999999964], [43.276684999999986, -11.510008999999968], [43.27659800000009, -11.509845999999982], [43.276614000000166, -11.509697999999958], [43.27675800000003, -11.509558999999854], [43.276759000000084, -11.509294999999952], [43.276887000000045, -11.509068999999897], [43.276872000000026, -11.508603999999877], [43.27701600000006, -11.508486999999946], [43.27701600000006, -11.508432999999854], [43.27687300000008, -11.508277999999905], [43.27687300000008, -11.508114999999918], [43.27709699999997, -11.507935999999859], [43.27716800000019, -11.507857999999885], [43.277185000000145, -11.507640999999978], [43.27734500000008, -11.507322999999928], [43.27734500000008, -11.507166999999981], [43.27727400000009, -11.507034999999917], [43.27739400000007, -11.506848999999875], [43.277354000000116, -11.50671699999998], [43.27751400000005, -11.506545999999958], [43.277507000000185, -11.50642199999993], [43.27733200000006, -11.50604199999998], [43.27730800000006, -11.505901999999935], [43.27741200000014, -11.505800999999963], [43.27739600000001, -11.505668999999955], [43.27752400000014, -11.50562999999994], [43.277548000000195, -11.505559999999889], [43.27745300000015, -11.505350999999848], [43.2774290000001, -11.505210999999974], [43.277525000000026, -11.504993999999954], [43.277462000000185, -11.504900999999904], [43.27747800000009, -11.504791999999952], [43.277582000000166, -11.504643999999871], [43.27752600000014, -11.504535999999916], [43.277543000000094, -11.504325999999935], [43.277671000000055, -11.504224999999849], [43.27759100000003, -11.504061999999863], [43.27746400000018, -11.503704999999968], [43.27743300000009, -11.503394999999898], [43.277585000000045, -11.503262999999833], [43.27772900000008, -11.503091999999981], [43.277873000000056, -11.503052999999966], [43.277929000000086, -11.50285099999985], [43.27765000000011, -11.502656999999942], [43.277547000000084, -11.502532999999914], [43.27741900000018, -11.502354999999909], [43.27758700000004, -11.502167999999926], [43.277596000000074, -11.501973999999962], [43.27777100000014, -11.501973999999962], [43.27776300000005, -11.501849999999877], [43.27750900000012, -11.501585999999975], [43.277413000000195, -11.501538999999923], [43.27744600000011, -11.501337999999976], [43.27719100000013, -11.501065999999867], [43.27718400000009, -11.500793999999928], [43.27730300000013, -11.500669999999957], [43.27705700000007, -11.500405999999941], [43.27705700000007, -11.500219999999956], [43.2768190000001, -11.499901999999906], [43.27685100000008, -11.499567999999897], [43.2766840000001, -11.49928099999994], [43.27661300000011, -11.499063999999862], [43.27658200000019, -11.498675999999932], [43.276535000000194, -11.498488999999893], [43.276311000000135, -11.498364999999922], [43.27627200000012, -11.49824899999993], [43.276400000000024, -11.498147999999901], [43.27638400000012, -11.497922999999957], [43.276185, -11.497728999999879], [43.27583400000009, -11.49764399999998], [43.27582700000005, -11.497441999999864], [43.27558800000003, -11.497356999999909], [43.27541300000007, -11.49708499999997], [43.275493000000154, -11.496851999999876], [43.27539000000013, -11.496611999999914], [43.27541400000018, -11.49638699999997], [43.275359000000094, -11.496277999999904], [43.275606000000096, -11.496238999999889], [43.27568600000012, -11.496036999999944], [43.275639000000126, -11.495834999999943], [43.275911000000065, -11.49559499999998], [43.275911000000065, -11.495454999999936], [43.27567200000004, -11.495244999999954], [43.27567200000004, -11.495167999999978], [43.275912000000176, -11.495011999999974], [43.275912000000176, -11.494934999999884], [43.27568100000008, -11.494918999999982], [43.27562500000005, -11.494856999999854], [43.27588100000008, -11.494763999999975], [43.2755140000001, -11.494662999999946], [43.275956000000065, -11.494538999999918], [43.27579300000008, -11.494285999999931], [43.27605200000005, -11.49425999999994], [43.276080000000036, -11.494046999999966], [43.276094000000114, -11.493886999999972], [43.2761900000001, -11.49368799999985], [43.27636800000005, -11.493633999999929], [43.27654600000005, -11.493527999999912], [43.27656000000013, -11.493221999999946], [43.27682000000016, -11.493314999999882], [43.27684799999997, -11.493101999999965], [43.27660200000008, -11.492875999999967], [43.27652300000011, -11.492449999999906], [43.27608500000008, -11.492457999999942], [43.2759650000001, -11.492419999999981], [43.27626100000009, -11.49213999999995], [43.27619700000014, -11.49203899999992], [43.27631700000012, -11.491906999999912], [43.276285000000144, -11.491844999999955], [43.27606200000014, -11.491875999999934], [43.276046000000065, -11.491790999999921], [43.276166000000046, -11.491611999999918], [43.27611100000013, -11.491464999999948], [43.275912000000176, -11.491060999999831], [43.275825000000054, -11.49102999999991], [43.27562500000005, -11.491340999999977], [43.27554500000019, -11.491340999999977], [43.27548100000001, -11.491278999999906], [43.2756490000001, -11.490959999999973], [43.27588100000008, -11.490742999999895], [43.276057000000094, -11.490455999999938], [43.27596200000005, -11.490199999999902], [43.27595500000018, -11.48993599999983], [43.27559600000012, -11.489912999999945], [43.275508000000116, -11.48984299999995], [43.275397, -11.489671999999928], [43.27563600000008, -11.48963299999997], [43.27567600000003, -11.489461999999946], [43.27558900000008, -11.4893229999999], [43.27534200000008, -11.48938499999997], [43.275254000000075, -11.489268999999979], [43.275071000000025, -11.489120999999898], [43.27503900000005, -11.489019999999869], [43.274832000000174, -11.488911999999914], [43.27483300000006, -11.488608999999883], [43.27457900000019, -11.488057999999967], [43.27441100000016, -11.488228999999876], [43.27426800000006, -11.48813599999994], [43.27436400000016, -11.48806599999989], [43.27435600000001, -11.487964999999974], [43.27410900000001, -11.487693999999863], [43.27409400000005, -11.48752299999984], [43.27426900000012, -11.487475999999958], [43.27428500000019, -11.48742999999996], [43.274126000000194, -11.487273999999843], [43.274126000000194, -11.487064999999973], [43.27407900000003, -11.486645999999837], [43.27407200000016, -11.48652199999998], [43.27361000000013, -11.486102999999957], [43.27339500000011, -11.486055999999962], [43.27322800000013, -11.48586999999992], [43.27329200000008, -11.48572299999995], [43.27314900000016, -11.485535999999911], [43.27315700000014, -11.485396999999978], [43.272894000000065, -11.485388999999941], [43.272894000000065, -11.485256999999933], [43.27276699999999, -11.485070999999891], [43.272807000000114, -11.484946999999863], [43.27276000000012, -11.484690999999884], [43.272569000000146, -11.484542999999917], [43.272649, -11.484418999999946], [43.27264100000008, -11.484317999999973], [43.27241800000007, -11.484201999999925], [43.27252200000015, -11.483991999999887], [43.272490000000175, -11.483851999999956], [43.2723390000001, -11.48398399999985], [43.272267000000056, -11.483960999999965], [43.272132000000056, -11.483782999999903], [43.27202, -11.483634999999936], [43.27208500000006, -11.48347199999995], [43.27186200000011, -11.48323999999991], [43.272046000000046, -11.483029999999872], [43.27205399999997, -11.482928999999956], [43.271870000000035, -11.482936999999822], [43.27178300000014, -11.482882999999958], [43.27183900000017, -11.482734999999877], [43.27183100000019, -11.482618999999886], [43.271616000000165, -11.48261099999985], [43.27156100000008, -11.482362999999907], [43.271545000000174, -11.482253999999955], [43.27172100000013, -11.482129999999927], [43.27176100000008, -11.48203599999988], [43.271522000000004, -11.481787999999938], [43.271658000000116, -11.481632999999931], [43.27166600000004, -11.481531999999902], [43.27141900000004, -11.4813299999999], [43.27141900000004, -11.48117499999995], [43.27129200000019, -11.481066999999882], [43.271261000000095, -11.480786999999907], [43.27109400000012, -11.480670999999916], [43.27107000000012, -11.48039099999994], [43.2709670000001, -11.480375999999922], [43.270903000000146, -11.480220999999972], [43.27074400000015, -11.48001899999997], [43.27074400000015, -11.479839999999967], [43.270641000000126, -11.479669999999942], [43.27062600000016, -11.479389999999967], [43.27073000000007, -11.479102999999952], [43.27088200000003, -11.478698999999892], [43.270970000000034, -11.478558999999962], [43.270835000000034, -11.478504999999927], [43.27097100000009, -11.478333999999904], [43.27109100000007, -11.478046999999947], [43.271171000000095, -11.47780599999993], [43.27112400000016, -11.47758099999993], [43.271093000000064, -11.477223999999978], [43.27125300000017, -11.4770299999999], [43.27135700000008, -11.476866999999913], [43.27134100000018, -11.476656999999875], [43.271406000000184, -11.47648699999985], [43.27152500000011, -11.476478999999813], [43.27168499999999, -11.476361999999881], [43.27182200000016, -11.47582599999987], [43.27185500000007, -11.475158999999906], [43.271568000000116, -11.475011999999936], [43.271608000000015, -11.474910999999906], [43.271354000000144, -11.474685999999963], [43.27122600000007, -11.47449999999992], [43.271410000000174, -11.474429999999927], [43.271426000000076, -11.47419699999989], [43.271347000000105, -11.474048999999923], [43.27145900000016, -11.4738779999999], [43.27149900000006, -11.473637999999937], [43.27094100000011, -11.473528999999871], [43.27094200000016, -11.47335899999996], [43.27118100000007, -11.473132999999962], [43.27128600000003, -11.472721999999976], [43.27104700000018, -11.472504999999956], [43.27104000000014, -11.472263999999939], [43.27076900000009, -11.471953999999869], [43.27077000000014, -11.47175999999996], [43.2708980000001, -11.471588999999938], [43.2706510000001, -11.471347999999978], [43.27075500000018, -11.47120899999993], [43.27071500000005, -11.47106899999983], [43.270787000000155, -11.470920999999919], [43.27105900000009, -11.470757999999933], [43.271171000000095, -11.47057199999989], [43.27111600000018, -11.470346999999947], [43.27114000000006, -11.470043999999916], [43.27100500000006, -11.469903999999872], [43.27100600000017, -11.469461999999908], [43.27087100000017, -11.469236999999964], [43.270959000000175, -11.469135999999935], [43.270951000000025, -11.468956999999875], [43.27089600000011, -11.468801999999926], [43.27090400000003, -11.468576999999982], [43.270817000000136, -11.468359999999961], [43.270865000000185, -11.468095999999946], [43.27093700000012, -11.468025999999952], [43.27110500000015, -11.467869999999891], [43.27118500000006, -11.467691999999943], [43.27129700000006, -11.467497999999921], [43.271441000000095, -11.467341999999917], [43.271489000000145, -11.46729599999992], [43.271480999999994, -11.467124999999896], [43.271314000000075, -11.466938999999968], [43.271179000000075, -11.466915999999912], [43.271011000000044, -11.466853999999955], [43.2709880000001, -11.466690999999969], [43.270884000000194, -11.466620999999861], [43.27088500000008, -11.466418999999917], [43.27105300000011, -11.466146999999978], [43.271045000000186, -11.465882999999906], [43.27070300000014, -11.465448999999978], [43.27044800000016, -11.465308999999934], [43.27032100000014, -11.465246999999863], [43.270178000000044, -11.464967999999942], [43.27002700000014, -11.464827999999898], [43.27001200000012, -11.464424999999949], [43.269868000000145, -11.46439399999997], [43.269805000000076, -11.464121999999861], [43.26972500000005, -11.464051999999924], [43.269606000000124, -11.463896999999974], [43.26955900000013, -11.463617999999883], [43.2692560000001, -11.463563999999963], [43.2692560000001, -11.463423999999918], [43.26897800000006, -11.463198999999975], [43.26873900000015, -11.463097999999945], [43.26872300000008, -11.462934999999959], [43.26849200000015, -11.46290399999998], [43.268484, -11.462787999999875], [43.268373000000054, -11.462608999999816], [43.268148999999994, -11.462609999999813], [43.268150000000105, -11.462523999999974], [43.268374000000165, -11.462112999999874], [43.26832700000017, -11.461809999999957], [43.274417000000085, -11.4618329999999], [43.2888890000001, -11.463610999999958], [43.32738900000004, -11.464249999999879], [43.344985000000065, -11.46419799999984]]]}}]}