{"type": "FeatureCollection", "features": [{"type": "Feature", "properties": {"country": "Comoros", "pcode": "KM265", "name": "Nyumamro Kiblani", "island": "Grande Comore (Ngazidja)"}, "geometry": {"type": "Polygon", "coordinates": [[[43.35172200000005, -11.44827799999996], [43.35533300000003, -11.453055999999947], [43.351860999999985, -11.453943999999979], [43.344985000000065, -11.46419799999984], [43.32738900000004, -11.464249999999879], [43.2888890000001, -11.463610999999958], [43.274417000000085, -11.4618329999999], [43.26832700000017, -11.461809999999957], [43.26838300000003, -11.461491999999964], [43.2681520000001, -11.46125099999989], [43.26820100000003, -11.460994999999855], [43.268202000000144, -11.460365999999965], [43.26833800000003, -11.460194999999942], [43.268354999999985, -11.459923999999944], [43.268243000000155, -11.459760999999958], [43.26826800000009, -11.459449999999833], [43.26826800000009, -11.45930999999996], [43.268101000000115, -11.459240999999963], [43.268101000000115, -11.45899999999989], [43.26794200000012, -11.458766999999966], [43.26778300000012, -11.458759999999927], [43.26769500000012, -11.458689999999933], [43.26770300000004, -11.45857299999983], [43.26786300000015, -11.458464999999933], [43.26785600000011, -11.457850999999948], [43.26774500000016, -11.457750999999917], [43.26773800000012, -11.457493999999883], [43.26788899999997, -11.45742399999989], [43.26789000000008, -11.45725399999992], [43.26765000000012, -11.457214999999906], [43.267651, -11.456981999999925], [43.267435999999975, -11.45695899999987], [43.267396000000076, -11.456826999999976], [43.26716500000015, -11.45664899999997], [43.26716600000003, -11.456236999999817], [43.266752000000054, -11.455732999999952], [43.266745000000185, -11.455538999999874], [43.26683300000019, -11.455344999999909], [43.266610000000014, -11.455197999999825], [43.26659500000005, -11.454886999999928], [43.26632400000017, -11.454661999999871], [43.26631700000013, -11.454428999999948], [43.266046000000074, -11.454312999999956], [43.26580600000011, -11.454413999999872], [43.26557500000018, -11.454328999999973], [43.26548000000014, -11.45405699999992], [43.265520000000095, -11.453893999999934], [43.265401, -11.453606999999977], [43.26544200000001, -11.453241999999875], [43.26544200000001, -11.453008999999895], [43.26526700000011, -11.45281499999993], [43.26506000000006, -11.452885999999921], [43.264725000000055, -11.452854999999943], [43.26467700000018, -11.452753999999914], [43.264885000000106, -11.452543999999875], [43.26473400000009, -11.45213299999989], [43.26429600000006, -11.45218699999998], [43.2641440000001, -11.452093999999931], [43.26412100000016, -11.451752999999883], [43.26440100000008, -11.45152799999994], [43.264425000000074, -11.451371999999878], [43.264274, -11.451263999999924], [43.26411400000012, -11.451449999999966], [43.26393000000019, -11.451473999999962], [43.26383500000014, -11.451302999999939], [43.263772000000074, -11.451085999999862], [43.26350900000017, -11.450774999999965], [43.263502000000074, -11.4504179999999], [43.263335000000154, -11.45026299999995], [43.263327000000174, -11.450107999999943], [43.2629290000001, -11.449913999999978], [43.262945, -11.449696999999958], [43.26274600000005, -11.44966599999998], [43.26276200000018, -11.449533999999971], [43.26299400000016, -11.449401999999964], [43.263010000000065, -11.449315999999953], [43.26309800000007, -11.449238999999977], [43.26327300000014, -11.449113999999952], [43.263441, -11.449043999999901], [43.26349800000014, -11.448779999999942], [43.263713000000166, -11.448655999999971], [43.26374500000014, -11.448601999999937], [43.26353800000004, -11.448321999999962], [43.263588000000084, -11.447599999999909], [43.263660000000186, -11.44744499999996], [43.26386800000017, -11.447149999999965], [43.26402000000013, -11.446978999999942], [43.26414699999998, -11.446947999999963], [43.264243000000135, -11.446970999999905], [43.264403000000016, -11.44692399999991], [43.26479500000016, -11.446271999999965], [43.26489100000009, -11.446155999999974], [43.264994000000115, -11.446201999999971], [43.26518599999997, -11.446263999999928], [43.265401, -11.446302999999887], [43.265568000000144, -11.446309999999926], [43.26580000000018, -11.446294999999907], [43.26601500000004, -11.446193999999934], [43.26615900000019, -11.44611599999996], [43.26633400000014, -11.446107999999981], [43.266526, -11.446076999999946], [43.266693000000146, -11.445990999999935], [43.26678900000013, -11.445866999999964], [43.266846000000044, -11.445742999999823], [43.26692600000007, -11.445610999999928], [43.26694200000014, -11.44547099999994], [43.26689400000009, -11.44523799999996], [43.267006000000094, -11.445066999999938], [43.267007000000035, -11.444670999999857], [43.26714300000009, -11.444546999999886], [43.2671840000001, -11.44414299999994], [43.2671840000001, -11.443964999999878], [43.267010000000084, -11.443366999999967], [43.2671390000001, -11.442955999999981], [43.267123000000026, -11.442761999999902], [43.26702800000015, -11.44259099999988], [43.267004000000156, -11.442295999999885], [43.266782000000035, -11.441853999999921], [43.26679900000005, -11.441379999999981], [43.26664000000005, -11.441139999999905], [43.26667300000008, -11.440720999999883], [43.26684900000009, -11.44054199999988], [43.266786000000025, -11.44020799999987], [43.266954000000055, -11.43996699999991], [43.266914000000156, -11.43981199999996], [43.26699400000018, -11.43960999999996], [43.266891000000044, -11.439307999999926], [43.2669800000001, -11.438973999999916], [43.266828000000146, -11.438841999999909], [43.26690000000008, -11.438693999999941], [43.26687700000008, -11.43823599999996], [43.26699700000006, -11.438142999999911], [43.267085000000066, -11.438049999999862], [43.26712500000019, -11.437901999999951], [43.26715800000011, -11.437505999999871], [43.26744600000012, -11.437311999999906], [43.26741500000003, -11.436946999999975], [43.26762200000013, -11.436737999999934], [43.267623000000185, -11.436605999999927], [43.26751200000007, -11.436092999999914], [43.26756000000012, -11.43598499999996], [43.26742600000006, -11.435285999999962], [43.26734600000003, -11.435293999999885], [43.26733100000018, -11.435208999999873], [43.26756200000011, -11.435021999999947], [43.267451000000165, -11.434843999999885], [43.26767400000017, -11.434757999999874], [43.267754000000025, -11.434672999999975], [43.26775500000008, -11.434447999999975], [43.26769100000013, -11.434330999999816], [43.267660000000035, -11.434206999999958], [43.26787500000006, -11.434175999999866], [43.26787500000006, -11.434051999999895], [43.26793199999997, -11.433709999999962], [43.268012000000056, -11.433693999999946], [43.2681070000001, -11.43377199999992], [43.26834700000006, -11.433717999999885], [43.26837100000006, -11.43359299999986], [43.26813200000004, -11.433429999999873], [43.26820400000014, -11.433266999999887], [43.26820400000014, -11.433158999999932], [43.26807700000012, -11.43297299999989], [43.26818099999997, -11.432847999999922], [43.2681970000001, -11.432684999999935], [43.26805400000012, -11.432444999999973], [43.26824600000003, -11.432350999999926], [43.26828600000016, -11.432133999999905], [43.26843800000012, -11.431978999999899], [43.2686930000001, -11.431846999999891], [43.26890900000018, -11.431830999999818], [43.269132000000184, -11.43167499999987], [43.26939600000014, -11.4315509999999], [43.269603000000075, -11.431472999999926], [43.269644000000085, -11.431084999999825], [43.26970800000004, -11.43104599999998], [43.269908000000044, -11.430797999999982], [43.27006000000006, -11.430703999999935], [43.27025100000003, -11.430533999999966], [43.27028400000012, -11.430051999999876], [43.27029300000015, -11.429523999999958], [43.27032700000012, -11.428809999999885], [43.269961000000194, -11.428351999999904], [43.269889999999975, -11.42814299999992], [43.26965200000001, -11.427242999999976], [43.26978100000002, -11.426776999999959], [43.269782000000134, -11.426458999999966], [43.26954400000017, -11.42579899999987], [43.26939399999998, -11.42516999999998], [43.26936400000017, -11.424277999999958], [43.26956300000012, -11.424098999999899], [43.269637000000046, -11.423298999999872], [43.269853000000126, -11.423003999999821], [43.27541700000006, -11.42391699999996], [43.28313900000006, -11.422471999999857], [43.28700000000009, -11.419604999999933], [43.290621000000044, -11.420125999999982], [43.29786100000007, -11.421610999999928], [43.30154599999997, -11.419475999999918], [43.30752800000005, -11.417332999999928], [43.33692800000006, -11.416978999999913], [43.35172200000005, -11.44827799999996]]]}}]}