{"type": "FeatureCollection", "features": [{"type": "Feature", "properties": {"country": "Comoros", "pcode": "KM152", "name": "Sima", "island": "Anjouan (Ndzouani)"}, "geometry": {"type": "Polygon", "coordinates": [[[44.24208700000008, -12.179742999999917], [44.242259000000104, -12.180441999999914], [44.242398000000094, -12.18054399999994], [44.24272400000007, -12.180769999999882], [44.24320100000011, -12.181199999999933], [44.243235000000084, -12.181323999999904], [44.244576000000166, -12.181822999999895], [44.2453460000001, -12.182026999999891], [44.245790000000056, -12.181982999999889], [44.2465160000001, -12.181657999999913], [44.24715800000013, -12.181636999999967], [44.247172000000035, -12.18137699999994], [44.24740500000013, -12.181388999999967], [44.2477310000001, -12.18160399999988], [44.24811600000015, -12.181638999999961], [44.24874700000015, -12.181684999999845], [44.249902000000134, -12.181991999999923], [44.25021700000008, -12.18200399999995], [44.25068500000009, -12.18190299999992], [44.25101200000012, -12.181880999999976], [44.25171000000017, -12.18250299999994], [44.252551000000096, -12.18256099999985], [44.25275000000005, -12.182369999999935], [44.25307800000019, -12.182257999999933], [44.253219000000115, -12.18205499999982], [44.25337100000007, -12.182021999999904], [44.2537640000001, -12.18289099999987], [44.253832000000045, -12.18322899999987], [44.255722000000105, -12.183604999999886], [44.256248000000085, -12.183605999999884], [44.25675000000007, -12.183719999999823], [44.257182000000114, -12.183664999999962], [44.25909700000011, -12.183780999999897], [44.25976200000008, -12.184086999999977], [44.26202400000017, -12.184835999999962], [44.262572000000034, -12.184983999999872], [44.263331000000164, -12.185120999999924], [44.264336000000185, -12.184964999999977], [44.26504800000009, -12.185101999999972], [44.26539900000017, -12.185023999999885], [44.26606400000014, -12.18514899999991], [44.26748900000007, -12.185230999999874], [44.26805000000013, -12.185130999999956], [44.26845800000018, -12.185243999999955], [44.26884300000006, -12.185481999999865], [44.26908800000007, -12.185560999999893], [44.269565000000114, -12.185798999999975], [44.26989200000014, -12.185855999999887], [44.27050900000006, -12.186195999999939], [44.271489000000145, -12.186512999999877], [44.27189700000014, -12.18663799999996], [44.27233100000018, -12.1863239999999], [44.2725410000001, -12.1863239999999], [44.27298400000018, -12.186448999999925], [44.27347400000002, -12.186652999999922], [44.27369600000014, -12.186697999999922], [44.27396400000009, -12.186845999999832], [44.27425600000009, -12.186789999999974], [44.275074000000075, -12.186813999999913], [44.27552800000018, -12.186938999999882], [44.276076000000046, -12.187210999999934], [44.27629800000011, -12.187176999999963], [44.27645000000007, -12.187267999999847], [44.27656600000006, -12.187403999999901], [44.277664000000186, -12.18734899999987], [44.27808600000009, -12.187135999999953], [44.278239000000156, -12.186955999999952], [44.27822800000013, -12.186786999999924], [44.27813600000013, -12.186492999999928], [44.27797400000003, -12.186154999999928], [44.27769800000016, -12.185477999999875], [44.277491000000055, -12.184901999999909], [44.27750400000008, -12.18456399999991], [44.27756500000015, -12.18416899999994], [44.277625000000114, -12.183785999999941], [44.27805000000012, -12.18314399999997], [44.27816800000011, -12.182839999999942], [44.278239000000156, -12.18262599999997], [44.27846100000005, -12.182648999999913], [44.27863500000001, -12.18284099999994], [44.27877500000005, -12.182930999999826], [44.27895000000018, -12.182908999999938], [44.27905500000014, -12.18298799999991], [44.27913600000011, -12.183179999999822], [44.27898300000004, -12.183405999999934], [44.278900000000135, -12.183551999999963], [44.27891100000011, -12.183664999999962], [44.278934000000106, -12.183833999999933], [44.279015000000015, -12.183912999999961], [44.279108000000065, -12.18389099999996], [44.279191000000026, -12.18384599999996], [44.27923700000008, -12.183834999999931], [44.279258000000084, -12.1843649999999], [44.279583000000116, -12.1846129999999], [44.27962900000006, -12.184782999999925], [44.280307000000164, -12.184783999999922], [44.28044800000009, -12.184546999999952], [44.280532000000164, -12.184231999999895], [44.28098700000015, -12.18425499999995], [44.281093, -12.18411999999995], [44.28110500000014, -12.184029999999893], [44.28093100000012, -12.183848999999839], [44.280943000000036, -12.183736999999894], [44.281095000000164, -12.183713999999952], [44.28120100000007, -12.183556999999837], [44.28147000000013, -12.18357999999995], [44.28147000000013, -12.183646999999894], [44.28125800000015, -12.183860999999922], [44.281222000000014, -12.18399699999992], [44.28176000000013, -12.184019999999975], [44.28186400000004, -12.184177999999974], [44.28194600000006, -12.184177999999974], [44.28205100000008, -12.18405499999983], [44.282146000000125, -12.183952999999917], [44.282272000000034, -12.184302999999943], [44.28247100000016, -12.184280999999942], [44.28279800000007, -12.18421399999994], [44.28299800000008, -12.184056999999882], [44.28295100000008, -12.183977999999854], [44.28290600000008, -12.183774999999912], [44.283023000000185, -12.183717999999942], [44.28322200000014, -12.18362899999994], [44.28338600000001, -12.18362899999994], [44.28337499999998, -12.183414999999968], [44.28337600000009, -12.18324599999994], [44.283598000000154, -12.183222999999828], [44.283680000000174, -12.183279999999911], [44.28396000000009, -12.183280999999909], [44.284099000000026, -12.183494999999937], [44.28413400000011, -12.183494999999937], [44.284509000000014, -12.18326999999988], [44.28466100000003, -12.183247999999935], [44.28482500000007, -12.183214999999961], [44.28483499999999, -12.183439999999905], [44.2848810000001, -12.183676999999818], [44.28489100000019, -12.183969999999817], [44.28498300000018, -12.184206999999958], [44.285133000000144, -12.184477999999899], [44.285261000000105, -12.184635999999955], [44.28540100000015, -12.184703999999954], [44.28556500000019, -12.184591999999952], [44.28589300000016, -12.184456999999952], [44.286208999999985, -12.184231999999895], [44.286444000000074, -12.184052999999949], [44.28673800000007, -12.183770999999979], [44.2870430000001, -12.183399999999892], [44.28732500000018, -12.183129999999949], [44.28759400000001, -12.183039999999949], [44.287770000000194, -12.182949999999948], [44.28795700000006, -12.183006999999975], [44.28810800000008, -12.183153999999888], [44.28808400000008, -12.183266999999887], [44.288024000000064, -12.183525999999915], [44.287894000000165, -12.183818999999914], [44.28781000000015, -12.184111999999914], [44.287599000000114, -12.184302999999943], [44.28751600000015, -12.184471999999971], [44.28759700000012, -12.184606999999914], [44.28750300000013, -12.184742999999912], [44.28735000000012, -12.18501299999997], [44.28720800000008, -12.185282999999913], [44.287196000000165, -12.185429999999826], [44.28732400000007, -12.185463999999968], [44.287546000000134, -12.18552099999988], [44.287696000000096, -12.18572399999988], [44.28784700000017, -12.185994999999934], [44.287927000000025, -12.186321999999905], [44.28830000000016, -12.186390999999844], [44.28855600000003, -12.186649999999872], [44.28863600000011, -12.186875999999927], [44.288798000000156, -12.187157999999954], [44.28893800000003, -12.187237999999923], [44.28935700000005, -12.187519999999893], [44.29001000000011, -12.187758999999971], [44.29000900000017, -12.187836999999945], [44.28970500000008, -12.187904999999944], [44.289436000000194, -12.188050999999973], [44.28878200000008, -12.188048999999978], [44.28833900000001, -12.187799999999982], [44.28817600000002, -12.187788999999952], [44.28802300000018, -12.187855999999897], [44.287696000000096, -12.187990999999954], [44.287323000000185, -12.187808999999845], [44.28729900000013, -12.187831999999958], [44.287495000000035, -12.188282999999956], [44.28738900000013, -12.188451999999927], [44.28743300000019, -12.188993999999923], [44.28760500000004, -12.189478999999892], [44.287498000000085, -12.189884999999947], [44.28749600000009, -12.190233999999919], [44.28778500000004, -12.190899999999885], [44.28799300000003, -12.19127299999991], [44.288410000000056, -12.191814999999906], [44.288828000000194, -12.19227799999993], [44.28914200000003, -12.192627999999957], [44.28990100000016, -12.19264099999998], [44.290459999999996, -12.192878999999948], [44.29090300000007, -12.19314999999989], [44.29126500000018, -12.19316299999997], [44.29137400000013, -12.192418999999973], [44.29153800000006, -12.192373999999973], [44.291611000000046, -12.19193399999989], [44.29182200000008, -12.191674999999975], [44.292290000000094, -12.191675999999973], [44.29233600000015, -12.191698999999915], [44.29246400000011, -12.191766999999857], [44.29256900000007, -12.191856999999914], [44.29272100000003, -12.19186899999994], [44.29283700000008, -12.19187999999997], [44.292836000000136, -12.19206099999991], [44.292754000000116, -12.19220699999994], [44.292753000000005, -12.192285999999967], [44.29292700000002, -12.192601999999908], [44.29286400000018, -12.193345999999963], [44.292803000000106, -12.193830999999932], [44.29288300000013, -12.194123999999931], [44.293023000000176, -12.194248999999957], [44.293209000000104, -12.194417999999928], [44.293594000000155, -12.194486999999924], [44.29374600000011, -12.19455499999998], [44.29408100000012, -12.19507399999992], [44.294397000000174, -12.195119999999974], [44.29464200000018, -12.195108999999889], [44.29550700000016, -12.19505399999997], [44.29571700000014, -12.195020999999883], [44.29602000000017, -12.195280999999909], [44.29642800000016, -12.195303999999965], [44.29682600000007, -12.195259999999962], [44.29723500000017, -12.195102999999904], [44.297491000000036, -12.198679999999854], [44.30990500000007, -12.20770299999998], [44.31139100000007, -12.20829899999984], [44.31704200000013, -12.212364999999977], [44.322431000000165, -12.214054999999917], [44.31756900000005, -12.216816999999935], [44.31617100000017, -12.216913999999974], [44.305024000000174, -12.226096999999925], [44.30312900000001, -12.229668999999888], [44.30198900000005, -12.228910999999869], [44.30151100000012, -12.228740999999957], [44.30119700000006, -12.228457999999875], [44.30006500000019, -12.228297999999882], [44.29957600000006, -12.22790299999997], [44.29861000000005, -12.227358999999979], [44.29808500000013, -12.227075999999954], [44.296172000000126, -12.226733999999965], [44.295144000000164, -12.226675999999884], [44.29472300000015, -12.226629999999886], [44.29344200000003, -12.226073999999812], [44.29211300000003, -12.225518999999963], [44.291192000000194, -12.22509999999994], [44.29005000000001, -12.224544999999978], [44.28898300000003, -12.22315599999996], [44.28850399999999, -12.223176999999907], [44.287711000000115, -12.223051999999882], [44.287513000000104, -12.222926999999913], [44.287494000000095, -12.222148999999945], [44.28599500000007, -12.220645999999931], [44.28533100000004, -12.220306999999934], [44.28456000000017, -12.22039499999994], [44.283722000000125, -12.21980699999989], [44.28286800000018, -12.219883999999865], [44.28249500000004, -12.219792999999981], [44.282134000000156, -12.219543999999871], [44.28171400000008, -12.21947599999993], [44.28145800000004, -12.21937399999996], [44.28099300000008, -12.218955999999821], [44.28021300000006, -12.21844699999997], [44.27892400000013, -12.217056999999897], [44.27849400000008, -12.216705999999817], [44.277760000000114, -12.216343999999879], [44.27763199999998, -12.216219999999907], [44.27728300000007, -12.215959999999882], [44.276607000000126, -12.215664999999944], [44.27633800000007, -12.215697999999975], [44.27531100000016, -12.215470999999923], [44.274869000000194, -12.215243999999927], [44.274159000000054, -12.214723999999933], [44.27344400000004, -12.215026999999964], [44.27336200000019, -12.215094999999906], [44.27232400000008, -12.214922999999885], [44.272243000000174, -12.214730999999915], [44.27194100000003, -12.214459999999974], [44.271650000000136, -12.21414399999992], [44.27136000000013, -12.213815999999952], [44.271173999999974, -12.213646999999924], [44.27029900000008, -12.2134759999999], [44.26872300000008, -12.213280999999938], [44.26839700000011, -12.213132999999857], [44.268105000000105, -12.213098999999886], [44.26748600000019, -12.212961999999834], [44.26742700000011, -12.213085999999976], [44.26733400000006, -12.213074999999947], [44.26717000000019, -12.21306299999992], [44.26714600000014, -12.213175999999862], [44.266551000000106, -12.213174999999978], [44.26570000000004, -12.212822999999958], [44.264593000000104, -12.212346999999909], [44.26401199999998, -12.211635999999885], [44.26369800000015, -12.211442999999917], [44.26325500000007, -12.211284999999975], [44.26270800000009, -12.21083299999998], [44.26231300000012, -12.210538999999812], [44.26213799999999, -12.2104369999999], [44.26193000000006, -12.210052999999903], [44.26150200000018, -12.209228999999937], [44.261269000000084, -12.209103999999911], [44.26100200000019, -12.208945999999969], [44.260548000000085, -12.208606999999915], [44.26012900000006, -12.208379999999977], [44.25968600000016, -12.20819899999998], [44.25929000000008, -12.207983999999954], [44.25859000000008, -12.207711999999958], [44.25836900000007, -12.207631999999876], [44.258288000000164, -12.207360999999935], [44.2580210000001, -12.207146999999907], [44.25771900000012, -12.206841999999881], [44.25746500000008, -12.20633399999997], [44.25740700000006, -12.206231999999943], [44.25704600000006, -12.206050999999889], [44.25701099999998, -12.205993999999976], [44.25644500000004, -12.204763999999898], [44.25615400000015, -12.204695999999956], [44.25596800000005, -12.20448099999993], [44.25584100000003, -12.204266999999902], [44.25586500000003, -12.204142999999874], [44.25566800000007, -12.203871999999933], [44.25509599999998, -12.203655999999967], [44.25488700000011, -12.203497999999968], [44.254620000000045, -12.203136999999856], [44.25433000000004, -12.202876999999944], [44.25391100000019, -12.202514999999892], [44.25365500000015, -12.20240199999995], [44.25311900000003, -12.202118999999982], [44.25247800000011, -12.201891999999873], [44.25169600000004, -12.201675999999964], [44.251381000000094, -12.201629999999966], [44.25042400000018, -12.201390999999887], [44.25020300000017, -12.201379999999972], [44.25006200000007, -12.201412999999945], [44.24978200000015, -12.20134499999989], [44.24932800000005, -12.201106999999922], [44.249141000000066, -12.201106999999922], [44.249047000000076, -12.201151999999922], [44.248849000000064, -12.201150999999925], [44.24854500000009, -12.20117299999987], [44.24827600000009, -12.201126999999815], [44.248008000000084, -12.201002999999957], [44.24788000000018, -12.200979999999902], [44.247635000000116, -12.20100199999996], [44.247471000000075, -12.201012999999875], [44.24743599999999, -12.201068999999904], [44.24735400000014, -12.201068999999904], [44.24730699999998, -12.201034999999933], [44.24707300000017, -12.201113999999961], [44.24699100000015, -12.201180999999906], [44.246806000000106, -12.200785999999937], [44.246234000000015, -12.200682999999913], [44.245909000000154, -12.200355999999886], [44.245677000000114, -12.200095999999974], [44.24565400000017, -12.199960999999973], [44.24560800000012, -12.199892999999918], [44.24522300000007, -12.199778999999921], [44.24506000000008, -12.199721999999895], [44.244733, -12.199653999999953], [44.244150000000104, -12.199562999999898], [44.24402100000009, -12.199640999999872], [44.24381000000005, -12.199719999999843], [44.24355300000008, -12.19961799999993], [44.24342500000017, -12.199571999999932], [44.24327299999999, -12.199628999999959], [44.24301700000012, -12.199492999999961], [44.24292400000007, -12.199322999999936], [44.242902000000015, -12.199119999999937], [44.242809000000136, -12.198984999999936], [44.2425530000001, -12.198803999999882], [44.24236600000012, -12.198791999999969], [44.24212300000005, -12.198531999999943], [44.24121200000019, -12.198372999999947], [44.24101500000006, -12.19804499999998], [44.240841000000046, -12.197863999999925], [44.240713000000085, -12.197863999999925], [44.24060800000012, -12.197829999999954], [44.240374000000145, -12.197772999999927], [44.23994300000015, -12.197557999999901], [44.239698000000146, -12.19752399999993], [44.239488000000165, -12.197556999999904], [44.23930100000018, -12.197623999999962], [44.23909100000003, -12.197488999999962], [44.238742000000116, -12.197205999999937], [44.23827700000015, -12.19683299999997], [44.23820800000016, -12.196663999999942], [44.2381390000001, -12.196414999999945], [44.23790700000012, -12.196042999999975], [44.23766400000005, -12.19566999999995], [44.23754900000017, -12.195455999999979], [44.23753800000014, -12.195240999999953], [44.23748000000012, -12.195116999999925], [44.23731700000013, -12.195014999999898], [44.23713100000003, -12.194924999999955], [44.23638700000009, -12.194167999999934], [44.23574800000017, -12.19354599999997], [44.23578400000014, -12.193354999999883], [44.23578500000002, -12.193230999999912], [44.23570400000011, -12.193060999999886], [44.235577000000035, -12.192846999999972], [44.23541500000016, -12.192597999999975], [44.23504300000013, -12.192270999999892], [44.23471700000016, -12.191953999999953], [44.234054000000185, -12.191456999999957], [44.233251000000166, -12.191025999999908], [44.23309900000004, -12.190935999999908], [44.23243500000012, -12.190674999999942], [44.23181699999998, -12.190414999999973], [44.231118000000095, -12.190175999999951], [44.23096600000008, -12.190073999999925], [44.2307790000001, -12.190220999999838], [44.230591000000175, -12.190242999999953], [44.23030000000006, -12.190219999999954], [44.230113000000074, -12.190173999999956], [44.229881000000034, -12.189936999999873], [44.22968200000008, -12.18986899999993], [44.22948400000007, -12.189867999999933], [44.22932000000014, -12.189867999999933], [44.22899400000017, -12.189686999999878], [44.22876200000019, -12.189460999999937], [44.22840000000008, -12.189335999999969], [44.22801600000008, -12.189154999999914], [44.22765400000014, -12.18901899999986], [44.22750300000013, -12.189006999999947], [44.22735000000006, -12.189051999999947], [44.2272220000001, -12.189130999999975], [44.22714000000008, -12.189130999999975], [44.22710500000005, -12.189051999999947], [44.22704900000019, -12.18872399999998], [44.22701400000017, -12.18862299999995], [44.22682800000001, -12.188497999999981], [44.226315000000056, -12.18822699999987], [44.22563900000006, -12.187976999999876], [44.22526700000003, -12.187750999999935], [44.225103000000104, -12.187761999999964], [44.224928000000034, -12.187783999999908], [44.224659000000145, -12.187828999999965], [44.22433200000012, -12.18778299999991], [44.22393600000004, -12.187544999999943], [44.22373800000014, -12.187510999999972], [44.22341, -12.187543999999946], [44.22293100000019, -12.18753199999992], [44.22274400000015, -12.18757699999992], [44.22261500000013, -12.187666999999976], [44.222452000000146, -12.187654999999893], [44.222160000000144, -12.187653999999895], [44.22205500000018, -12.187585999999953], [44.22196200000013, -12.187450999999953], [44.22190400000011, -12.187337999999954], [44.22175600000014, -12.186705999999958], [44.22165200000006, -12.18654799999996], [44.22149000000013, -12.186242999999934], [44.221421000000134, -12.186107999999876], [44.221410000000105, -12.185960999999963], [44.22144500000013, -12.185904999999934], [44.221399000000076, -12.185769999999877], [44.22144600000007, -12.185645999999906], [44.221424000000184, -12.185487999999907], [44.22127400000005, -12.185216999999966], [44.221111000000064, -12.18501299999997], [44.220961000000045, -12.184775999999886], [44.22084400000017, -12.18476499999997], [44.22057500000011, -12.184741999999915], [44.22024900000014, -12.184593999999947], [44.22007500000012, -12.184458999999947], [44.21997000000016, -12.184345999999948], [44.21968000000015, -12.183995999999922], [44.21959900000019, -12.18388299999998], [44.219191000000194, -12.18372399999987], [44.21892300000019, -12.183576999999957], [44.21873700000009, -12.183463999999958], [44.218656000000124, -12.183338999999933], [44.21853900000002, -12.18332799999996], [44.218470000000025, -12.183011999999962], [44.21840099999997, -12.182921999999962], [44.21817900000008, -12.182875999999965], [44.21778200000011, -12.182886999999823], [44.21753700000011, -12.182863999999938], [44.21740800000009, -12.182919999999967], [44.217279000000076, -12.183009999999967], [44.217162000000144, -12.18300899999997], [44.21679000000012, -12.182624999999973], [44.21634900000004, -12.182127999999977], [44.216233000000045, -12.18199299999992], [44.21620100000007, -12.181507999999951], [44.21613100000013, -12.181461999999954], [44.21599100000009, -12.181371999999953], [44.215875000000096, -12.181280999999899], [44.21579800000012, -12.18037899999996], [44.21572900000007, -12.180231999999876], [44.215531000000055, -12.180073999999934], [44.21513700000014, -12.179542999999967], [44.214963000000125, -12.179339999999968], [44.214869000000135, -12.179395999999883], [44.21485700000005, -12.179474999999968], [44.21485500000006, -12.179756999999938], [44.214739000000066, -12.179711999999938], [44.214634000000046, -12.179654999999912], [44.21451700000017, -12.179699999999912], [44.21437700000013, -12.179699999999912], [44.21428400000008, -12.17963199999997], [44.214249000000166, -12.17951899999997], [44.214519000000166, -12.179349999999829], [44.21450900000019, -12.179079999999942], [44.21435800000012, -12.178875999999946], [44.21435900000006, -12.178740999999889], [44.214160000000106, -12.178672999999947], [44.21242500000005, -12.177789999999959], [44.211982000000035, -12.17756299999985], [44.21128399999998, -12.17712199999994], [44.21085300000004, -12.176850999999829], [44.21063100000015, -12.176860999999917], [44.21039700000017, -12.176894999999888], [44.21017500000005, -12.176882999999975], [44.20969700000012, -12.17665699999992], [44.20910300000003, -12.176406999999926], [44.20871800000015, -12.176259999999957], [44.20804300000009, -12.175908999999933], [44.20767000000012, -12.175738999999908], [44.20748300000008, -12.175738999999908], [44.207249000000104, -12.17573799999991], [44.20709800000003, -12.17565899999994], [44.20702800000009, -12.175567999999885], [44.206842000000165, -12.17546699999997], [44.20690100000007, -12.17530899999997], [44.20698300000009, -12.17521899999997], [44.20700700000015, -12.17512899999997], [44.20694900000012, -12.175049999999942], [44.20689200000004, -12.174823999999887], [44.206917000000146, -12.174519999999973], [44.20682499999998, -12.174270999999976], [44.20682600000009, -12.174180999999976], [44.20672100000013, -12.174135999999976], [44.20668600000005, -12.174044999999978], [44.206663000000106, -12.174011999999948], [44.20654600000017, -12.173954999999921], [44.206371000000104, -12.17397699999998], [44.20620800000012, -12.17396599999995], [44.206185000000175, -12.173908999999924], [44.206349000000046, -12.173694999999896], [44.20635000000016, -12.17354899999998], [44.206304000000046, -12.173412999999925], [44.20607200000006, -12.17318699999987], [44.206061000000034, -12.173028999999872], [44.205968000000155, -12.17296099999993], [44.205971000000034, -12.17243099999996], [44.20610000000005, -12.17229599999996], [44.20634600000017, -12.172104999999874], [44.206581000000085, -12.171947999999873], [44.206816000000174, -12.171756999999957], [44.20687500000008, -12.171654999999873], [44.206805000000145, -12.171564999999873], [44.206794000000116, -12.171406999999874], [44.207006000000035, -12.171192999999903], [44.20718300000016, -12.170820999999876], [44.207149000000186, -12.170572999999877], [44.20702300000005, -12.170234999999877], [44.206884000000116, -12.170042999999964], [44.206663000000106, -12.16986199999991], [44.20652200000018, -12.169883999999968], [44.206323000000054, -12.169939999999883], [44.206043000000136, -12.17001799999997], [44.20580800000005, -12.170096999999942], [44.205528000000186, -12.170129999999972], [44.20536400000009, -12.170140999999944], [44.20514300000008, -12.170038999999917], [44.20495700000015, -12.169812999999976], [44.204784000000075, -12.169541999999922], [44.20468000000017, -12.169248999999922], [44.20468200000016, -12.168887999999981], [44.20475300000015, -12.168650999999898], [44.204918000000134, -12.168459999999925], [44.205094000000145, -12.168279999999868], [44.2052930000001, -12.168200999999897], [44.205516000000046, -12.168133999999952], [44.20612299999999, -12.16813499999995], [44.20631000000003, -12.168191999999976], [44.20651900000007, -12.168350999999973], [44.20665800000006, -12.168530999999916], [44.206797000000165, -12.168858999999884], [44.20687700000002, -12.169083999999941], [44.2069570000001, -12.169422999999938], [44.2070260000001, -12.169625999999937], [44.207645000000184, -12.169750999999962], [44.20821700000005, -12.16979699999996], [44.20918500000005, -12.169956999999954], [44.20993300000015, -12.170003999999949], [44.210062000000164, -12.169879999999978], [44.21007500000013, -12.169586999999922], [44.210216000000116, -12.169575999999893], [44.21054200000009, -12.169666999999947], [44.210671000000104, -12.169621999999947], [44.21130300000016, -12.169341999999972], [44.21159600000004, -12.169195999999886], [44.21188300000017, -12.168090999999947], [44.211487999999974, -12.167638999999951], [44.211500000000115, -12.167492999999922], [44.21167700000018, -12.167300999999952], [44.21192500000012, -12.166692999999896], [44.21205500000019, -12.166540999999938], [44.21214900000018, -12.166495999999938], [44.21233400000017, -12.16669899999988], [44.21256800000003, -12.166699999999878], [44.21259200000003, -12.16651999999982], [44.21292000000017, -12.166474999999934], [44.213084000000094, -12.166407999999876], [44.21341100000012, -12.166362999999876], [44.21341000000007, -12.166565999999875], [44.21357300000005, -12.166749999999922], [44.21368700000005, -12.16720099999992], [44.213719000000026, -12.167832999999916], [44.21409300000005, -12.167810999999972], [44.21467700000005, -12.16772199999997], [44.21476000000018, -12.167552999999941], [44.214634000000046, -12.167202999999915], [44.214903000000106, -12.16704599999997], [44.21520700000002, -12.16704599999997], [44.215265000000045, -12.167102999999827], [44.21539300000018, -12.167158999999913], [44.2156030000001, -12.167227999999966], [44.21577800000006, -12.167272999999966], [44.21629300000018, -12.167104999999879], [44.21659200000005, -12.167928999999958], [44.216849000000025, -12.167940999999871], [44.218470000000025, -12.168439999999975], [44.21874000000014, -12.16823799999986], [44.21906700000005, -12.168215999999973], [44.21912500000002, -12.168283999999915], [44.21921900000018, -12.168283999999915], [44.21948800000007, -12.168182999999942], [44.2196560000001, -12.167325999999889], [44.2202870000001, -12.167326999999887], [44.22133700000012, -12.167667999999935], [44.22167600000006, -12.167521999999963], [44.22327700000005, -12.167502999999954], [44.22353500000008, -12.16723299999984], [44.223991000000126, -12.167188999999837], [44.22457500000013, -12.167223999999976], [44.225368, -12.167517999999973], [44.22595100000012, -12.16763199999997], [44.22658100000018, -12.167836999999963], [44.22666100000009, -12.168129999999962], [44.226882000000046, -12.16831099999996], [44.22760699999998, -12.168176999999957], [44.22771000000017, -12.168639999999982], [44.227954000000125, -12.168774999999869], [44.22825800000004, -12.168741999999895], [44.22862200000014, -12.16839299999998], [44.229007000000195, -12.168596999999977], [44.22968400000008, -12.168553999999972], [44.22984900000006, -12.168384999999944], [44.230154000000084, -12.168069999999886], [44.23085500000013, -12.168160999999884], [44.23221000000018, -12.168231999999875], [44.23286300000001, -12.168311999999958], [44.23320100000012, -12.168537999999899], [44.23359700000003, -12.16868599999998], [44.23388800000009, -12.168888999999979], [44.2339310000001, -12.16953199999989], [44.23420900000019, -12.169926999999973], [44.234650999999985, -12.17029999999994], [44.23495500000013, -12.170390999999938], [44.23556200000007, -12.170425999999964], [44.23610200000013, -12.169998999999905], [44.23626600000006, -12.16993199999996], [44.23690600000009, -12.170214999999928], [44.23754900000017, -12.170227999999952], [44.23782700000004, -12.17057799999992], [44.2380940000001, -12.170904999999891], [44.23829000000018, -12.171446999999887], [44.23848500000014, -12.171988999999883], [44.23898100000014, -12.17312899999996], [44.23955700000005, -12.174696999999924], [44.23991500000017, -12.175497999999948], [44.24021300000015, -12.176445999999885], [44.24040600000012, -12.177404999999908], [44.24069500000002, -12.17796999999996], [44.241020000000105, -12.178364999999928], [44.241648, -12.178850999999838], [44.24201899999997, -12.179415999999947], [44.24208700000008, -12.179742999999917]]]}}]}