{"type": "FeatureCollection", "features": [{"type": "Feature", "properties": {"country": "Comoros", "pcode": "KM283", "name": "Oichili Yamboini", "island": "Grande Comore (Ngazidja)"}, "geometry": {"type": "Polygon", "coordinates": [[[43.38450000000017, -11.560360999999943], [43.388941000000045, -11.561113999999975], [43.40463400000016, -11.559836999999902], [43.40477300000015, -11.559983999999815], [43.404936000000134, -11.56016499999987], [43.40520300000003, -11.560333999999898], [43.40552800000006, -11.560378999999898], [43.40566700000005, -11.56045799999987], [43.40572500000019, -11.560570999999982], [43.405713000000105, -11.56066199999998], [43.405584999999974, -11.560831999999891], [43.405399000000045, -11.56100099999992], [43.40524799999997, -11.561080999999888], [43.405259, -11.561204999999859], [43.40547900000013, -11.561317999999972], [43.405665000000056, -11.561464999999941], [43.405653000000086, -11.561611999999968], [43.40561800000006, -11.56169099999994], [43.40552500000018, -11.561668999999881], [43.40535100000017, -11.561543999999913], [43.40517700000015, -11.561476999999968], [43.40475900000001, -11.56149999999991], [43.40457200000003, -11.561872999999878], [43.404409000000044, -11.561951999999849], [43.404130000000066, -11.562212999999929], [43.403885, -11.56232599999987], [43.404036000000076, -11.562427999999954], [43.404036000000076, -11.562574999999981], [43.40423300000003, -11.562788999999896], [43.404267000000175, -11.563139999999976], [43.40403400000008, -11.563354999999945], [43.403999000000056, -11.563445999999828], [43.40392900000012, -11.563659999999857], [43.40376600000013, -11.563863999999967], [43.403603000000146, -11.564056999999934], [43.40334700000011, -11.564169999999933], [43.40304400000008, -11.564282999999875], [43.40282300000007, -11.5644529999999], [43.402822000000185, -11.564995999999894], [43.402740000000165, -11.565278999999975], [43.402728000000025, -11.565538999999887], [43.40309900000017, -11.56588899999997], [43.40333100000004, -11.566069999999968], [43.40372600000018, -11.566318999999964], [43.40371400000009, -11.566419999999937], [43.403644000000156, -11.566453999999908], [43.40336500000018, -11.566510999999934], [43.40317900000002, -11.566612999999961], [43.403225000000134, -11.56668099999996], [43.40337599999998, -11.566827999999873], [43.40323700000005, -11.566872999999873], [43.40310800000003, -11.567053999999928], [43.40315500000003, -11.567166999999927], [43.40302600000018, -11.567336999999895], [43.40296800000016, -11.56747299999995], [43.40308399999998, -11.567653999999834], [43.403257999999994, -11.567822999999976], [43.403199000000086, -11.568105999999943], [43.40307100000018, -11.568286999999884], [43.40288500000008, -11.568433999999968], [43.40298900000016, -11.568512999999939], [43.40319800000003, -11.568512999999939], [43.40345400000007, -11.568512999999939], [43.403640000000166, -11.568534999999883], [43.40384800000015, -11.56869399999988], [43.40389500000015, -11.568874999999935], [43.403871000000095, -11.569043999999906], [43.403662000000054, -11.569043999999906], [43.40353400000009, -11.569066999999961], [43.40374300000019, -11.56922499999996], [43.40374200000008, -11.569394999999929], [43.40340500000008, -11.569632999999953], [43.40355600000015, -11.569790999999896], [43.40362499999998, -11.569892999999979], [43.4035320000001, -11.56992699999995], [43.403311000000144, -11.56992699999995], [43.403311000000144, -11.569994999999892], [43.403427000000136, -11.570152999999834], [43.40338000000014, -11.570231999999976], [43.40325300000012, -11.570265999999947], [43.40319400000004, -11.570457999999917], [43.40307800000005, -11.570514999999943], [43.40299600000003, -11.570627999999942], [43.40289100000018, -11.570740999999884], [43.40270500000008, -11.570797999999911], [43.40261200000003, -11.570741999999882], [43.40248500000018, -11.57052699999997], [43.40236900000019, -11.570458999999914], [43.40231100000017, -11.57057199999997], [43.40234500000014, -11.570741999999882], [43.402519000000154, -11.570899999999824], [43.40260000000012, -11.571035999999879], [43.40241400000019, -11.571182999999962], [43.4021810000001, -11.571284999999875], [43.40204200000011, -11.571352999999931], [43.401902000000064, -11.571295999999904], [43.401891000000035, -11.571081999999933], [43.4017520000001, -11.571001999999908], [43.40169400000008, -11.570979999999963], [43.40155400000009, -11.571058999999934], [43.40140300000019, -11.570945999999878], [43.40129900000011, -11.570911999999907], [43.401194000000146, -11.571024999999963], [43.40111300000018, -11.570957999999905], [43.40091500000011, -11.57117299999993], [43.40077600000018, -11.571149999999875], [43.40057800000011, -11.57118399999996], [43.400439000000176, -11.571149999999875], [43.40019400000017, -11.571184999999957], [43.40004399999998, -11.571104999999818], [43.39986900000008, -11.5712529999999], [43.39976400000012, -11.571455999999898], [43.3995900000001, -11.571478999999954], [43.39926400000013, -11.571433999999954], [43.39906700000017, -11.571331999999927], [43.39885800000013, -11.571433999999954], [43.39872900000012, -11.571626999999921], [43.39865900000018, -11.571909999999889], [43.39871700000015, -11.572067999999831], [43.398728000000176, -11.572169999999915], [43.398844, -11.572327999999914], [43.39868100000001, -11.57247499999994], [43.398553000000106, -11.572678999999937], [43.39852900000005, -11.572870999999907], [43.39844800000009, -11.572938999999963], [43.3983080000001, -11.573017999999934], [43.398122000000114, -11.573130999999933], [43.398040000000094, -11.57322199999993], [43.39787700000011, -11.573402999999871], [43.39779599999997, -11.573606999999981], [43.397772000000145, -11.573775999999839], [43.39781800000003, -11.574058999999977], [43.39809600000012, -11.574341999999945], [43.39827000000014, -11.574567999999886], [43.39840900000007, -11.574782999999911], [43.39840900000007, -11.574951999999882], [43.39840800000019, -11.575121999999908], [43.39833800000008, -11.575268999999935], [43.398198000000036, -11.575426999999934], [43.39803500000005, -11.575574999999901], [43.398093000000074, -11.57567599999993], [43.39822100000015, -11.5758229999999], [43.39823200000018, -11.575958999999898], [43.39823200000018, -11.576116999999897], [43.39819600000004, -11.57642299999992], [43.39813800000002, -11.57653599999992], [43.398033000000055, -11.576705999999888], [43.39798600000006, -11.576784999999916], [43.39798600000006, -11.576897999999971], [43.39793900000012, -11.576976999999943], [43.397858000000156, -11.57701099999997], [43.39781100000016, -11.577135999999939], [43.397776000000135, -11.577248999999938], [43.39763600000009, -11.577440999999965], [43.39769400000006, -11.577632999999935], [43.39770500000009, -11.577779999999905], [43.39770500000009, -11.57789299999996], [43.397600000000125, -11.578028999999901], [43.39749600000005, -11.578107999999872], [43.397495000000106, -11.578232999999841], [43.3975420000001, -11.578300999999954], [43.397600000000125, -11.578345999999954], [43.39766900000012, -11.578413999999896], [43.39766900000012, -11.578458999999953], [43.397634000000096, -11.578514999999982], [43.39754100000005, -11.578616999999895], [43.39745899999997, -11.57875299999995], [43.39736600000009, -11.578888999999947], [43.39731900000015, -11.578956999999946], [43.39726100000013, -11.579046999999946], [43.39726100000013, -11.579103999999973], [43.39735400000018, -11.579182999999944], [43.397458000000086, -11.579193999999973], [43.39750500000008, -11.579306999999972], [43.39744600000017, -11.579487999999856], [43.39738800000015, -11.57963499999994], [43.39739900000018, -11.579725999999937], [43.397469000000115, -11.57981599999988], [43.397468, -11.579894999999965], [43.397468, -11.579996999999935], [43.397480000000144, -11.580075999999906], [43.39758400000005, -11.58021199999996], [43.39766500000019, -11.58021199999996], [43.39779300000009, -11.580166999999904], [43.397910000000195, -11.580120999999906], [43.3980140000001, -11.580030999999906], [43.398130000000094, -11.580109999999877], [43.398153000000036, -11.580279999999902], [43.398153000000036, -11.580437999999958], [43.398071000000186, -11.580561999999873], [43.398048000000074, -11.58065299999987], [43.39818700000018, -11.580742999999927], [43.39819900000009, -11.580821999999898], [43.398175000000094, -11.580912999999896], [43.39811700000007, -11.580957999999953], [43.39809400000013, -11.581036999999924], [43.398093000000074, -11.58118399999995], [43.398093000000074, -11.581308999999976], [43.398081000000104, -11.581342999999947], [43.39791900000006, -11.581297999999947], [43.397779000000185, -11.581218999999976], [43.39760500000017, -11.581218999999976], [43.39753500000006, -11.581297999999947], [43.397570000000144, -11.581410999999889], [43.39770900000008, -11.581512999999973], [43.39782500000007, -11.581625999999915], [43.39782500000007, -11.581760999999972], [43.397813000000156, -11.581919999999968], [43.39774300000005, -11.582021999999881], [43.39758000000006, -11.582055999999966], [43.39742900000016, -11.582021999999881], [43.39734800000002, -11.58189699999997], [43.39725499999997, -11.58195399999994], [43.397301000000084, -11.582100999999966], [43.39722000000012, -11.58219199999985], [43.39702200000005, -11.582327999999904], [43.39699800000005, -11.582440999999847], [43.39704500000005, -11.582496999999933], [43.397114000000045, -11.582575999999904], [43.39713700000016, -11.58268899999996], [43.39727600000015, -11.58279099999993], [43.397369000000026, -11.582767999999817], [43.39748600000007, -11.58267799999993], [43.39757900000018, -11.582756999999958], [43.39763600000009, -11.582903999999871], [43.39774100000005, -11.582948999999871], [43.39774000000017, -11.58310699999987], [43.39750800000013, -11.583242999999925], [43.39735600000017, -11.583378999999923], [43.39722800000004, -11.583525999999893], [43.39722800000004, -11.583684999999946], [43.39721600000013, -11.583751999999947], [43.397065000000055, -11.583752999999945], [43.39680900000002, -11.58377499999989], [43.39660000000015, -11.583820999999887], [43.39653000000004, -11.583944999999858], [43.396495000000186, -11.584080999999912], [43.396553000000154, -11.584193999999854], [43.396588000000065, -11.584317999999882], [43.39665700000006, -11.58440899999988], [43.39670300000017, -11.584566999999879], [43.396633000000065, -11.584702999999934], [43.396528000000046, -11.58480499999996], [43.39649300000019, -11.584883999999931], [43.396528000000046, -11.58499699999993], [43.39664400000004, -11.585098999999957], [43.39664400000004, -11.585211999999956], [43.39662000000004, -11.585290999999927], [43.39652700000016, -11.585369999999898], [43.39657400000016, -11.585403999999869], [43.39673600000003, -11.585561999999982], [43.39668900000004, -11.585686999999837], [43.39668900000004, -11.585731999999894], [43.39660800000013, -11.585822999999891], [43.39665300000007, -11.586082999999917], [43.396688000000154, -11.586138999999946], [43.39673400000004, -11.586240999999916], [43.39673400000004, -11.586342999999943], [43.396722000000125, -11.586432999999943], [43.39665300000007, -11.586523999999883], [43.39658300000019, -11.586613999999884], [43.39660600000013, -11.586738999999909], [43.39667500000013, -11.586806999999965], [43.396733000000154, -11.586840999999936], [43.39669800000007, -11.586964999999964], [43.39657000000017, -11.587077999999906], [43.39646499999998, -11.587156999999877], [43.39641800000004, -11.587315999999873], [43.39646499999998, -11.587496999999928], [43.396569000000056, -11.5876209999999], [43.39661500000017, -11.587722999999812], [43.39661500000017, -11.587756999999954], [43.39660300000003, -11.58785899999998], [43.39645200000018, -11.58792699999998], [43.396277000000055, -11.588039999999921], [43.396091000000126, -11.588254999999947], [43.39591600000006, -11.588514999999973], [43.39582300000018, -11.588672999999972], [43.39575300000007, -11.58880899999997], [43.39569400000016, -11.589023999999881], [43.39568200000002, -11.58914899999985], [43.39556600000003, -11.589272999999878], [43.39539100000013, -11.589476999999874], [43.39535600000005, -11.58960099999996], [43.39533300000011, -11.5897819999999], [43.39532000000014, -11.589996999999926], [43.39520400000009, -11.590053999999952], [43.39509900000013, -11.590189999999893], [43.39513199999999, -11.59120699999994], [43.395108000000164, -11.591670999999963], [43.394956000000036, -11.591897999999901], [43.394874000000186, -11.592078999999956], [43.39478100000008, -11.592179999999814], [43.394839000000104, -11.592304999999953], [43.394874000000186, -11.592417999999952], [43.39489700000013, -11.592575999999895], [43.39481500000005, -11.592722999999978], [43.39467600000012, -11.592711999999949], [43.394582000000185, -11.592858999999862], [43.394582000000185, -11.592971999999975], [43.39448900000008, -11.59314199999983], [43.3945470000001, -11.593231999999887], [43.394709000000034, -11.593390999999826], [43.39472000000001, -11.593458999999939], [43.39467400000012, -11.593548999999939], [43.394511000000136, -11.593605999999852], [43.394511000000136, -11.593695999999909], [43.39458000000019, -11.593797999999936], [43.39456900000016, -11.593865999999935], [43.39453400000008, -11.593933999999877], [43.39456800000005, -11.594068999999877], [43.39462600000007, -11.594148999999902], [43.39449800000011, -11.594329999999957], [43.394567000000166, -11.594453999999928], [43.39471800000007, -11.594690999999898], [43.39481100000012, -11.594803999999954], [43.39481000000018, -11.59497399999998], [43.394787000000065, -11.59510999999992], [43.39474000000007, -11.595211999999947], [43.394716000000074, -11.595358999999917], [43.39477400000004, -11.595516999999973], [43.394704000000104, -11.595674999999972], [43.39469200000019, -11.595833999999968], [43.394750000000045, -11.59594699999991], [43.39478500000007, -11.596115999999938], [43.39468000000011, -11.596296999999936], [43.394656000000055, -11.596557999999959], [43.39455100000009, -11.596726999999873], [43.39437600000019, -11.596828999999957], [43.39419000000004, -11.596987999999897], [43.39404999999999, -11.59713499999998], [43.393992000000026, -11.59729299999998], [43.393875000000094, -11.597473999999977], [43.393875000000094, -11.597643999999889], [43.394002000000114, -11.597824999999943], [43.394130000000075, -11.597892999999885], [43.39429200000012, -11.59821999999997], [43.39445400000005, -11.598412999999937], [43.39437200000003, -11.598717999999963], [43.394347000000096, -11.599690999999893], [43.394347000000096, -11.599814999999865], [43.394474000000116, -11.600006999999948], [43.394567000000166, -11.600074999999947], [43.39474100000018, -11.600108999999918], [43.39489300000014, -11.599927999999977], [43.39495100000016, -11.59983699999998], [43.39513600000015, -11.600040999999976], [43.395311000000106, -11.600119999999947], [43.39525199999997, -11.600345999999831], [43.395425999999986, -11.600526999999886], [43.39577400000019, -11.600548999999944], [43.39599500000003, -11.60067399999997], [43.39582000000007, -11.60095599999994], [43.39534400000014, -11.600967999999966], [43.395262000000116, -11.601137999999878], [43.39563400000014, -11.601103999999907], [43.39572600000014, -11.601340999999934], [43.39563300000009, -11.60146599999996], [43.3954700000001, -11.601566999999875], [43.39515600000004, -11.60156799999993], [43.395168000000126, -11.601782999999955], [43.39543500000002, -11.601815999999872], [43.39543500000002, -11.601917999999955], [43.3952020000001, -11.602064999999868], [43.39542200000005, -11.60222299999998], [43.39555000000013, -11.60232499999995], [43.39541000000008, -11.602517999999975], [43.39539800000017, -11.602664999999945], [43.395456000000195, -11.60292499999997], [43.3955600000001, -11.603218999999967], [43.39568700000012, -11.603365999999937], [43.395885000000135, -11.603387999999882], [43.39607000000018, -11.603421999999966], [43.39639600000015, -11.603341999999941], [43.39693000000011, -11.603465999999969], [43.39732500000008, -11.603657999999939], [43.39734800000002, -11.603748999999937], [43.39712700000007, -11.603940999999907], [43.39712700000007, -11.604031999999904], [43.397603000000174, -11.604031999999904], [43.397637000000145, -11.6044839999999], [43.397032000000195, -11.604732999999896], [43.396927000000005, -11.604823999999951], [43.39696200000009, -11.604891999999893], [43.39782200000019, -11.604799999999955], [43.397985000000176, -11.60492499999998], [43.39794900000004, -11.605274999999892], [43.39785500000005, -11.605636999999831], [43.39754100000005, -11.60567199999997], [43.39747100000011, -11.60576199999997], [43.39734300000015, -11.605886999999882], [43.39722700000016, -11.605840999999941], [43.397065000000055, -11.605694999999912], [43.39682100000016, -11.605750999999941], [43.39707500000003, -11.606180999999879], [43.39707500000003, -11.606270999999879], [43.39679600000005, -11.606282999999962], [43.396715000000086, -11.606327999999962], [43.39686600000016, -11.606485999999904], [43.39666800000009, -11.60665599999993], [43.396528000000046, -11.606701999999927], [43.396505000000104, -11.606882999999982], [43.39629500000012, -11.606995999999981], [43.396051, -11.606995999999981], [43.39595800000012, -11.607074999999952], [43.39616700000005, -11.607278999999949], [43.396225000000015, -11.607379999999978], [43.39620100000019, -11.607526999999891], [43.39610800000014, -11.607572999999945], [43.395921999999985, -11.607651999999916], [43.39581700000019, -11.607787999999971], [43.39538700000014, -11.607810999999913], [43.394910000000095, -11.60805999999991], [43.394608000000176, -11.60805999999991], [43.394096000000104, -11.608320999999933], [43.39353800000009, -11.60856999999993], [43.39311900000007, -11.60861499999993], [43.39277100000004, -11.608660999999927], [43.39231700000016, -11.609034999999949], [43.39218900000003, -11.60915899999992], [43.392072000000155, -11.609237999999948], [43.39210700000018, -11.609373999999946], [43.39225800000008, -11.609576999999945], [43.39239600000013, -11.609825999999941], [43.39244200000019, -11.61009799999988], [43.39240700000016, -11.610289999999964], [43.392221000000006, -11.610504999999819], [43.391907000000174, -11.610549999999876], [43.39191700000009, -11.611047999999869], [43.39178900000019, -11.611217999999838], [43.39159200000006, -11.611273999999923], [43.391324000000054, -11.611342999999977], [43.39104500000008, -11.611557999999889], [43.39099800000008, -11.611828999999943], [43.39099700000003, -11.612111999999911], [43.39122900000018, -11.612292999999966], [43.391496000000075, -11.612574999999936], [43.391635000000065, -11.612925999999959], [43.39168000000001, -11.613287999999955], [43.39201700000001, -11.613513999999896], [43.392503999999974, -11.613953999999978], [43.39258500000011, -11.614055999999891], [43.39252600000003, -11.614270999999917], [43.39213100000006, -11.614282999999944], [43.39203700000007, -11.614745999999968], [43.39211800000004, -11.614881999999966], [43.39230400000014, -11.615243999999961], [43.39278000000007, -11.615231999999935], [43.39287300000018, -11.615310999999906], [43.39297700000003, -11.615457999999933], [43.39299900000009, -11.61615999999998], [43.393301000000065, -11.61624999999998], [43.39344000000017, -11.616350999999895], [43.393439000000114, -11.616622999999947], [43.3936020000001, -11.616825999999946], [43.39349700000008, -11.61700699999983], [43.393323000000066, -11.616927999999973], [43.39314800000017, -11.617007999999885], [43.393159000000026, -11.61721099999994], [43.39310100000017, -11.617436999999882], [43.39310100000017, -11.617504999999824], [43.39325100000019, -11.61792399999996], [43.393413000000066, -11.618228999999928], [43.393633000000136, -11.618454999999926], [43.393819000000065, -11.61863599999998], [43.393875000000094, -11.619212999999831], [43.39396800000014, -11.619472999999914], [43.39407200000005, -11.61967599999997], [43.39435100000003, -11.61966499999994], [43.39440900000005, -11.61982299999994], [43.394048000000055, -11.620015999999907], [43.394268000000125, -11.620195999999964], [43.39430300000015, -11.620342999999878], [43.39405800000014, -11.620716999999843], [43.394081000000085, -11.620987999999954], [43.39437100000009, -11.621258999999895], [43.394533000000195, -11.621485999999948], [43.39446300000009, -11.621632999999974], [43.39446300000009, -11.621722999999918], [43.39461300000005, -11.621846999999889], [43.39463599999999, -11.621959999999945], [43.39440300000007, -11.622367999999938], [43.394600000000025, -11.62275199999982], [43.39458800000011, -11.6230579999999], [43.39485500000018, -11.623079999999959], [43.39502900000019, -11.623181999999872], [43.39471400000008, -11.623532999999952], [43.39500499999997, -11.623565999999926], [43.39515600000004, -11.623690999999951], [43.39528300000006, -11.623723999999925], [43.39548100000013, -11.623882999999978], [43.395318000000145, -11.624029999999948], [43.39568900000012, -11.624402999999973], [43.39562999999998, -11.624560999999915], [43.39568800000018, -11.62478699999997], [43.39589700000005, -11.624899999999911], [43.39568700000012, -11.625126999999964], [43.39608200000009, -11.625352999999905], [43.39616300000006, -11.625510999999904], [43.396162000000174, -11.625996999999813], [43.39611500000018, -11.626053999999897], [43.39612600000004, -11.626279999999952], [43.39626500000014, -11.626471999999922], [43.39621800000015, -11.626743999999974], [43.396461000000045, -11.627206999999942], [43.39637899999997, -11.627432999999883], [43.39613500000007, -11.627433999999937], [43.396019000000024, -11.627512999999908], [43.395531000000176, -11.627603999999906], [43.395530000000065, -11.627851999999905], [43.39537900000005, -11.628033999999957], [43.39536700000008, -11.628247999999815], [43.39574900000008, -11.628620999999953], [43.39574900000008, -11.629028999999946], [43.39601500000009, -11.629288999999972], [43.396341000000064, -11.629333999999972], [43.39644500000014, -11.629423999999858], [43.39665400000018, -11.62958199999997], [43.39685100000014, -11.629671999999971], [43.39707100000004, -11.629999999999825], [43.39722200000011, -11.630259999999907], [43.39732500000008, -11.631051999999897], [43.39759100000009, -11.631232999999952], [43.39749800000004, -11.631424999999865], [43.39759100000009, -11.631458999999836], [43.397544000000096, -11.631662999999946], [43.39762500000006, -11.631775999999945], [43.39757800000007, -11.632080999999971], [43.39760100000018, -11.632363999999939], [43.397810000000106, -11.632476999999938], [43.39832100000007, -11.632385999999883], [43.39849500000008, -11.632543999999882], [43.39848300000017, -11.632656999999938], [43.39870300000007, -11.632871999999963], [43.39870300000007, -11.633131999999875], [43.398900000000026, -11.633346999999901], [43.398900000000026, -11.633448999999928], [43.3987140000001, -11.633493999999814], [43.39865500000019, -11.633595999999898], [43.39894600000008, -11.633810999999923], [43.3994100000001, -11.633888999999897], [43.3990960000001, -11.634171999999978], [43.39909500000016, -11.634454999999946], [43.398851000000036, -11.634714999999858], [43.39885000000015, -11.634907999999939], [43.39908200000019, -11.635155999999938], [43.39202800000004, -11.635471999999936], [43.39212900000007, -11.6346759999999], [43.3920050000001, -11.633442999999943], [43.39156100000014, -11.63331999999997], [43.390928000000144, -11.63338199999987], [43.38807600000007, -11.633629999999869], [43.38623900000016, -11.633569999999963], [43.38408700000008, -11.632645999999909], [43.3828850000001, -11.631412999999952], [43.38156300000014, -11.627837999999883], [43.380870000000186, -11.62617299999988], [43.380533000000185, -11.624916999999868], [43.38054000000005, -11.621870999999942], [43.38228700000019, -11.615442999999914], [43.384381000000076, -11.613961999999958], [43.38456200000013, -11.61087299999997], [43.38413900000012, -11.609213999999952], [43.38220500000017, -11.607394999999883], [43.37577500000015, -11.609094999999968], [43.368360000000166, -11.610085999999967], [43.364329000000055, -11.610143999999877], [43.33276300000006, -11.60529699999995], [43.318281000000184, -11.605324999999937], [43.324501, -11.592497999999921], [43.33341200000012, -11.583067999999855], [43.34433900000005, -11.559345999999948], [43.3630280000001, -11.560027999999818], [43.38450000000017, -11.560360999999943]]]}}]}