{"type": "FeatureCollection", "features": [{"type": "Feature", "properties": {"country": "Comoros", "pcode": "KM233", "name": "Hamanvou", "island": "Grande Comore (Ngazidja)"}, "geometry": {"type": "Polygon", "coordinates": [[[43.34708600000016, -11.508717999999874], [43.34911139900015, -11.510914164999974], [43.35049000000009, -11.512408999999934], [43.351103000000194, -11.523449999999968], [43.34433900000005, -11.559345999999948], [43.33341200000012, -11.583067999999855], [43.324501, -11.592497999999921], [43.29413700000015, -11.594688999999903], [43.28891700000008, -11.594388999999978], [43.28210000000007, -11.599210999999968], [43.27866700000004, -11.601638999999977], [43.263278000000014, -11.596388999999874], [43.26243400000004, -11.59607399999993], [43.26242600000006, -11.595941999999866], [43.26221900000019, -11.595755999999938], [43.26220400000017, -11.595615999999893], [43.262308000000075, -11.595359999999914], [43.26250800000008, -11.595095999999955], [43.262517000000116, -11.594754999999964], [43.262708000000146, -11.594753999999966], [43.2628840000001, -11.594683999999972], [43.26320300000003, -11.594660999999917], [43.26330600000006, -11.59459099999998], [43.263410000000135, -11.594473999999877], [43.263442999999995, -11.594303999999966], [43.26331500000009, -11.594179999999824], [43.263317000000086, -11.593325999999934], [43.263159000000144, -11.592875999999933], [43.26303900000016, -11.592673999999931], [43.26294400000012, -11.592494999999928], [43.26296000000019, -11.592355999999882], [43.26305700000006, -11.592083999999943], [43.263137000000086, -11.591974999999877], [43.26328000000001, -11.591850999999963], [43.26338500000003, -11.591617999999926], [43.26344900000015, -11.591500999999937], [43.26356900000013, -11.591329999999914], [43.26369600000015, -11.591244999999901], [43.26386400000001, -11.591174999999964], [43.26404800000017, -11.591065999999898], [43.264183000000116, -11.591065999999898], [43.26426300000003, -11.59112799999997], [43.26440600000012, -11.591228999999885], [43.264542000000176, -11.591158999999891], [43.26472600000011, -11.591057999999975], [43.26472700000005, -11.59054599999996], [43.264759000000026, -11.590304999999944], [43.26487900000018, -11.589916999999957], [43.26488800000004, -11.589706999999919], [43.26483200000018, -11.589652999999885], [43.2648650000001, -11.589334999999949], [43.26479300000017, -11.589287999999954], [43.26480100000009, -11.589147999999852], [43.26496900000018, -11.588961999999981], [43.26502500000015, -11.58888399999995], [43.26502600000009, -11.588751999999943], [43.26490600000011, -11.588526999999885], [43.26482700000014, -11.58842599999997], [43.264739000000134, -11.588363999999899], [43.26461200000011, -11.588371999999936], [43.26453200000003, -11.588441999999873], [43.26439599999998, -11.588387999999952], [43.26439700000009, -11.587999999999965], [43.26466000000016, -11.587944999999877], [43.26465300000012, -11.587758999999949], [43.2644380000001, -11.587479999999971], [43.26444700000013, -11.587129999999945], [43.264591000000166, -11.586826999999914], [43.26469500000002, -11.58660199999997], [43.264815, -11.586361999999895], [43.264983000000086, -11.586135999999954], [43.26511100000016, -11.58598899999987], [43.26520800000003, -11.585483999999894], [43.26508900000016, -11.58537599999994], [43.265113000000156, -11.585204999999917], [43.265113000000156, -11.585002999999972], [43.265337000000045, -11.584854999999834], [43.265401, -11.58480099999997], [43.265210000000025, -11.584699999999884], [43.26517000000007, -11.58458399999995], [43.26546500000018, -11.584489999999903], [43.26563300000004, -11.58438899999993], [43.265729000000135, -11.584295999999938], [43.2656980000001, -11.583876999999916], [43.265946000000156, -11.583589999999958], [43.26603400000016, -11.58313899999996], [43.266260000000045, -11.582230999999979], [43.26638800000012, -11.581842999999935], [43.26640400000002, -11.581717999999967], [43.26654800000006, -11.581484999999873], [43.26669200000009, -11.581275999999889], [43.26685199999997, -11.581088999999963], [43.267044000000055, -11.580949999999916], [43.267275000000154, -11.580793999999912], [43.26730000000009, -11.580646999999828], [43.26748400000008, -11.580482999999845], [43.26777099999998, -11.580319999999858], [43.267843000000084, -11.580187999999964], [43.26800500000019, -11.579139999999938], [43.268101000000115, -11.578953999999896], [43.26811700000019, -11.578798999999947], [43.26796600000017, -11.578541999999914], [43.26800700000018, -11.57815399999987], [43.268015000000105, -11.578029999999899], [43.268135000000086, -11.577874999999949], [43.268056000000115, -11.577656999999874], [43.268176000000096, -11.577486999999849], [43.268176000000096, -11.577276999999981], [43.268328000000054, -11.577082999999902], [43.26813700000008, -11.576958999999931], [43.26814500000006, -11.576872999999921], [43.26825700000006, -11.57667099999992], [43.26805000000019, -11.576546999999948], [43.26798700000012, -11.576453999999899], [43.26798700000012, -11.576337999999964], [43.26817000000017, -11.576220999999975], [43.2682660000001, -11.57611299999985], [43.26825100000008, -11.575902999999869], [43.26801999999998, -11.57563099999993], [43.26802100000009, -11.575460999999905], [43.26778200000018, -11.575274999999976], [43.267806000000064, -11.575095999999974], [43.26772700000009, -11.574901999999838], [43.267855, -11.574746999999888], [43.267799000000025, -11.574583999999902], [43.26803900000016, -11.57438899999994], [43.26803900000016, -11.574163999999882], [43.267936000000134, -11.573962999999935], [43.267936000000134, -11.573752999999954], [43.26779300000004, -11.573729999999955], [43.267753000000084, -11.573659999999904], [43.26803300000017, -11.57352799999984], [43.267810000000054, -11.573403999999869], [43.26783400000005, -11.573325999999895], [43.26820100000003, -11.57323299999996], [43.26824900000014, -11.573053999999956], [43.268322000000126, -11.57268199999993], [43.26852100000008, -11.572626999999898], [43.26864100000006, -11.572548999999924], [43.268721000000085, -11.572362999999882], [43.26885700000014, -11.572183999999936], [43.26885800000008, -11.571834999999908], [43.26915300000013, -11.571500999999898], [43.269154000000015, -11.571259999999938], [43.269027000000165, -11.570786999999882], [43.269076000000155, -11.570243999999889], [43.26890900000018, -11.569994999999892], [43.268981999999994, -11.569808999999964], [43.26882300000017, -11.569560999999965], [43.26895900000005, -11.569397999999978], [43.26887900000003, -11.56926599999997], [43.26887100000005, -11.569164999999884], [43.269087000000184, -11.568969999999979], [43.26913600000012, -11.56861299999997], [43.26926400000008, -11.568426999999929], [43.26928800000013, -11.568154999999877], [43.26940800000011, -11.568022999999812], [43.269520000000114, -11.568007999999963], [43.26969500000001, -11.568131999999935], [43.26984699999997, -11.568131999999935], [43.269942000000015, -11.568022999999812], [43.27003100000013, -11.56765799999988], [43.270159000000035, -11.56751799999995], [43.270335000000046, -11.567377999999906], [43.27055000000007, -11.567315999999948], [43.27061400000002, -11.567167999999924], [43.270615000000134, -11.566997999999899], [43.27051899999998, -11.566764999999975], [43.27062300000006, -11.56663299999991], [43.27061600000019, -11.56650899999994], [43.27047200000004, -11.566500999999903], [43.27032900000006, -11.56626799999998], [43.27009700000008, -11.566384999999968], [43.269906000000105, -11.566578999999876], [43.2698180000001, -11.566609999999969], [43.26980200000003, -11.566400999999871], [43.26966700000003, -11.566268999999977], [43.26985100000013, -11.56613699999997], [43.26985100000013, -11.566004999999905], [43.26991500000014, -11.565817999999979], [43.26977199999999, -11.565670999999895], [43.26977199999999, -11.565600999999958], [43.26984400000009, -11.565507999999909], [43.26985200000007, -11.565437999999972], [43.26962100000014, -11.565336999999943], [43.269614000000104, -11.565197999999839], [43.26969400000013, -11.565088999999944], [43.26969400000013, -11.564793999999893], [43.26979000000006, -11.564692999999977], [43.269782000000134, -11.564575999999875], [43.26949500000018, -11.564514999999972], [43.26951200000019, -11.564420999999925], [43.26967200000007, -11.564149999999813], [43.26967200000007, -11.564055999999937], [43.26944900000012, -11.563955999999905], [43.2694810000001, -11.563893999999948], [43.26979200000005, -11.563861999999972], [43.26992800000011, -11.563745999999867], [43.26990400000011, -11.563535999999885], [43.269737000000134, -11.563302999999962], [43.26959400000004, -11.563202999999874], [43.269379000000185, -11.56321099999991], [43.269315000000006, -11.5631249999999], [43.26921900000008, -11.562985999999967], [43.26915600000018, -11.562868999999978], [43.269068000000004, -11.562798999999927], [43.268486000000166, -11.562814999999944], [43.26830200000006, -11.563016999999945], [43.26820700000019, -11.562985999999967], [43.26808700000004, -11.562892999999974], [43.26797600000009, -11.562784999999849], [43.26787200000018, -11.562675999999954], [43.26768900000013, -11.562636999999938], [43.267530000000136, -11.562489999999968], [43.26749800000016, -11.562318999999945], [43.267283000000134, -11.562380999999903], [43.26725900000008, -11.562202999999897], [43.26713200000006, -11.561992999999973], [43.26720400000016, -11.561721999999975], [43.267014000000074, -11.561441999999943], [43.26694400000014, -11.560557999999958], [43.26680800000008, -11.560487999999964], [43.266745000000185, -11.560324999999978], [43.26633900000019, -11.559889999999939], [43.26642700000019, -11.55978199999987], [43.26641200000017, -11.559532999999874], [43.26632400000017, -11.559455999999898], [43.266356000000144, -11.559214999999938], [43.26611700000012, -11.559168999999883], [43.266222000000084, -11.5587569999999], [43.266166000000055, -11.558609999999817], [43.266087000000084, -11.558422999999891], [43.26606400000014, -11.558190999999965], [43.26618400000012, -11.558027999999979], [43.26599300000015, -11.557825999999977], [43.26624800000013, -11.557537999999852], [43.266185000000064, -11.55735199999998], [43.26628100000016, -11.55727399999995], [43.266226000000074, -11.556792999999914], [43.26613900000012, -11.556629999999927], [43.26620300000013, -11.556427999999926], [43.26606800000013, -11.556156999999871], [43.26614799999999, -11.555993999999885], [43.266085000000146, -11.555768999999941], [43.266133000000025, -11.555519999999945], [43.26610900000014, -11.555457999999874], [43.26609400000018, -11.555263999999966], [43.26593500000013, -11.555061999999964], [43.266087000000084, -11.554867999999885], [43.26592700000003, -11.554735999999934], [43.266032000000166, -11.554487999999822], [43.26575300000019, -11.554254999999898], [43.26570600000019, -11.553983999999957], [43.265769999999975, -11.553781999999956], [43.26561100000015, -11.553486999999961], [43.26571500000006, -11.553261999999904], [43.26561200000009, -11.553043999999886], [43.26566800000006, -11.552834999999902], [43.26563700000003, -11.55266399999988], [43.26539800000012, -11.552399999999977], [43.265438000000074, -11.552221999999915], [43.26532800000018, -11.551825999999835], [43.26544800000016, -11.55148399999996], [43.26537600000006, -11.55138299999993], [43.26540000000011, -11.551281999999958], [43.265258000000074, -11.550948999999946], [43.265162000000146, -11.55078599999996], [43.26521900000006, -11.55056099999996], [43.26528300000018, -11.550358999999958], [43.26521100000008, -11.55028899999985], [43.26522000000011, -11.550086999999905], [43.26520400000004, -11.549884999999904], [43.26514099999997, -11.549644999999941], [43.2652690000001, -11.549248999999975], [43.26499800000005, -11.549093999999911], [43.26494300000013, -11.549046999999916], [43.26507100000009, -11.548891999999967], [43.26523000000009, -11.548805999999956], [43.26523100000014, -11.548378999999898], [43.26543900000013, -11.548262999999906], [43.26550300000008, -11.548145999999974], [43.26561500000014, -11.547943999999973], [43.26561500000014, -11.547843999999941], [43.265512000000115, -11.547594999999944], [43.26562400000017, -11.547540999999853], [43.26570400000003, -11.547439999999938], [43.265640000000076, -11.547299999999893], [43.265569000000085, -11.547082999999873], [43.26571300000006, -11.546989999999937], [43.26570500000014, -11.546647999999948], [43.265546000000086, -11.54651599999994], [43.26564200000007, -11.54645399999987], [43.265834000000154, -11.546360999999933], [43.26593000000008, -11.546267999999941], [43.26597000000004, -11.54605799999996], [43.26580300000006, -11.545972999999947], [43.26586600000013, -11.545910999999876], [43.26585100000011, -11.54573199999993], [43.265763000000106, -11.545607999999959], [43.26577200000014, -11.54548399999993], [43.26588400000003, -11.545382999999902], [43.26593200000008, -11.5451809999999], [43.26622700000013, -11.545149999999978], [43.26642700000019, -11.544869999999833], [43.26642700000019, -11.544776999999954], [43.26627600000012, -11.544745999999975], [43.26618000000019, -11.544683999999961], [43.26618000000019, -11.54460599999993], [43.266364000000124, -11.544411999999966], [43.26646000000005, -11.5443029999999], [43.266525000000115, -11.543868999999972], [43.266398000000095, -11.543565999999942], [43.266629000000194, -11.543378999999902], [43.26663000000008, -11.54326299999991], [43.266518000000076, -11.543215999999916], [43.266694000000086, -11.542990999999972], [43.26670300000012, -11.542796999999894], [43.26654300000018, -11.542734999999936], [43.26651100000004, -11.542664999999886], [43.26668699999999, -11.542439999999942], [43.2666880000001, -11.54235499999993], [43.26663200000007, -11.542082999999877], [43.26654500000018, -11.541942999999947], [43.26663300000018, -11.541841999999917], [43.266697000000136, -11.541577999999959], [43.26672200000007, -11.541150999999957], [43.266563000000076, -11.540980999999931], [43.26658800000018, -11.540615999999943], [43.266405000000134, -11.540266999999915], [43.266396999999984, -11.54007299999995], [43.26627800000011, -11.539979999999957], [43.266270000000134, -11.539831999999876], [43.26615100000009, -11.539808999999934], [43.26600000000019, -11.539583999999877], [43.26606400000014, -11.539467999999886], [43.26596800000004, -11.539257999999904], [43.265785000000164, -11.539086999999881], [43.265778000000125, -11.538869999999974], [43.265649999999994, -11.538745999999946], [43.265651000000105, -11.538683999999932], [43.26581800000008, -11.538527999999928], [43.265819000000135, -11.538411999999823], [43.26571500000006, -11.53835799999996], [43.26558800000004, -11.538310999999908], [43.265468000000055, -11.53817199999986], [43.265285000000176, -11.537922999999864], [43.265334000000166, -11.537410999999963], [43.26534300000003, -11.537208999999962], [43.26515900000004, -11.537107999999932], [43.265248000000156, -11.536913999999967], [43.26504800000009, -11.536851999999953], [43.26500900000008, -11.53678199999996], [43.26508100000018, -11.53670499999987], [43.265240000000176, -11.536727999999925], [43.265399, -11.53678199999996], [43.26545600000014, -11.536572999999976], [43.26548800000012, -11.53638599999988], [43.265512000000115, -11.536183999999935], [43.26541700000007, -11.536067999999943], [43.265426000000105, -11.53577299999995], [43.26558500000016, -11.535624999999982], [43.26553000000001, -11.535547999999892], [43.265546000000086, -11.535384999999906], [43.26570600000019, -11.53520599999996], [43.26570600000019, -11.535019999999918], [43.26580200000018, -11.53495799999996], [43.26589800000011, -11.534825999999953], [43.265834000000154, -11.534724999999924], [43.26583500000004, -11.534460999999965], [43.2660590000001, -11.534289999999828], [43.26617900000008, -11.534157999999934], [43.26624300000003, -11.533971999999892], [43.26646700000009, -11.533730999999932], [43.266482999999994, -11.533512999999914], [43.26665100000008, -11.533411999999942], [43.266659000000175, -11.533093999999892], [43.26680300000004, -11.53296999999992], [43.26697899999999, -11.532813999999917], [43.267179000000056, -11.532705999999962], [43.267179000000056, -11.532441999999946], [43.26746700000007, -11.53231699999992], [43.26770700000003, -11.531936999999914], [43.26770700000003, -11.531687999999917], [43.26782700000018, -11.531571999999926], [43.26782700000018, -11.531509999999912], [43.26798700000012, -11.531346999999926], [43.268012000000056, -11.530981999999938], [43.268108000000154, -11.53084999999993], [43.26798800000017, -11.530693999999926], [43.268068000000085, -11.530600999999933], [43.26800500000019, -11.530414999999948], [43.268157000000144, -11.53028299999994], [43.26825300000007, -11.530165999999952], [43.2680620000001, -11.529995999999812], [43.268206000000134, -11.529793999999981], [43.26816600000018, -11.52959199999998], [43.26816700000006, -11.529288999999949], [43.26828700000004, -11.528962999999976], [43.268439, -11.528745999999956], [43.26842400000004, -11.528543999999954], [43.26836800000018, -11.528357999999912], [43.26841600000006, -11.528217999999981], [43.26836100000014, -11.527945999999929], [43.2685130000001, -11.527829999999938], [43.26860900000008, -11.527782999999943], [43.268721000000085, -11.527549999999849], [43.26885700000014, -11.527386999999862], [43.2689850000001, -11.527207999999973], [43.268897000000095, -11.527091999999982], [43.26883400000003, -11.526936999999918], [43.26910500000008, -11.526780999999971], [43.26918500000011, -11.526749999999822], [43.26931300000007, -11.526470999999901], [43.26940200000013, -11.526190999999926], [43.26953000000003, -11.525926999999854], [43.269906000000105, -11.525468999999873], [43.2700890000001, -11.52523599999995], [43.27027400000014, -11.524948999999935], [43.27058600000004, -11.524381999999889], [43.27058700000009, -11.523930999999891], [43.270691, -11.523861999999951], [43.270906000000025, -11.523837999999955], [43.27106600000013, -11.523682999999892], [43.27127300000001, -11.523488999999927], [43.27146500000009, -11.523270999999909], [43.2716410000001, -11.522983999999951], [43.271641999999986, -11.522657999999979], [43.27177000000012, -11.522525999999914], [43.2717550000001, -11.522098999999912], [43.271859000000006, -11.522012999999902], [43.27194700000018, -11.521919999999966], [43.27212300000019, -11.521639999999877], [43.27212300000019, -11.521515999999906], [43.27217200000018, -11.521166999999934], [43.272124000000076, -11.520987999999932], [43.27220400000016, -11.520809999999926], [43.27238800000009, -11.520692999999937], [43.272532000000126, -11.52056099999993], [43.27251600000005, -11.520397999999943], [43.27234900000008, -11.52007999999995], [43.27235800000011, -11.519714999999962], [43.27259000000009, -11.519419999999968], [43.27256700000015, -11.519209999999816], [43.272527000000025, -11.519039999999961], [43.272591000000034, -11.51883799999996], [43.27241600000008, -11.518689999999935], [43.272408000000155, -11.51858199999998], [43.27242500000011, -11.518511999999873], [43.272632000000044, -11.518394999999884], [43.272752000000025, -11.518301999999892], [43.27281600000015, -11.518154999999922], [43.2728800000001, -11.51795999999996], [43.27317600000009, -11.517835999999818], [43.27322399999997, -11.517812999999933], [43.27321600000005, -11.517680999999982], [43.27311200000014, -11.517532999999958], [43.2732640000001, -11.517346999999859], [43.27327300000013, -11.517237999999963], [43.27348800000016, -11.517059999999901], [43.27354500000007, -11.516872999999975], [43.27365600000019, -11.516740999999968], [43.273633000000075, -11.516562999999906], [43.27374500000013, -11.516507999999874], [43.27394400000003, -11.516398999999922], [43.27412800000019, -11.516274999999894], [43.27420000000012, -11.516142999999886], [43.27421700000008, -11.515622999999948], [43.27438500000011, -11.515544999999975], [43.274608000000114, -11.515397999999891], [43.274784000000125, -11.515272999999922], [43.27489700000001, -11.514845999999977], [43.275041000000044, -11.514387999999883], [43.27511500000014, -11.513564999999915], [43.274828000000184, -11.513487999999938], [43.274828000000184, -11.513401999999928], [43.27852800000011, -11.513610999999912], [43.28743900000018, -11.513827999999933], [43.29072100000013, -11.514368999999931], [43.2995140000001, -11.516775999999936], [43.30700300000012, -11.52063099999998], [43.31058899999999, -11.524306999999908], [43.312379000000135, -11.527260999999896], [43.31436000000008, -11.527741999999932], [43.320619000000136, -11.527436999999907], [43.32167400000003, -11.526531999999975], [43.323484000000064, -11.520922999999982], [43.325553000000184, -11.509644999999864], [43.326857000000075, -11.508799999999951], [43.33336099999997, -11.507999999999981], [43.34142000000014, -11.507645999999909], [43.34708600000016, -11.508717999999874]]]}}]}