{"type": "FeatureCollection", "features": [{"type": "Feature", "properties": {"country": "Comoros", "pcode": "KM323", "name": "Moimbassa", "island": "Moh\u00e9li (Mwali)"}, "geometry": {"type": "Polygon", "coordinates": [[[43.657398, -12.249927999999954], [43.65760300000011, -12.249987999999973], [43.65812000000005, -12.249430999999959], [43.65813500000007, -12.249283999999875], [43.6583480000001, -12.249254999999948], [43.65850800000004, -12.249601999999982], [43.65870600000005, -12.24996399999992], [43.65867200000008, -12.250189999999975], [43.658745000000124, -12.250442999999962], [43.65877600000016, -12.250552999999968], [43.6588440000001, -12.250553999999966], [43.658958000000155, -12.250494999999887], [43.65909500000009, -12.250466999999958], [43.659164000000146, -12.250871999999902], [43.65936200000016, -12.251012999999944], [43.659515000000056, -12.251146999999946], [43.65962800000017, -12.251091999999915], [43.659739000000116, -12.250963999999954], [43.65983400000016, -12.250973999999928], [43.65984500000019, -12.25106599999998], [43.659705000000145, -12.251275999999962], [43.65962400000018, -12.25156899999996], [43.659608000000105, -12.251798999999949], [43.65953400000018, -12.251953999999898], [43.65959500000008, -12.252348999999981], [43.659739000000116, -12.252504999999928], [43.659787000000165, -12.25255999999996], [43.65990100000016, -12.252587999999946], [43.66028800000004, -12.252552999999978], [43.66047700000007, -12.252525999999875], [43.660520000000076, -12.252505999999926], [43.66057700000016, -12.252635999999939], [43.66074900000018, -12.252691999999968], [43.66086300000018, -12.252661999999873], [43.66103700000019, -12.252537999999902], [43.66114399999998, -12.252486999999974], [43.66130499999997, -12.252479999999935], [43.66122000000007, -12.252921999999955], [43.661113000000114, -12.253383999999926], [43.66110000000009, -12.253977999999961], [43.6610290000001, -12.254205999999897], [43.66093599999999, -12.254411999999888], [43.660751000000175, -12.254853999999966], [43.660631000000194, -12.255246999999883], [43.66037400000005, -12.255528999999967], [43.660310000000095, -12.255769999999814], [43.66006800000014, -12.256093999999962], [43.66004000000015, -12.25621099999995], [43.66008300000016, -12.25625999999994], [43.66020400000019, -12.25635699999998], [43.66033300000004, -12.256529999999884], [43.6606470000001, -12.256842999999947], [43.66109700000004, -12.257113999999888], [43.66177500000015, -12.257531999999856], [43.662596000000065, -12.25808799999993], [43.662824000000114, -12.258171999999945], [43.66296700000004, -12.258165999999903], [43.66326000000009, -12.25808399999994], [43.66333100000014, -12.257966999999951], [43.66333700000007, -12.257413999999926], [43.66343000000012, -12.257310999999959], [43.66382200000004, -12.257146999999975], [43.6644280000001, -12.256969999999967], [43.664714000000174, -12.25702699999988], [43.664871000000176, -12.257165999999927], [43.6651490000001, -12.257187999999815], [43.666276000000096, -12.257365999999877], [43.668046000000174, -12.257359999999835], [43.66827400000017, -12.257187999999815], [43.66854500000005, -12.257106999999962], [43.668816000000106, -12.257093999999938], [43.669222000000104, -12.25691699999993], [43.66990700000014, -12.256587999999908], [43.670634000000064, -12.25616999999994], [43.671090000000106, -12.25589599999995], [43.67152500000003, -12.255669999999952], [43.672117000000185, -12.255423999999948], [43.67274400000019, -12.254963999999916], [43.67283000000003, -12.254970999999955], [43.672958000000165, -12.255081999999902], [43.67297300000013, -12.25544199999996], [43.67300900000009, -12.255455999999924], [43.67322900000016, -12.255166999999915], [43.67331500000017, -12.254904999999894], [43.673514000000125, -12.254822999999874], [43.67367100000018, -12.254912999999874], [43.673993000000166, -12.255135999999936], [43.674171000000115, -12.255315999999823], [43.67439300000001, -12.25561399999998], [43.67463600000008, -12.25581499999987], [43.67495000000014, -12.256058999999937], [43.675371000000155, -12.256288999999924], [43.67583500000018, -12.25653199999988], [43.67642799999999, -12.257045999999946], [43.67650700000013, -12.257239999999854], [43.67694200000011, -12.257635999999934], [43.67713500000008, -12.257732999999973], [43.677813000000015, -12.258164999999906], [43.67815500000006, -12.257979999999975], [43.67840500000017, -12.257987999999898], [43.67849800000005, -12.25822299999993], [43.678612000000044, -12.258216999999945], [43.67861900000008, -12.258043999999927], [43.67871200000019, -12.257995999999878], [43.67879000000005, -12.258044999999925], [43.6788830000001, -12.258210999999903], [43.67894800000016, -12.258224999999982], [43.6790400000001, -12.25812899999994], [43.67912600000011, -12.258184999999969], [43.67921899999999, -12.25827499999997], [43.67943300000013, -12.258275999999967], [43.67971800000009, -12.257993999999883], [43.67985400000015, -12.25813299999993], [43.67993200000001, -12.258146999999951], [43.680003000000056, -12.258043999999927], [43.68023200000016, -12.258092999999974], [43.680410000000165, -12.25832199999985], [43.68063200000006, -12.258460999999954], [43.68125300000008, -12.258732999999836], [43.68206600000019, -12.258936999999946], [43.68283700000006, -12.259050999999943], [43.68466300000017, -12.259176999999966], [43.68531900000005, -12.259083999999916], [43.68531200000018, -12.258861999999851], [43.68540500000006, -12.258772999999962], [43.68548300000015, -12.258786999999927], [43.685512000000074, -12.259187999999824], [43.68580500000013, -12.259437999999818], [43.68714700000015, -12.260086999999942], [43.68766800000009, -12.260371999999904], [43.68950200000012, -12.260953999999913], [43.68988800000011, -12.260955999999908], [43.69030100000015, -12.26081899999997], [43.69060800000017, -12.260841999999968], [43.69219200000015, -12.261345999999946], [43.693890000000124, -12.26137499999993], [43.69456200000013, -12.261187999999947], [43.69513100000012, -12.260841999999968], [43.695474000000104, -12.260877999999934], [43.69648800000016, -12.261683999999946], [43.69695100000007, -12.261706999999944], [43.69725100000005, -12.261790999999903], [43.697401000000184, -12.261936999999818], [43.69768000000016, -12.262282999999911], [43.69779399999999, -12.262386999999933], [43.69797200000016, -12.262477999999817], [43.69855100000012, -12.262659999999926], [43.69912900000014, -12.262842999999975], [43.69985000000014, -12.263211999999953], [43.7000020000001, -12.263389999999958], [43.70019700000006, -12.263635999999963], [43.700498000000096, -12.263890999999944], [43.7007210000001, -12.264013999999975], [43.700994000000094, -12.264193999999975], [43.7012170000001, -12.264335999999957], [43.70152800000005, -12.264619999999923], [43.701869000000045, -12.264912999999922], [43.70215100000007, -12.26523399999985], [43.702403000000174, -12.265497999999923], [43.70267600000017, -12.26570599999991], [43.70307400000007, -12.266093999999953], [43.7034240000001, -12.266405999999904], [43.703755000000115, -12.266716999999971], [43.704114000000175, -12.266991999999902], [43.70445500000011, -12.267227999999875], [43.70487300000008, -12.267511999999954], [43.70520300000004, -12.267720999999938], [43.70570800000007, -12.267920999999944], [43.70602900000017, -12.268081999999936], [43.70639800000015, -12.268224999999973], [43.70679700000011, -12.268404999999916], [43.70710700000018, -12.268500999999958], [43.707341000000156, -12.268538999999919], [43.707778000000076, -12.268578999999932], [43.708040000000096, -12.268842999999947], [43.70838000000015, -12.268844999999942], [43.70864200000017, -12.268873999999926], [43.70881700000007, -12.268912999999941], [43.70903100000004, -12.269044999999949], [43.709235000000035, -12.269215999999972], [43.709585000000004, -12.269367999999929], [43.70982800000007, -12.269424999999956], [43.71014800000006, -12.269510999999966], [43.71051700000004, -12.269540999999947], [43.71080600000016, -12.269643999999971], [43.71085500000015, -12.26966399999992], [43.71082700000011, -12.26989199999997], [43.70849399999997, -12.285113999999908], [43.70433500000013, -12.288660999999934], [43.68821400000013, -12.305733999999916], [43.68574100000018, -12.304157999999973], [43.68483700000013, -12.30337099999997], [43.683742000000166, -12.302445999999918], [43.683076000000085, -12.301797999999962], [43.682647000000145, -12.300599999999918], [43.68202800000006, -12.299860999999908], [43.680981000000145, -12.298843999999974], [43.680457000000104, -12.297414999999944], [43.679457000000184, -12.296258999999964], [43.67845800000009, -12.295702999999946], [43.67774500000007, -12.295468999999969], [43.6771270000001, -12.295465999999976], [43.67641400000008, -12.295692999999915], [43.67603400000007, -12.29555299999987], [43.674130000000105, -12.293565999999885], [43.67332200000004, -12.29291799999993], [43.67260800000014, -12.292545999999959], [43.671848000000125, -12.292496999999969], [43.67137200000019, -12.29217299999982], [43.67084799999998, -12.291571999999917], [43.67027800000011, -12.291154999999947], [43.66956400000015, -12.290691999999922], [43.66875500000003, -12.290043999999966], [43.66742400000004, -12.289668999999947], [43.666853, -12.289068999999927], [43.66604500000017, -12.288880999999947], [43.66499900000008, -12.288829999999962], [43.66428600000006, -12.288642999999979], [43.66419000000013, -12.288135999999952], [43.66399900000016, -12.287490999999932], [43.66309400000006, -12.286105999999904], [43.66242900000009, -12.285688999999877], [43.661715000000186, -12.285317999999904], [43.66109700000004, -12.285130999999978], [43.66057400000011, -12.285081999999932], [43.66019300000016, -12.284711999999956], [43.65957500000019, -12.284248999999932], [43.65933700000005, -12.283833999999956], [43.659051000000034, -12.282957999999951], [43.65857400000016, -12.28217399999994], [43.65600500000005, -12.280182999999965], [43.65571900000003, -12.279399999999896], [43.65524300000004, -12.278890999999874], [43.653388000000064, -12.277915999999948], [43.65276899999998, -12.276854999999898], [43.64877400000006, -12.274305999999967], [43.64767900000004, -12.273103999999876], [43.64587100000017, -12.271806999999967], [43.6394380000001, -12.270141999999964], [43.63418800000005, -12.26941899999997], [43.62721800000014, -12.266047999999955], [43.62712800000014, -12.266025999999897], [43.627096000000165, -12.265941999999882], [43.6269430000001, -12.265564999999981], [43.62675300000018, -12.265247999999929], [43.62662300000011, -12.264944999999898], [43.62650100000013, -12.264553999999976], [43.62641700000012, -12.26431799999989], [43.626439000000175, -12.26373599999988], [43.626476000000025, -12.263434999999959], [43.62652900000012, -12.26330999999982], [43.62671900000004, -12.263140999999962], [43.62679500000013, -12.26309699999996], [43.62688700000007, -12.263104999999825], [43.627009000000044, -12.263119999999901], [43.62719900000013, -12.263098999999954], [43.627313000000186, -12.263077999999894], [43.62741900000003, -12.262974999999813], [43.62755600000003, -12.262842999999975], [43.6276620000001, -12.26268099999993], [43.62786699999998, -12.262593999999979], [43.62801200000007, -12.262542999999937], [43.62822500000016, -12.26241099999993], [43.62830800000006, -12.262271999999825], [43.628597000000184, -12.261948999999902], [43.62874900000014, -12.261860999999897], [43.629106000000036, -12.261700999999903], [43.62920500000001, -12.261605999999972], [43.62922000000003, -12.261362999999903], [43.62937200000016, -12.261252999999954], [43.62944800000008, -12.261274999999841], [43.629509000000155, -12.26132699999988], [43.62956200000008, -12.261275999999839], [43.62970700000017, -12.26126899999997], [43.62986599999999, -12.261129999999923], [43.630125000000135, -12.260806999999943], [43.630413000000146, -12.26052099999987], [43.63044300000013, -12.260226999999816], [43.630390000000034, -12.259909999999877], [43.630214000000194, -12.259429999999952], [43.63022900000004, -12.25918699999994], [43.63030500000008, -12.259106999999972], [43.63053300000013, -12.259114999999895], [43.63056300000011, -12.258959999999945], [43.630693000000065, -12.258820999999898], [43.630913000000135, -12.258578999999884], [43.63105000000013, -12.25858699999992], [43.631301000000065, -12.258528999999896], [43.6314000000001, -12.258448999999871], [43.63136100000008, -12.258293999999921], [43.63120100000015, -12.25804299999993], [43.631231000000184, -12.257696999999894], [43.63133000000016, -12.25761599999987], [43.63153600000015, -12.257660999999871], [43.63167200000004, -12.257683999999927], [43.631802000000164, -12.257477999999935], [43.63180100000005, -12.257278999999869], [43.63176300000015, -12.256932999999947], [43.63203400000015, -12.25685199999998], [43.63224700000001, -12.257244999999898], [43.632486000000085, -12.25759899999997], [43.632699000000116, -12.25789199999997], [43.632799000000034, -12.25788099999994], [43.63283600000011, -12.257747999999935], [43.63324700000015, -12.257425999999953], [43.633498000000145, -12.257235999999978], [43.63342100000017, -12.2567489999999], [43.63330700000017, -12.256534999999872], [43.633367000000135, -12.256439999999827], [43.63352700000007, -12.25641799999994], [43.633534999999995, -12.256631999999968], [43.63361100000009, -12.256690999999876], [43.63370200000014, -12.256676999999968], [43.63378100000011, -12.256667999999934], [43.6338320000001, -12.256743999999912], [43.633748000000026, -12.256772999999953], [43.63373100000007, -12.256856999999968], [43.633771000000195, -12.25698599999987], [43.633942000000104, -12.25704799999994], [43.63419800000014, -12.257238999999856], [43.63443400000017, -12.257438999999977], [43.63458600000013, -12.257630999999947], [43.63467700000018, -12.257741999999894], [43.63524000000007, -12.257707999999923], [43.63525500000003, -12.257456999999931], [43.63535400000006, -12.257354999999961], [43.63567400000005, -12.257444999999848], [43.63580300000007, -12.25738599999994], [43.63591700000012, -12.257246999999893], [43.63598500000006, -12.257055999999977], [43.63633500000003, -12.257034999999917], [43.63642400000015, -12.257208999999932], [43.63686000000013, -12.257309999999961], [43.6372760000001, -12.257515999999953], [43.63739300000003, -12.257429999999943], [43.63839700000011, -12.25731699999983], [43.638906000000134, -12.257318999999882], [43.6398650000001, -12.257640999999978], [43.640162000000146, -12.25769299999996], [43.64029900000014, -12.257568999999876], [43.64064100000019, -12.257179999999948], [43.64090700000014, -12.257423999999958], [43.640999000000136, -12.257645999999966], [43.64112800000015, -12.25782299999986], [43.641357000000085, -12.257882999999936], [43.641532000000154, -12.258060999999941], [43.64185900000007, -12.258061999999939], [43.641958000000045, -12.258113999999978], [43.642011000000025, -12.257988999999895], [43.64235300000007, -12.257879999999943], [43.642840000000035, -12.257683999999927], [43.64334200000019, -12.257442999999967], [43.64423900000014, -12.256849999999929], [43.64445900000004, -12.256666999999936], [43.64463400000017, -12.256505999999945], [43.64486900000003, -12.256359999999972], [43.64505200000008, -12.256198999999981], [43.64513500000004, -12.256065999999976], [43.64505900000012, -12.255947999999876], [43.64473900000013, -12.255570999999975], [43.64473900000013, -12.25520299999988], [43.644898000000126, -12.25503399999991], [43.644904999999994, -12.254628999999909], [43.64472200000017, -12.254333999999915], [43.64453900000012, -12.254155999999853], [43.64425800000015, -12.253896999999938], [43.64426500000019, -12.25371999999993], [43.644349000000034, -12.253602999999941], [43.644547000000046, -12.253787999999872], [43.644547000000046, -12.253986999999881], [43.64460800000012, -12.25403899999992], [43.64484400000009, -12.25409899999994], [43.64504200000016, -12.254231999999945], [43.64514800000006, -12.254386999999952], [43.64525500000019, -12.25440199999997], [43.645392000000186, -12.254350999999929], [43.64543700000013, -12.254240999999979], [43.645384000000035, -12.254056999999932], [43.64538300000015, -12.25357799999989], [43.64531499999998, -12.253503999999907], [43.645306000000176, -12.253039999999885], [43.645436000000075, -12.253032999999903], [43.64541200000002, -12.252487999999971], [43.645556000000056, -12.252326999999866], [43.64567100000016, -12.252334999999903], [43.6458080000001, -12.252430999999945], [43.645777000000066, -12.252599999999973], [43.64579300000014, -12.252806999999962], [43.64593000000008, -12.252836999999943], [43.64615800000013, -12.252586999999949], [43.646280000000104, -12.252602999999965], [43.646493000000135, -12.25288299999994], [43.64659200000017, -12.252912999999921], [43.64672900000011, -12.252854999999954], [43.64710000000008, -12.25274899999988], [43.647412000000145, -12.252584999999897], [43.64777500000014, -12.252358999999956], [43.64781599999998, -12.252329999999915], [43.64788400000009, -12.252189999999814], [43.648036000000104, -12.25199199999986], [43.648051000000066, -12.25182999999987], [43.64815700000014, -12.251697999999976], [43.64834000000019, -12.251484999999832], [43.64839300000011, -12.251241999999877], [43.64843800000011, -12.2509629999999], [43.648559000000034, -12.250734999999963], [43.64871100000016, -12.250550999999916], [43.64889400000004, -12.250470999999948], [43.64905300000004, -12.250471999999945], [43.64915200000007, -12.250501999999926], [43.64929700000016, -12.250634999999932], [43.64948700000008, -12.250443999999959], [43.64973800000001, -12.250430999999935], [43.64991300000014, -12.2505349999999], [43.65004300000004, -12.250593999999921], [43.65015700000009, -12.250564999999938], [43.65030100000007, -12.250499999999931], [43.65031600000009, -12.2502419999999], [43.65041500000012, -12.250183999999933], [43.650658000000135, -12.25018499999993], [43.650788000000034, -12.250221999999951], [43.650796000000184, -12.250523999999814], [43.650788000000034, -12.250825999999904], [43.65091000000018, -12.250862999999981], [43.651275, -12.250606999999945], [43.651404000000014, -12.250607999999943], [43.651450000000125, -12.2509179999999], [43.651420000000144, -12.251064999999812], [43.651405000000125, -12.251167999999893], [43.65145100000018, -12.251226999999972], [43.65177100000005, -12.251493999999866], [43.652014000000065, -12.25172299999997], [43.652182000000096, -12.2519079999999], [43.65234200000003, -12.252165999999932], [43.6525170000001, -12.252291999999898], [43.652540000000045, -12.252446999999847], [43.652753000000075, -12.25262499999991], [43.65280700000011, -12.252720999999951], [43.65289799999999, -12.252919999999904], [43.65454300000005, -12.25295199999988], [43.654640000000086, -12.252817999999877], [43.655073000000016, -12.251964999999927], [43.655126000000166, -12.251884999999959], [43.6554450000001, -12.25156899999996], [43.65586300000001, -12.251091999999915], [43.65607500000016, -12.250776999999971], [43.65615100000008, -12.250548999999921], [43.65615000000014, -12.250076999999862], [43.656500000000165, -12.249658999999895], [43.65655200000003, -12.249025999999958], [43.65665900000016, -12.248952999999858], [43.656780000000026, -12.248945999999876], [43.65684900000008, -12.249063999999976], [43.65684200000004, -12.249697999999967], [43.65712900000017, -12.249743999999907], [43.657398, -12.249927999999954]]]}}]}