{"type": "FeatureCollection", "features": [{"type": "Feature", "properties": {"country": "Comoros", "pcode": "KM262", "name": "Cembenoi Sada Djoulamlima", "island": "Grande Comore (Ngazidja)"}, "geometry": {"type": "Polygon", "coordinates": [[[43.33719300000013, -11.371426999999926], [43.33829500000019, -11.377680999999939], [43.35332000000011, -11.381003999999962], [43.36019400000009, -11.394055999999978], [43.36291700000015, -11.39958299999995], [43.36694700000015, -11.412458999999956], [43.35533300000003, -11.453055999999947], [43.35172200000005, -11.44827799999996], [43.33692800000006, -11.416978999999913], [43.33244400000012, -11.404443999999899], [43.32550000000009, -11.390055999999959], [43.3227500000001, -11.380693999999892], [43.3230660000001, -11.372919999999908], [43.323313000000155, -11.372842999999932], [43.32397500000019, -11.37277199999994], [43.32449400000013, -11.372709999999927], [43.32498000000004, -11.372747999999888], [43.32521900000012, -11.372770999999943], [43.32552200000009, -11.372887999999932], [43.325801000000126, -11.37301199999996], [43.32611900000012, -11.373189999999965], [43.3263980000001, -11.373359999999877], [43.32657400000011, -11.373414999999909], [43.326813000000186, -11.373406999999872], [43.326988000000085, -11.373367999999857], [43.327203999999995, -11.373235999999963], [43.327428000000054, -11.37306499999994], [43.32757200000009, -11.372862999999882], [43.32766800000002, -11.37252099999995], [43.32779600000015, -11.372233999999821], [43.32798800000006, -11.371829999999875], [43.32823600000012, -11.371581999999876], [43.32846000000001, -11.371355999999935], [43.32867500000003, -11.37129399999992], [43.32901100000015, -11.371254999999906], [43.32934600000016, -11.371184999999969], [43.32960900000006, -11.371083999999883], [43.32985600000006, -11.37096699999995], [43.32996800000012, -11.370958999999914], [43.33019900000005, -11.371090999999922], [43.33056500000009, -11.371393999999952], [43.33102700000012, -11.371664999999894], [43.33133800000013, -11.371788999999922], [43.331729000000166, -11.37192099999993], [43.33197600000017, -11.371950999999854], [43.33226300000007, -11.371896999999933], [43.33259000000015, -11.371771999999964], [43.332950000000096, -11.37153899999987], [43.33320500000008, -11.371367999999904], [43.33355700000004, -11.371103999999946], [43.333876000000146, -11.370893999999964], [43.33415500000012, -11.370769999999936], [43.334331000000134, -11.370738999999844], [43.33465000000007, -11.37081599999982], [43.334881000000166, -11.370916999999906], [43.33527900000007, -11.371009999999956], [43.33548700000006, -11.371094999999968], [43.33565399999998, -11.371234999999956], [43.33575700000017, -11.37137399999989], [43.33579700000013, -11.371536999999876], [43.33588400000019, -11.371660999999904], [43.336251000000175, -11.37157599999989], [43.33669000000009, -11.371551999999951], [43.33719300000013, -11.371426999999926]]]}}]}