{"type": "FeatureCollection", "features": [{"type": "Feature", "properties": {"country": "Comoros", "pcode": "KM263", "name": "Mitsamiouli", "island": "Grande Comore (Ngazidja)"}, "geometry": {"type": "Polygon", "coordinates": [[[43.32550000000009, -11.390055999999959], [43.31930600000004, -11.396249999999952], [43.29991700000005, -11.396027999999887], [43.29277800000017, -11.39677799999987], [43.28519400000005, -11.402916999999945], [43.28522200000009, -11.413305999999977], [43.28313900000006, -11.422471999999857], [43.27541700000006, -11.42391699999996], [43.269853000000126, -11.423003999999821], [43.269853000000126, -11.422895999999923], [43.270061999999996, -11.422328999999934], [43.270061999999996, -11.422211999999945], [43.26992600000011, -11.422087999999974], [43.26980700000007, -11.421963999999832], [43.26982400000003, -11.421715999999833], [43.269879000000174, -11.42169999999993], [43.27000700000008, -11.421583999999939], [43.27009500000008, -11.421489999999949], [43.27017500000011, -11.421357999999941], [43.26999300000017, -11.420892999999921], [43.270025000000146, -11.420744999999954], [43.270264000000054, -11.42066699999998], [43.27020100000016, -11.420550999999875], [43.27028900000016, -11.420426999999847], [43.27016200000014, -11.420278999999937], [43.27016200000014, -11.419960999999944], [43.27029900000008, -11.41944899999993], [43.27049900000014, -11.41932399999996], [43.27059400000019, -11.419253999999967], [43.27071400000017, -11.419152999999937], [43.27081800000002, -11.418989999999951], [43.27081900000013, -11.418555999999853], [43.270708000000184, -11.418430999999885], [43.27070000000003, -11.418337999999949], [43.27079600000019, -11.418252999999936], [43.27071700000005, -11.418035999999972], [43.2708530000001, -11.417840999999953], [43.27072499999997, -11.417646999999931], [43.270813000000146, -11.417507999999827], [43.270734000000004, -11.417359999999917], [43.27094200000016, -11.417095999999844], [43.27082300000012, -11.417010999999889], [43.27081500000014, -11.416793999999982], [43.270999000000074, -11.416668999999956], [43.27102300000013, -11.416482999999914], [43.27093500000012, -11.416459999999972], [43.27092000000016, -11.415985999999918], [43.27108000000004, -11.415838999999949], [43.271041000000025, -11.415605999999912], [43.27110500000015, -11.415480999999886], [43.2710100000001, -11.415147999999931], [43.270970000000034, -11.4150699999999], [43.27117000000004, -11.414883999999972], [43.27110600000009, -11.414805999999885], [43.27117000000004, -11.414665999999954], [43.27104300000019, -11.414510999999834], [43.271004000000175, -11.41437099999996], [43.27106800000013, -11.413998999999933], [43.27126000000004, -11.413897999999904], [43.27145900000016, -11.413788999999952], [43.27153200000015, -11.41360299999991], [43.27168300000005, -11.413431999999887], [43.27177900000015, -11.413322999999934], [43.27186800000004, -11.413143999999875], [43.27207600000003, -11.41284899999988], [43.27237900000006, -11.412654999999916], [43.27265100000017, -11.41237499999994], [43.27277900000013, -11.412227999999914], [43.27289100000013, -11.412048999999968], [43.273146999999994, -11.4117379999999], [43.273266999999976, -11.411543999999935], [43.27335500000015, -11.41136599999993], [43.27346700000004, -11.41112499999997], [43.27353100000016, -11.410969999999963], [43.273842000000116, -11.410906999999952], [43.2740970000001, -11.410922999999968], [43.27432900000014, -11.410906999999952], [43.27452000000011, -11.410836999999958], [43.27457600000014, -11.410735999999929], [43.274608000000114, -11.410688999999877], [43.27460900000017, -11.41052599999989], [43.274545000000046, -11.410339999999962], [43.27437000000015, -11.410052999999834], [43.274291000000176, -11.409905999999921], [43.274291000000176, -11.409703999999977], [43.27426000000008, -11.409369999999967], [43.27434000000011, -11.409268999999881], [43.27458000000007, -11.409190999999907], [43.274779000000024, -11.40918299999987], [43.274907000000155, -11.409089999999935], [43.2748830000001, -11.408903999999893], [43.274828000000184, -11.408686999999873], [43.27474000000018, -11.408561999999904], [43.27491600000019, -11.408375999999976], [43.27491700000007, -11.408212999999932], [43.2750200000001, -11.408080999999981], [43.27538700000008, -11.40803399999993], [43.275396000000114, -11.407754999999952], [43.27554000000015, -11.407451999999921], [43.275557000000106, -11.407156999999927], [43.275653000000034, -11.40700899999996], [43.27568600000012, -11.406240999999909], [43.27554300000003, -11.406061999999906], [43.275512000000106, -11.405953999999952], [43.27560000000011, -11.405766999999969], [43.27569600000004, -11.405580999999927], [43.27577600000012, -11.40551099999982], [43.27593500000012, -11.405386999999962], [43.27599100000015, -11.405285999999933], [43.27604000000008, -11.405184999999847], [43.27602500000012, -11.404307999999844], [43.27613800000006, -11.40408199999996], [43.276225000000125, -11.403996999999947], [43.27637700000008, -11.403903999999898], [43.27650500000004, -11.40377199999989], [43.276521000000116, -11.403553999999872], [43.27628300000015, -11.40337599999998], [43.27629100000007, -11.403274999999894], [43.276570000000106, -11.403251999999952], [43.276674000000185, -11.403150999999923], [43.276610000000176, -11.40304999999995], [43.27657900000014, -11.402940999999885], [43.27672300000012, -11.402769999999975], [43.27677900000015, -11.402668999999946], [43.27690600000017, -11.402598999999839], [43.2770900000001, -11.402489999999943], [43.277147000000014, -11.40210999999988], [43.277354000000116, -11.401985999999908], [43.277802000000065, -11.401619999999923], [43.277977000000135, -11.401449999999897], [43.27805000000012, -11.401286999999911], [43.27805000000012, -11.401006999999936], [43.27805100000006, -11.40061899999995], [43.27816300000006, -11.400307999999882], [43.278164000000174, -11.400005999999962], [43.278029000000174, -11.39980399999996], [43.277981000000125, -11.399687999999855], [43.277951000000144, -11.399058999999966], [43.27803100000017, -11.398763999999971], [43.27813500000008, -11.39861599999989], [43.27837500000004, -11.398468999999977], [43.27872600000012, -11.398258999999939], [43.27878200000015, -11.398188999999888], [43.27885400000008, -11.397807999999827], [43.27894300000014, -11.397450999999933], [43.279071000000044, -11.397054999999966], [43.27916700000003, -11.396953999999937], [43.27931100000001, -11.39679899999993], [43.27949500000017, -11.39664399999998], [43.27955099999997, -11.396425999999963], [43.27962300000007, -11.396309999999971], [43.27980700000006, -11.396215999999981], [43.27997399999998, -11.396184999999832], [43.28009400000013, -11.396207999999945], [43.28044500000004, -11.396176999999966], [43.28068400000012, -11.396083999999973], [43.28096400000004, -11.39592099999993], [43.28153900000018, -11.39537699999994], [43.28177100000016, -11.39513599999998], [43.28237800000011, -11.394669999999962], [43.28273000000013, -11.39438199999995], [43.28296899999998, -11.394148999999857], [43.28317700000014, -11.393822999999884], [43.28334600000011, -11.393519999999967], [43.28348200000016, -11.393170999999938], [43.28361800000005, -11.392960999999957], [43.2837540000001, -11.392774999999858], [43.283946000000185, -11.392579999999953], [43.28410500000001, -11.392509999999959], [43.28436900000003, -11.392463999999961], [43.28462400000018, -11.392447999999888], [43.28496700000011, -11.392501999999922], [43.28523800000016, -11.39256399999988], [43.28542100000004, -11.39262599999995], [43.285660000000064, -11.3927809999999], [43.28595500000017, -11.392951999999923], [43.28617000000003, -11.393005999999957], [43.28638500000005, -11.392974999999979], [43.28680099999997, -11.392709999999965], [43.287192000000175, -11.392391999999973], [43.287663000000066, -11.392095999999981], [43.28798300000011, -11.391855999999848], [43.28835800000019, -11.39157599999993], [43.28872600000011, -11.39122599999996], [43.288910000000044, -11.39100099999996], [43.28905400000008, -11.390814999999975], [43.28927800000014, -11.390495999999928], [43.28946200000007, -11.390223999999819], [43.28968600000013, -11.389789999999948], [43.28986200000014, -11.389556999999968], [43.29018900000017, -11.389330999999913], [43.290748000000065, -11.388973999999962], [43.29106800000005, -11.38876399999998], [43.29135500000018, -11.388530999999887], [43.29157100000015, -11.388305999999943], [43.291899000000114, -11.388017999999818], [43.292123000000174, -11.387714999999957], [43.29250600000006, -11.387388999999928], [43.29289700000004, -11.38716299999993], [43.293161000000055, -11.386960999999928], [43.29360800000012, -11.386774999999886], [43.294095000000084, -11.386626999999919], [43.294510000000116, -11.386571999999887], [43.29530000000011, -11.386346999999944], [43.29565100000019, -11.386229999999955], [43.29595400000005, -11.386050999999952], [43.29628200000019, -11.385677999999928], [43.29654599999998, -11.385312999999826], [43.29694600000005, -11.384893999999974], [43.29707300000007, -11.384730999999874], [43.29713800000013, -11.384613999999885], [43.29725000000019, -11.38429599999995], [43.29737000000017, -11.383876999999927], [43.29744300000016, -11.383487999999886], [43.29752300000018, -11.383262999999943], [43.29760300000004, -11.38316999999995], [43.29772300000002, -11.3830769999999], [43.29789100000011, -11.383006999999964], [43.298297000000105, -11.382951999999875], [43.29868800000014, -11.38290499999988], [43.29901500000017, -11.382827999999904], [43.299167000000125, -11.382694999999899], [43.29926300000011, -11.382586999999944], [43.29945600000008, -11.381988999999862], [43.29963200000009, -11.381739999999866], [43.299888000000124, -11.38142199999993], [43.30008000000004, -11.381227999999965], [43.300247000000184, -11.38108799999992], [43.300359000000185, -11.380908999999917], [43.3004160000001, -11.380737999999894], [43.30048000000005, -11.380590999999924], [43.30059200000011, -11.380481999999972], [43.30074300000018, -11.380380999999943], [43.30095100000017, -11.380287999999894], [43.30119000000019, -11.380139999999926], [43.30152600000014, -11.379991999999902], [43.30163800000014, -11.379898999999966], [43.301749000000086, -11.379766999999958], [43.30186200000003, -11.37951899999996], [43.302014000000156, -11.37917699999997], [43.30214200000012, -11.378912999999898], [43.30227000000019, -11.37876499999993], [43.30244600000003, -11.37860999999998], [43.30272500000018, -11.378454999999917], [43.30287700000014, -11.378407999999865], [43.302996000000064, -11.378422999999941], [43.303251000000046, -11.378570999999852], [43.30370500000009, -11.378802999999948], [43.303873000000124, -11.37888799999996], [43.30399200000005, -11.3789119999999], [43.30415200000016, -11.37888799999996], [43.30428000000006, -11.378833999999927], [43.30450300000007, -11.378701999999919], [43.304711000000054, -11.378506999999956], [43.304879000000085, -11.37834399999997], [43.30508700000007, -11.378149999999835], [43.30525399999999, -11.378025999999977], [43.30551000000008, -11.377877999999953], [43.305630000000065, -11.377737999999852], [43.30569400000019, -11.377605999999957], [43.305798000000095, -11.37755199999998], [43.30594100000019, -11.377520999999945], [43.30606900000015, -11.377574999999865], [43.30621200000007, -11.37769099999997], [43.3064270000001, -11.377954999999929], [43.30661000000015, -11.378194999999891], [43.30674500000009, -11.378311999999937], [43.30686400000019, -11.37838899999997], [43.30716700000005, -11.378458999999907], [43.307423000000085, -11.378435999999965], [43.307606000000135, -11.378403999999875], [43.30784500000016, -11.378426999999931], [43.30804400000011, -11.37851999999998], [43.30841100000009, -11.378837999999917], [43.30910400000005, -11.379194999999982], [43.30977300000018, -11.379450999999904], [43.310060000000135, -11.379550999999935], [43.31029100000006, -11.37952799999988], [43.31061100000005, -11.379387999999949], [43.310818000000154, -11.379340999999954], [43.3110410000001, -11.379379999999912], [43.31130400000018, -11.379418999999928], [43.31166300000007, -11.379549999999938], [43.3119660000001, -11.37973599999998], [43.312197000000026, -11.379844999999932], [43.31236400000017, -11.379844999999932], [43.3125720000001, -11.37973599999998], [43.312779000000035, -11.379727999999943], [43.31299400000006, -11.379967999999963], [43.31321700000001, -11.38009999999997], [43.313384000000156, -11.380309999999952], [43.313519000000156, -11.380565999999874], [43.313694000000055, -11.380681999999979], [43.31385400000016, -11.380720999999937], [43.314053000000115, -11.380681999999979], [43.31429300000008, -11.380564999999876], [43.31459600000011, -11.380393999999967], [43.31471600000009, -11.380331999999896], [43.314740000000086, -11.380238999999904], [43.31472400000018, -11.380129999999951], [43.31467700000002, -11.380028999999979], [43.31459700000016, -11.379966999999965], [43.314478000000065, -11.3798349999999], [43.31455000000017, -11.379733999999871], [43.314789000000076, -11.379687999999817], [43.31509200000011, -11.379648999999972], [43.31516399999998, -11.379570999999885], [43.315188000000035, -11.379446999999857], [43.31514100000004, -11.379337999999962], [43.315053000000034, -11.379291999999907], [43.314965000000086, -11.37928399999987], [43.31491000000011, -11.37922199999997], [43.31489400000004, -11.379089999999962], [43.31473500000004, -11.378879999999924], [43.31450400000011, -11.378585999999927], [43.31428900000009, -11.378352999999947], [43.314042000000086, -11.378197999999884], [43.313955000000135, -11.378065999999876], [43.313956000000076, -11.377700999999888], [43.31412499999999, -11.376908999999898], [43.31438100000008, -11.376660999999899], [43.31464400000016, -11.376496999999915], [43.315099000000146, -11.376209999999901], [43.31539500000014, -11.376022999999975], [43.31569900000005, -11.37573599999996], [43.31585800000005, -11.375556999999958], [43.31595500000009, -11.375354999999956], [43.31606700000009, -11.37505299999998], [43.316163000000074, -11.374826999999868], [43.31629099999998, -11.374663999999882], [43.31644300000016, -11.374562999999966], [43.31671400000016, -11.374469999999974], [43.317105000000026, -11.37454699999995], [43.31779800000015, -11.374585999999908], [43.31842000000012, -11.374724999999955], [43.31888300000003, -11.374716999999919], [43.319079999999985, -11.374590999999953], [43.31921000000011, -11.374506999999937], [43.31952200000018, -11.374273999999957], [43.31984900000003, -11.374071999999842], [43.32022400000017, -11.373931999999968], [43.32070299999998, -11.373845999999958], [43.32118200000019, -11.373759999999947], [43.322124000000144, -11.373355999999944], [43.32257100000004, -11.373153999999886], [43.3230660000001, -11.372919999999908], [43.3227500000001, -11.380693999999892], [43.32550000000009, -11.390055999999959]]]}}]}