{"type": "FeatureCollection", "features": [{"type": "Feature", "properties": {"country": "Comoros", "pcode": "KM133", "name": "Mirontsi", "island": "Anjouan (Ndzouani)"}, "geometry": {"type": "Polygon", "coordinates": [[[44.42525000000012, -12.149221999999952], [44.426211000000194, -12.153614999999888], [44.42824800000017, -12.157625999999937], [44.42931800000008, -12.158580999999913], [44.43000900000004, -12.16239899999988], [44.43113900000009, -12.166777999999852], [44.43310200000013, -12.169463999999948], [44.43559600000009, -12.17223399999989], [44.438449000000105, -12.17510099999987], [44.43978700000014, -12.176438999999846], [44.43957500000016, -12.18092299999995], [44.436895000000106, -12.179009999999948], [44.435098000000096, -12.179102999999884], [44.43250100000017, -12.17804899999993], [44.42900100000014, -12.177756999999929], [44.425058000000035, -12.176605999999879], [44.420224000000076, -12.174498999999912], [44.41655500000007, -12.172680999999955], [44.41056600000019, -12.168758999999966], [44.40686100000005, -12.166499999999928], [44.404576000000134, -12.16502899999989], [44.40154100000001, -12.16244799999987], [44.39966700000008, -12.160527999999886], [44.399168000000145, -12.160448999999858], [44.399030000000096, -12.160109999999975], [44.39903200000009, -12.159647999999947], [44.399255000000096, -12.159501999999918], [44.3995470000001, -12.159490999999889], [44.39985200000007, -12.159254999999916], [44.39986500000009, -12.158961999999917], [44.39961000000011, -12.15863399999995], [44.39960000000019, -12.158464999999921], [44.399799000000144, -12.158262999999977], [44.39984700000019, -12.158036999999922], [44.39999900000015, -12.158003999999949], [44.40045800000013, -12.157519999999977], [44.40065700000008, -12.157429999999977], [44.400797000000125, -12.157395999999949], [44.40105600000004, -12.157125999999892], [44.401301000000046, -12.157126999999946], [44.401802000000146, -12.157352999999944], [44.40222300000016, -12.157353999999941], [44.40222300000016, -12.15722999999997], [44.40210700000017, -12.157037999999886], [44.40291400000012, -12.15687099999991], [44.40300900000017, -12.156656999999882], [44.403161000000125, -12.156622999999911], [44.403673000000026, -12.156984999999963], [44.40402300000005, -12.15717799999993], [44.404129000000125, -12.15696399999996], [44.4044100000001, -12.156907999999873], [44.40463100000011, -12.15699799999993], [44.40472400000016, -12.157110999999873], [44.404782000000125, -12.157110999999873], [44.40481800000009, -12.156964999999957], [44.40503000000007, -12.15668299999993], [44.40537000000012, -12.156390999999928], [44.40564000000006, -12.156244999999899], [44.406026000000054, -12.156211999999925], [44.40615400000013, -12.156272999999942], [44.40635600000019, -12.156294999999943], [44.40659100000005, -12.156414999999924], [44.406837000000166, -12.15665399999989], [44.40713900000014, -12.156914999999913], [44.407386000000145, -12.156980999999973], [44.40799199999998, -12.15711199999987], [44.40822700000007, -12.157361999999978], [44.4084610000001, -12.15776399999993], [44.409010000000194, -12.157992999999863], [44.409392000000025, -12.158080999999925], [44.41006600000003, -12.158092999999951], [44.41103300000009, -12.15789999999987], [44.411540000000116, -12.157705999999905], [44.41226100000006, -12.157478999999967], [44.41245300000014, -12.15729499999992], [44.41287100000011, -12.156774999999982], [44.41325500000005, -12.156439999999975], [44.413964000000135, -12.156354999999962], [44.414819000000136, -12.156128999999908], [44.415675000000135, -12.15580499999993], [44.41639700000019, -12.155361999999968], [44.41698300000013, -12.155004999999903], [44.417378000000156, -12.154712999999902], [44.41771700000015, -12.154398999999955], [44.418046000000174, -12.153846999999928], [44.418397000000084, -12.153326999999877], [44.41868100000016, -12.15288199999992], [44.419122000000016, -12.15223199999997], [44.41921400000018, -12.151939999999968], [44.41920400000009, -12.151678999999945], [44.419126000000176, -12.15162499999991], [44.419002000000035, -12.151570999999876], [44.41881100000006, -12.151602999999966], [44.41865400000006, -12.151601999999968], [44.41851900000006, -12.151536999999905], [44.41840800000011, -12.151427999999953], [44.41836300000011, -12.151351999999974], [44.418353000000025, -12.151134999999954], [44.41861299999999, -12.150831999999923], [44.41920100000016, -12.150236999999834], [44.419450000000154, -12.149878999999942], [44.41946300000018, -12.149564999999939], [44.419544000000144, -12.14909799999998], [44.420022000000074, -12.148144999999943], [44.420329000000095, -12.14751599999994], [44.42087300000014, -12.146584999999902], [44.42356100000012, -12.14750499999991], [44.42525000000012, -12.149221999999952]]]}}]}