{"type": "FeatureCollection", "features": [{"type": "Feature", "properties": {"country": "Comoros", "pcode": "KM251", "name": "Ngouengoe", "island": "Grande Comore (Ngazidja)"}, "geometry": {"type": "Polygon", "coordinates": [[[43.40911100000005, -11.898555999999871], [43.40863000000007, -11.898825999999929], [43.408547999999996, -11.89884899999987], [43.40885100000003, -11.898429999999962], [43.40884, -11.898169999999936], [43.40868900000015, -11.89814699999988], [43.40838600000012, -11.898520999999903], [43.40824700000013, -11.898362999999904], [43.40797500000019, -11.898282999999935], [43.40797600000013, -11.898089999999968], [43.408320000000174, -11.897596999999962], [43.40796000000006, -11.897175999999945], [43.40783400000009, -11.89698299999992], [43.40752600000019, -11.897228999999868], [43.40727400000014, -11.896947999999952], [43.40723900000006, -11.896772999999882], [43.407420000000116, -11.896420999999975], [43.407330000000115, -11.896227999999894], [43.40718500000003, -11.896613999999943], [43.406968000000006, -11.896631999999954], [43.4068420000001, -11.896438999999873], [43.40660800000006, -11.896403999999904], [43.4065720000001, -11.896227999999894], [43.406897000000185, -11.896192999999926], [43.406897000000185, -11.895911999999953], [43.40677100000005, -11.895858999999916], [43.40648200000015, -11.896105999999918], [43.40662700000007, -11.895683999999846], [43.406501000000105, -11.895542999999975], [43.40632100000016, -11.895472999999981], [43.40606900000006, -11.895244999999932], [43.40585200000004, -11.895033999999953], [43.405653000000086, -11.895420999999942], [43.40547300000014, -11.895315999999923], [43.405238000000054, -11.89536899999996], [43.40538400000008, -11.894788999999946], [43.40533000000005, -11.894718999999952], [43.404932000000144, -11.894946999999945], [43.4046800000001, -11.894630999999947], [43.40448200000003, -11.894648999999902], [43.404446000000064, -11.894472999999834], [43.404573000000084, -11.894226999999887], [43.40442900000011, -11.893928999999957], [43.40410400000019, -11.893963999999926], [43.40387000000004, -11.893717999999978], [43.40358199999997, -11.893436999999892], [43.40347400000013, -11.89333199999993], [43.403221000000144, -11.893296999999961], [43.403005000000064, -11.893226999999854], [43.4029690000001, -11.893138999999962], [43.403132000000085, -11.892910999999913], [43.40264500000012, -11.892488999999898], [43.40215900000004, -11.89210299999985], [43.401888000000156, -11.891944999999907], [43.40172600000011, -11.89187499999997], [43.401492000000076, -11.891786999999965], [43.401149000000146, -11.891646999999864], [43.400842000000125, -11.891488999999922], [43.40064400000011, -11.891348999999877], [43.400536000000045, -11.891243999999915], [43.4002660000001, -11.890909999999906], [43.39987000000019, -11.890575999999953], [43.39958200000012, -11.890242999999941], [43.39911300000006, -11.889944999999898], [43.398608000000195, -11.88990999999993], [43.39875300000011, -11.889663999999925], [43.39841000000018, -11.889382999999953], [43.39819300000016, -11.889646999999854], [43.39770700000008, -11.88903199999993], [43.39770800000019, -11.888609999999915], [43.39750900000007, -11.88864599999988], [43.39709500000009, -11.888100999999835], [43.396897000000195, -11.888065999999867], [43.39673400000004, -11.888364999999908], [43.39630199999999, -11.887592999999981], [43.39646600000009, -11.88718799999998], [43.39646600000009, -11.887082999999961], [43.39612400000004, -11.886766999999963], [43.396106000000145, -11.886590999999953], [43.39592500000009, -11.886731999999881], [43.395709000000124, -11.88659199999995], [43.395691000000056, -11.886292999999966], [43.395493000000045, -11.88608199999993], [43.39547600000003, -11.885958999999957], [43.39527800000019, -11.88571399999995], [43.3950430000001, -11.885607999999877], [43.39489900000012, -11.88553799999994], [43.39486300000016, -11.885344999999973], [43.39495400000004, -11.885168999999962], [43.39497200000011, -11.884940999999856], [43.39479200000011, -11.884764999999959], [43.39486500000015, -11.884641999999872], [43.39486500000015, -11.88455399999998], [43.394739000000186, -11.88450199999994], [43.39457700000008, -11.884167999999931], [43.394451000000174, -11.884097999999824], [43.39428900000007, -11.883798999999954], [43.394036000000085, -11.883728999999846], [43.394037000000026, -11.883588999999972], [43.393947000000026, -11.883518999999978], [43.393603000000155, -11.883904999999913], [43.39326, -11.88390599999991], [43.39327900000018, -11.883536999999933], [43.39335100000011, -11.883334999999931], [43.39305400000001, -11.882982999999854], [43.39284400000008, -11.882868999999914], [43.39261000000005, -11.882657999999935], [43.39239400000014, -11.882587999999942], [43.39252100000016, -11.882218999999964], [43.39230500000008, -11.881990999999914], [43.39219600000007, -11.881973999999957], [43.391979000000106, -11.88237799999996], [43.391799000000105, -11.882236999999918], [43.391799000000105, -11.882113999999888], [43.392034000000194, -11.88186799999994], [43.392034000000194, -11.881709999999941], [43.391601000000094, -11.881639999999948], [43.39154700000006, -11.881587999999965], [43.391710000000046, -11.88149999999996], [43.39169300000003, -11.881130999999982], [43.39160300000003, -11.880954999999915], [43.39155000000011, -11.880585999999937], [43.391406000000075, -11.880339999999933], [43.391063000000145, -11.880059999999958], [43.39124400000003, -11.879795999999942], [43.39075800000012, -11.87935699999997], [43.39037900000005, -11.879479999999887], [43.39019900000005, -11.879005999999947], [43.39032600000007, -11.878794999999968], [43.39029000000011, -11.878566999999975], [43.39007500000008, -11.878232999999852], [43.38985800000012, -11.878057999999953], [43.38971400000008, -11.878180999999813], [43.389569000000165, -11.878303999999957], [43.3894610000001, -11.87835699999988], [43.389334000000076, -11.878321999999912], [43.3891000000001, -11.878303999999957], [43.38893800000017, -11.878180999999813], [43.38890200000003, -11.878057999999953], [43.38890200000003, -11.87788299999994], [43.388993000000085, -11.877653999999893], [43.388993000000085, -11.87747899999988], [43.38879500000007, -11.87747899999988], [43.388542000000086, -11.877425999999957], [43.388307, -11.877425999999957], [43.38841700000006, -11.87689899999998], [43.388381000000095, -11.876810999999975], [43.38814700000012, -11.876565999999968], [43.387948000000165, -11.876512999999932], [43.38782200000003, -11.876424999999927], [43.38782300000014, -11.876214999999945], [43.38787700000012, -11.875932999999975], [43.38744500000013, -11.87579299999993], [43.38744600000018, -11.875318999999877], [43.38730199999998, -11.875107999999841], [43.38704900000005, -11.87491499999993], [43.38704900000005, -11.874861999999894], [43.38715800000017, -11.874756999999931], [43.38715800000017, -11.874580999999921], [43.38685200000009, -11.874545999999953], [43.38663500000007, -11.874440999999877], [43.3865990000001, -11.874317999999846], [43.38669000000016, -11.87414199999995], [43.38672700000001, -11.873966999999936], [43.38638400000008, -11.873948999999868], [43.38636600000018, -11.8739139999999], [43.38671000000005, -11.873474999999814], [43.38687300000004, -11.873087999999939], [43.38687300000004, -11.872964999999965], [43.38665700000007, -11.872894999999971], [43.386639, -11.872754999999927], [43.38678400000015, -11.872560999999962], [43.38678400000015, -11.872420999999918], [43.38660400000015, -11.872209999999939], [43.38655000000011, -11.872104999999976], [43.386551000000054, -11.871858999999972], [43.38662400000004, -11.87131399999987], [43.386498000000074, -11.87089199999997], [43.38650000000007, -11.870364999999879], [43.38619400000016, -11.869908999999893], [43.386013000000105, -11.869838999999956], [43.38588700000014, -11.86978599999992], [43.386050000000125, -11.86962799999992], [43.386050000000125, -11.869486999999879], [43.38563700000009, -11.86880199999996], [43.385259000000076, -11.868029999999976], [43.38535000000013, -11.867818999999884], [43.385296000000096, -11.867616999999882], [43.38540500000005, -11.867405999999903], [43.38538699999998, -11.867203999999901], [43.38538800000009, -11.867010999999934], [43.38517100000007, -11.86688799999996], [43.38524400000006, -11.86665999999991], [43.38522600000016, -11.86653699999988], [43.38490100000013, -11.866483999999957], [43.38506400000011, -11.866255999999964], [43.384993000000065, -11.866079999999897], [43.38481200000001, -11.866079999999897], [43.38437900000008, -11.865869999999916], [43.384381000000076, -11.865289999999902], [43.384165000000166, -11.86483299999992], [43.38411100000013, -11.864569999999844], [43.38398600000005, -11.864182999999969], [43.38371700000005, -11.863515999999947], [43.38274300000006, -11.862795999999946], [43.38234699999998, -11.86244499999998], [43.38184200000012, -11.862251999999899], [43.38121100000018, -11.86219999999986], [43.38104800000019, -11.862357999999972], [43.381101000000115, -11.862621999999874], [43.38104700000008, -11.86272699999995], [43.38061400000015, -11.862551999999937], [43.380667000000074, -11.863025999999877], [43.380361000000164, -11.86300899999992], [43.38028900000006, -11.862815999999953], [43.37983700000018, -11.862850999999978], [43.37947700000001, -11.862517999999966], [43.37929600000018, -11.86264099999994], [43.379080000000044, -11.862622999999928], [43.37898900000016, -11.862745999999902], [43.37879100000009, -11.862587999999903], [43.37879200000003, -11.86221999999998], [43.37832400000019, -11.861745999999869], [43.37812500000007, -11.86188599999997], [43.377728000000104, -11.861886999999967], [43.37796300000019, -11.861464999999953], [43.377765000000124, -11.861341999999922], [43.37756600000017, -11.861622999999895], [43.37738600000006, -11.861447999999882], [43.37706100000014, -11.861341999999922], [43.377242000000194, -11.86116699999991], [43.377242000000194, -11.86106099999995], [43.37673700000016, -11.860955999999874], [43.37668400000007, -11.860674999999958], [43.37655699999999, -11.860639999999933], [43.37630400000006, -11.860745999999892], [43.37605200000013, -11.860639999999933], [43.375655000000165, -11.860517999999956], [43.375439000000085, -11.860289999999907], [43.37506000000013, -11.860254999999938], [43.37392500000004, -11.859411999999907], [43.373907000000145, -11.85920099999987], [43.373077000000194, -11.859008999999958], [43.37293299999999, -11.85881599999982], [43.37260900000001, -11.85869299999996], [43.3723930000001, -11.858393999999976], [43.37206800000001, -11.858359999999948], [43.37195900000006, -11.858552999999972], [43.37181500000008, -11.858341999999936], [43.37132800000006, -11.858342999999934], [43.371094000000085, -11.85799099999997], [43.3708410000001, -11.858166999999924], [43.37044500000002, -11.857815999999957], [43.36954200000008, -11.857816999999955], [43.36930700000005, -11.85785199999998], [43.36923500000012, -11.857992999999851], [43.369234000000006, -11.858220999999958], [43.36936000000014, -11.858396999999968], [43.36927000000014, -11.858536999999899], [43.369126000000165, -11.858396999999968], [43.36898200000013, -11.858343999999931], [43.36878300000018, -11.858502999999928], [43.36844000000008, -11.858484999999973], [43.36824200000018, -11.858274999999821], [43.36800700000009, -11.85813399999995], [43.36764600000009, -11.85811699999988], [43.36752000000013, -11.857923999999912], [43.36717800000008, -11.857870999999875], [43.36694200000011, -11.858134999999947], [43.36674400000004, -11.858099999999979], [43.366708000000074, -11.857816999999955], [43.36652400000014, -11.857739999999978], [43.36631199999999, -11.857623999999873], [43.366059000000064, -11.857763999999975], [43.36580700000013, -11.85732499999989], [43.36443700000012, -11.856447999999887], [43.36393200000009, -11.856289999999888], [43.363066, -11.856308999999953], [43.36295700000005, -11.856431999999927], [43.3628480000001, -11.85694099999995], [43.36261300000001, -11.856888999999967], [43.36225200000018, -11.856941999999947], [43.362397999999985, -11.856308999999953], [43.36221800000004, -11.856132999999943], [43.362055000000055, -11.85613399999994], [43.361838000000034, -11.856590999999923], [43.361532000000125, -11.85630999999995], [43.36106300000006, -11.855958999999928], [43.36012500000004, -11.855976999999939], [43.35997900000007, -11.856345999999974], [43.3597630000001, -11.856205999999872], [43.359474000000034, -11.856328999999903], [43.3594020000001, -11.856205999999872], [43.35956500000009, -11.855906999999888], [43.35891600000019, -11.855485999999871], [43.36155600000012, -11.852499999999907], [43.36050000000017, -11.848999999999876], [43.361278000000084, -11.844138999999927], [43.36144400000012, -11.84247199999993], [43.36321100000015, -11.778869999999927], [43.36372300000005, -11.779201999999884], [43.36452900000012, -11.779391999999973], [43.36538400000018, -11.779438999999968], [43.36606700000016, -11.77950999999996], [43.36640900000003, -11.77950999999996], [43.36684900000006, -11.779390999999976], [43.36729000000014, -11.779128999999955], [43.3680480000001, -11.778842999999938], [43.36851200000012, -11.778652999999906], [43.36902600000002, -11.778556999999978], [43.36980800000009, -11.77843799999988], [43.37046800000019, -11.778246999999908], [43.37076100000007, -11.778151999999977], [43.38783681700011, -11.816968400999883], [43.403504999999996, -11.85258499999992], [43.40717800000016, -11.860934999999927], [43.414611000000036, -11.877832999999953], [43.41714600000017, -11.886803999999813], [43.41333300000014, -11.896166999999934], [43.40911100000005, -11.898555999999871]]]}}]}