{"type": "FeatureCollection", "features": [{"type": "Feature", "properties": {"country": "Comoros", "pcode": "KM332", "name": "Moimbao", "island": "Moh\u00e9li (Mwali)"}, "geometry": {"type": "Polygon", "coordinates": [[[43.62721800000014, -12.266047999999955], [43.63418800000005, -12.26941899999997], [43.6394380000001, -12.270141999999964], [43.64587100000017, -12.271806999999967], [43.64767900000004, -12.273103999999876], [43.64877400000006, -12.274305999999967], [43.65276899999998, -12.276854999999898], [43.653388000000064, -12.277915999999948], [43.65524300000004, -12.278890999999874], [43.65571900000003, -12.279399999999896], [43.65600500000005, -12.280182999999965], [43.65857400000016, -12.28217399999994], [43.659051000000034, -12.282957999999951], [43.65933700000005, -12.283833999999956], [43.65957500000019, -12.284248999999932], [43.66019300000016, -12.284711999999956], [43.66057400000011, -12.285081999999932], [43.66109700000004, -12.285130999999978], [43.661715000000186, -12.285317999999904], [43.66242900000009, -12.285688999999877], [43.66309400000006, -12.286105999999904], [43.66399900000016, -12.287490999999932], [43.66419000000013, -12.288135999999952], [43.66428600000006, -12.288642999999979], [43.66499900000008, -12.288829999999962], [43.66604500000017, -12.288880999999947], [43.666853, -12.289068999999927], [43.66742400000004, -12.289668999999947], [43.66875500000003, -12.290043999999966], [43.66956400000015, -12.290691999999922], [43.67027800000011, -12.291154999999947], [43.67084799999998, -12.291571999999917], [43.67137200000019, -12.29217299999982], [43.671848000000125, -12.292496999999969], [43.67260800000014, -12.292545999999959], [43.67332200000004, -12.29291799999993], [43.674130000000105, -12.293565999999885], [43.67603400000007, -12.29555299999987], [43.67641400000008, -12.295692999999915], [43.6771270000001, -12.295465999999976], [43.67774500000007, -12.295468999999969], [43.67845800000009, -12.295702999999946], [43.679457000000184, -12.296258999999964], [43.680457000000104, -12.297414999999944], [43.680981000000145, -12.298843999999974], [43.68202800000006, -12.299860999999908], [43.682647000000145, -12.300599999999918], [43.683076000000085, -12.301797999999962], [43.683742000000166, -12.302445999999918], [43.68483700000013, -12.30337099999997], [43.68574100000018, -12.304157999999973], [43.68821400000013, -12.305733999999916], [43.68845300000004, -12.306470999999874], [43.68835900000005, -12.307160999999951], [43.68812200000019, -12.307803999999862], [43.68869200000006, -12.307944999999961], [43.68940500000008, -12.307809999999904], [43.690308000000016, -12.307951999999943], [43.6909740000001, -12.308414999999968], [43.69130800000016, -12.308968999999877], [43.691451000000086, -12.309981999999934], [43.69135700000015, -12.310395999999912], [43.69183200000003, -12.310673999999892], [43.69249800000006, -12.310722999999882], [43.69306900000004, -12.311461999999835], [43.693830000000105, -12.311833999999976], [43.69535300000018, -12.31308299999995], [43.69587700000005, -12.314143999999942], [43.696733000000165, -12.314515999999912], [43.69787400000007, -12.31534999999991], [43.69858800000014, -12.315858999999932], [43.6993020000001, -12.316506999999888], [43.700016000000176, -12.317291999999838], [43.70106300000015, -12.318263999999886], [43.70153799999997, -12.318495999999982], [43.70239400000014, -12.318867999999952], [43.703725000000134, -12.319195999999977], [43.70505600000013, -12.319431999999892], [43.706292000000076, -12.31952999999993], [43.70710100000019, -12.319809999999904], [43.70767100000012, -12.32013499999988], [43.707864000000086, -12.321929999999895], [43.70829300000008, -12.323174999999878], [43.70915000000008, -12.324328999999977], [43.709768000000054, -12.324469999999906], [43.71105100000017, -12.32424599999996], [43.713139000000126, -12.324550999999929], [43.67424400000016, -12.348030999999878], [43.67252100000002, -12.351946999999882], [43.66489300000006, -12.358001999999942], [43.66278400000016, -12.359042999999929], [43.65918700000009, -12.359446999999875], [43.65830200000005, -12.358531999999911], [43.65828400000015, -12.358373999999912], [43.65845600000017, -12.358383999999944], [43.658655000000124, -12.358585999999946], [43.658808000000136, -12.358778999999856], [43.658917000000145, -12.358918999999958], [43.65906200000006, -12.35913899999997], [43.65913400000011, -12.359164999999905], [43.659260000000074, -12.3591219999999], [43.65950400000003, -12.359000999999921], [43.65950400000003, -12.35866799999991], [43.65957600000013, -12.35856399999983], [43.65997300000009, -12.358556999999962], [43.660000000000025, -12.358486999999855], [43.660235000000114, -12.35850599999992], [43.66042500000003, -12.35866399999992], [43.660533000000044, -12.35868199999993], [43.66077700000017, -12.358568999999875], [43.66088600000012, -12.358621999999912], [43.66103900000019, -12.35875399999992], [43.66119300000014, -12.358833999999945], [43.66132800000014, -12.358746999999937], [43.66151800000006, -12.358502999999928], [43.66165300000017, -12.358205999999939], [43.661860000000104, -12.35766499999994], [43.661976000000095, -12.357026999999846], [43.662211000000184, -12.35683599999993], [43.662491000000045, -12.356775999999968], [43.662816000000134, -12.356689999999958], [43.66302400000012, -12.356576999999902], [43.66315000000009, -12.356480999999974], [43.663294000000064, -12.356332999999893], [43.66336600000017, -12.356237999999848], [43.663384000000065, -12.356097999999974], [43.663384000000065, -12.35582699999992], [43.66323900000015, -12.355528999999876], [43.663085000000194, -12.35536999999988], [43.66285900000014, -12.355264999999974], [43.66266100000013, -12.355228999999952], [43.66245300000014, -12.35527999999988], [43.662010000000066, -12.355338999999958], [43.66175800000019, -12.355416999999932], [43.6615680000001, -12.355441999999869], [43.66141400000015, -12.355502999999942], [43.66127900000015, -12.355632999999955], [43.6612310000001, -12.356024999999875], [43.661054000000036, -12.356147999999962], [43.66090100000014, -12.356199999999887], [43.660747000000185, -12.356120999999916], [43.66061100000013, -12.355996999999888], [43.66050300000006, -12.35584799999998], [43.660403000000144, -12.355585999999903], [43.66033000000016, -12.354710999999952], [43.66045600000007, -12.354238999999893], [43.66044600000015, -12.354124999999897], [43.66027500000001, -12.353940999999963], [43.66027400000013, -12.353704999999877], [43.66042800000008, -12.353547999999932], [43.66056300000008, -12.353486999999973], [43.66081600000001, -12.353383999999949], [43.66096900000008, -12.353261999999972], [43.66101400000008, -12.35313999999994], [43.66107700000015, -12.35302599999983], [43.66124900000017, -12.352851999999928], [43.66151900000011, -12.352721999999972], [43.66191700000019, -12.352601999999933], [43.66250400000007, -12.352612999999849], [43.662585000000036, -12.352744999999913], [43.66261200000014, -12.352831999999921], [43.66259400000007, -12.352910999999892], [43.66252200000014, -12.35298899999998], [43.66233300000016, -12.353267999999957], [43.662324000000126, -12.353468999999961], [43.662406000000146, -12.353818999999874], [43.66248700000011, -12.353985999999963], [43.662596000000065, -12.354143999999962], [43.66271400000005, -12.354327999999896], [43.66287600000015, -12.354477999999972], [43.66378900000018, -12.354454999999916], [43.663202000000126, -12.35490799999991], [43.663410000000056, -12.355047999999954], [43.66368100000011, -12.35514599999982], [43.664124000000186, -12.355138999999951], [43.66431299999999, -12.355043999999907], [43.66450300000008, -12.354860999999971], [43.66479100000015, -12.35459099999997], [43.66490900000014, -12.354477999999972], [43.66491700000006, -12.354005999999913], [43.66487200000006, -12.353891999999973], [43.66475400000007, -12.353619999999921], [43.66463600000009, -12.35349699999989], [43.664564000000155, -12.353452999999888], [43.66445600000014, -12.35348799999997], [43.66430200000019, -12.35356599999983], [43.66420300000016, -12.35357399999998], [43.6640220000001, -12.353441999999973], [43.6640220000001, -12.353039999999908], [43.66389400000014, -12.352479999999957], [43.66397500000011, -12.351701999999875], [43.66416400000014, -12.351273999999819], [43.66441600000019, -12.350837999999953], [43.66450600000019, -12.350278999999887], [43.66459600000013, -12.350077999999883], [43.66473100000013, -12.34988599999997], [43.66492100000005, -12.349659999999858], [43.66511000000003, -12.349423999999942], [43.66527200000013, -12.34929399999993], [43.66546200000005, -12.34911099999988], [43.665696000000025, -12.348998999999878], [43.665913000000046, -12.348876999999902], [43.66612100000003, -12.348798999999929], [43.66669900000005, -12.34872299999995], [43.666906000000154, -12.34863699999994], [43.66779100000019, -12.348649999999964], [43.66821600000003, -12.348581999999908], [43.66827000000001, -12.348511999999971], [43.66814099999999, -12.34665699999988], [43.667942000000096, -12.346542999999883], [43.66768900000011, -12.34644499999996], [43.66731800000014, -12.346058999999968], [43.66726300000005, -12.3452979999999], [43.6674440000001, -12.345167999999887], [43.667552000000114, -12.34507199999996], [43.667597000000114, -12.344756999999902], [43.667452000000026, -12.344406999999876], [43.667370000000176, -12.34398699999997], [43.66725200000019, -12.343714999999918], [43.66716200000019, -12.343495999999902], [43.66714300000007, -12.343346999999937], [43.66709800000007, -12.343250999999896], [43.66675500000008, -12.342916999999886], [43.666537000000176, -12.342644999999948], [43.66639300000014, -12.342416999999898], [43.6661840000001, -12.342074999999966], [43.666085000000066, -12.341811999999948], [43.666003000000046, -12.34141799999992], [43.666066000000114, -12.341024999999945], [43.66612900000018, -12.340814999999964], [43.66621000000009, -12.340657999999962], [43.66634500000009, -12.34052799999995], [43.66653500000018, -12.34038899999996], [43.66670600000015, -12.340301999999951], [43.66687800000017, -12.340249999999912], [43.66720300000003, -12.340172999999936], [43.66746400000011, -12.340068999999971], [43.66765400000003, -12.339938999999958], [43.66744600000004, -12.339867999999967], [43.66729300000003, -12.339823999999965], [43.666742000000056, -12.33985599999994], [43.666552000000195, -12.33980299999996], [43.66642500000012, -12.33969699999983], [43.66630800000007, -12.339521999999931], [43.666208000000154, -12.33915399999995], [43.66609000000011, -12.338628999999912], [43.66596300000009, -12.338391999999942], [43.665782000000036, -12.338154999999972], [43.66563700000012, -12.338022999999964], [43.66550600000011, -12.337965999999938], [43.66526200000004, -12.337894999999946], [43.665046000000075, -12.337832999999875], [43.66490100000016, -12.337743999999873], [43.6647650000001, -12.337647999999945], [43.664639000000136, -12.337524999999971], [43.66458400000005, -12.337410999999975], [43.66450300000008, -12.337383999999929], [43.664299000000085, -12.337530999999956], [43.66422300000005, -12.337627999999881], [43.664034000000186, -12.337932999999964], [43.66385400000007, -12.338080999999875], [43.663726999999994, -12.338079999999877], [43.66361900000015, -12.337974999999972], [43.66361900000015, -12.337860999999975], [43.66373600000003, -12.337773999999968], [43.66373600000003, -12.337607999999932], [43.663627000000076, -12.337414999999908], [43.663627000000076, -12.337274999999977], [43.66372600000011, -12.337170999999898], [43.663862000000165, -12.337100999999961], [43.6640690000001, -12.33704999999992], [43.66414099999997, -12.337005999999917], [43.66418600000014, -12.336909999999875], [43.66427600000014, -12.336586999999895], [43.66438400000004, -12.336403999999959], [43.66455600000006, -12.336273999999946], [43.66455600000006, -12.336203999999896], [43.66450100000009, -12.336063999999965], [43.664348000000075, -12.335738999999819], [43.66414800000001, -12.335344999999904], [43.66404000000017, -12.33506499999993], [43.66397599999999, -12.334792999999877], [43.663967000000184, -12.334521999999936], [43.66403900000006, -12.334320999999818], [43.664183000000094, -12.334190999999976], [43.66424600000016, -12.334068999999943], [43.66426400000006, -12.333840999999893], [43.66416400000014, -12.333464999999933], [43.66402800000003, -12.332965999999885], [43.66392800000011, -12.332728999999972], [43.663810000000126, -12.332308999999952], [43.663656000000174, -12.33197599999994], [43.66353900000007, -12.331659999999829], [43.663466000000085, -12.331414999999879], [43.66332100000017, -12.331247999999846], [43.663194000000146, -12.330949999999973], [43.66300400000006, -12.330555999999945], [43.662887000000126, -12.33037199999984], [43.66275100000007, -12.330038999999886], [43.66255200000012, -12.329661999999871], [43.66232500000018, -12.329398999999967], [43.66213500000009, -12.329204999999888], [43.6619, -12.328941999999927], [43.66174700000016, -12.328792999999905], [43.66142100000019, -12.328641999999945], [43.66133100000019, -12.328571999999951], [43.66115900000017, -12.328334999999981], [43.66107700000015, -12.328159999999968], [43.660978000000114, -12.32789699999995], [43.66086000000013, -12.327598999999907], [43.660751000000175, -12.327414999999974], [43.660616000000175, -12.327326999999968], [43.65980300000007, -12.327278999999976], [43.65979400000003, -12.32742799999994], [43.66024600000014, -12.327595999999915], [43.66039000000012, -12.327657999999815], [43.66037200000005, -12.327839999999924], [43.65997599999997, -12.327882999999929], [43.65972499999998, -12.32801399999994], [43.65949700000016, -12.327835999999877], [43.65941300000014, -12.327835999999877], [43.65910800000012, -12.328237999999942], [43.65872100000007, -12.32819399999994], [43.65861500000017, -12.328170999999884], [43.65849300000019, -12.32813399999992], [43.65803600000004, -12.327792999999872], [43.65786900000012, -12.327680999999927], [43.657717000000105, -12.327606999999944], [43.65756400000009, -12.327628999999888], [43.657412000000136, -12.327796999999919], [43.65717700000005, -12.328156999999976], [43.65682700000019, -12.327992999999822], [43.6567740000001, -12.32794199999995], [43.65678900000006, -12.32778699999983], [43.65702400000015, -12.327448999999945], [43.657229000000086, -12.32716999999991], [43.65725200000003, -12.326978999999938], [43.657182999999975, -12.326860999999951], [43.65721300000018, -12.32676499999991], [43.65739600000006, -12.326537999999971], [43.65755500000006, -12.326243999999974], [43.657509000000175, -12.32589699999994], [43.65725000000003, -12.325718999999935], [43.656930000000045, -12.325592999999913], [43.65673300000009, -12.325473999999929], [43.65664100000009, -12.325414999999964], [43.656496000000175, -12.325273999999979], [43.65641300000004, -12.325088999999878], [43.65633600000007, -12.324889999999925], [43.65623700000009, -12.324697999999955], [43.656108000000074, -12.32456499999995], [43.655963000000156, -12.324497999999835], [43.65580300000005, -12.324555999999916], [43.655697000000146, -12.32466599999998], [43.65558300000015, -12.324878999999896], [43.655446000000154, -12.325010999999904], [43.65534000000008, -12.325003999999865], [43.655286000000046, -12.324848999999915], [43.65514900000011, -12.324729999999931], [43.65515700000003, -12.32456099999996], [43.65521000000018, -12.324310999999966], [43.655361000000084, -12.323957999999891], [43.65537600000005, -12.32371499999988], [43.65526900000009, -12.323426999999924], [43.654995000000156, -12.323027999999965], [43.654789000000164, -12.322923999999887], [43.65425700000003, -12.322935999999913], [43.65407400000015, -12.323015999999939], [43.65383100000014, -12.323125999999888], [43.65356500000013, -12.323256999999899], [43.653466000000094, -12.323256999999899], [43.65332200000012, -12.323181999999917], [43.65323700000016, -12.322798999999918], [43.653146000000106, -12.322628999999893], [43.652895000000115, -12.322435999999925], [43.65273500000001, -12.322376999999847], [43.65258300000005, -12.32233199999996], [43.65245700000014, -12.322275999999931], [43.65243800000013, -12.322043999999892], [43.65248300000013, -12.32195599999983], [43.65246800000017, -12.321888999999942], [43.65224000000012, -12.321932999999945], [43.65204200000005, -12.321967999999913], [43.65176800000012, -12.322032999999976], [43.65146400000003, -12.322112999999945], [43.65099300000014, -12.322279999999978], [43.65071900000004, -12.322396999999967], [43.65059700000006, -12.322528999999975], [43.65045300000003, -12.322557999999901], [43.65030100000007, -12.32251999999994], [43.65019400000011, -12.322423999999899], [43.650179000000094, -12.322165999999982], [43.65032300000013, -12.321849999999927], [43.65031499999998, -12.32151099999993], [43.65026100000017, -12.321385999999904], [43.650124000000176, -12.32126699999992], [43.649941000000126, -12.321192999999937], [43.649530000000084, -12.320991999999933], [43.6491420000001, -12.320835999999872], [43.64876900000013, -12.32072299999993], [43.64843400000012, -12.320603999999946], [43.64803900000015, -12.32057999999995], [43.64774200000011, -12.320600999999954], [43.64759800000007, -12.320820999999967], [43.647576000000015, -12.321137999999905], [43.64771300000018, -12.321299999999894], [43.647629000000165, -12.321446999999978], [43.6474310000001, -12.321512999999925], [43.647203000000104, -12.321621999999877], [43.64718899999997, -12.321908999999948], [43.64695300000017, -12.322032999999976], [43.64698400000009, -12.322416999999973], [43.64685500000007, -12.322533999999962], [43.64653600000014, -12.322833999999887], [43.646224000000075, -12.323031999999955], [43.645996000000025, -12.323229999999967], [43.64571500000005, -12.323426999999924], [43.64545600000014, -12.323609999999974], [43.64528900000016, -12.323608999999976], [43.64528100000001, -12.323365999999965], [43.64547900000008, -12.323212999999896], [43.64546300000018, -12.323101999999949], [43.645402000000104, -12.32304299999987], [43.645425000000046, -12.322946999999942], [43.645608000000095, -12.322917999999845], [43.645638000000076, -12.322829999999954], [43.645606999999984, -12.32271999999989], [43.64548600000012, -12.322696999999948], [43.64531800000009, -12.322784999999953], [43.64509800000019, -12.322856999999942], [43.644946000000004, -12.322833999999887], [43.64477000000005, -12.32272299999994], [43.644375000000025, -12.322544999999877], [43.643979000000115, -12.32249899999988], [43.643796000000066, -12.322430999999938], [43.64369000000005, -12.322356999999954], [43.643408000000136, -12.322001999999884], [43.64308800000015, -12.321720999999911], [43.64292800000004, -12.321609999999964], [43.64271500000018, -12.321578999999872], [43.64260900000011, -12.321504999999888], [43.642578000000015, -12.321379999999863], [43.64259300000003, -12.320952999999975], [43.642448000000115, -12.320723999999927], [43.64238700000004, -12.320649999999944], [43.64229500000005, -12.320310999999947], [43.64224900000016, -12.320199999999943], [43.64194500000008, -12.319881999999893], [43.64160200000009, -12.319673999999907], [43.64116800000005, -12.319443999999976], [43.640864000000136, -12.319294999999897], [43.64063500000003, -12.31925699999988], [43.63998100000009, -12.319231999999943], [43.639859000000115, -12.319275999999945], [43.63979900000015, -12.319422999999858], [43.63992000000019, -12.319597999999928], [43.63990600000011, -12.319709999999873], [43.63985300000019, -12.319797999999878], [43.63944900000013, -12.319788999999957], [43.63932000000011, -12.319810999999959], [43.63914500000004, -12.31998699999997], [43.63917600000008, -12.320273999999927], [43.63925200000017, -12.320369999999969], [43.63916900000004, -12.320582999999885], [43.63900200000012, -12.32063399999987], [43.63859100000019, -12.320698999999934], [43.63821800000005, -12.320703999999978], [43.63790599999999, -12.32084999999995], [43.63778500000012, -12.32084999999995], [43.63768600000009, -12.320966999999882], [43.637671000000125, -12.321172999999874], [43.63747300000006, -12.321193999999934], [43.63735900000006, -12.321244999999976], [43.63732900000002, -12.321333999999979], [43.63725300000016, -12.32142899999991], [43.63713100000018, -12.321538999999973], [43.63704800000005, -12.321567999999957], [43.63689600000009, -12.32161199999996], [43.63665199999997, -12.321661999999947], [43.636523000000125, -12.321764999999914], [43.636333000000036, -12.321807999999919], [43.636120000000005, -12.32193899999993], [43.63603600000016, -12.321894999999927], [43.63579300000015, -12.321797999999887], [43.63566300000002, -12.321767999999906], [43.63558000000012, -12.321811999999966], [43.635504000000026, -12.321899999999971], [43.635344000000146, -12.321964999999864], [43.63523800000007, -12.321942999999976], [43.635093000000154, -12.321779999999933], [43.63500900000014, -12.321698999999967], [43.63482700000014, -12.321778999999935], [43.63462100000015, -12.321814999999958], [43.63437000000016, -12.321894999999927], [43.63418000000007, -12.321974999999952], [43.63401300000015, -12.321995999999956], [43.63393700000006, -12.321965999999918], [43.633663000000126, -12.321920999999861], [43.63354100000015, -12.321971999999903], [43.63338900000019, -12.322000999999887], [43.63313800000003, -12.321984999999927], [43.632841000000155, -12.321747999999957], [43.632833000000176, -12.321474999999907], [43.632886000000155, -12.32140899999996], [43.63313000000005, -12.321350999999936], [43.63334300000014, -12.321255999999892], [43.63360100000017, -12.3211399999999], [43.63374500000015, -12.320904999999982], [43.633928000000026, -12.320772999999974], [43.63395800000018, -12.320647999999949], [43.633950000000084, -12.3204199999999], [43.63386600000007, -12.320271999999932], [43.63386600000007, -12.320116999999982], [43.63398799999999, -12.319977999999935], [43.634025000000065, -12.31984499999993], [43.63408600000014, -12.319727999999941], [43.63434500000005, -12.319691999999975], [43.63476300000019, -12.319516999999905], [43.63497600000005, -12.31931899999995], [43.6353630000001, -12.319151999999974], [43.63566800000012, -12.318953999999962], [43.63578900000016, -12.318910999999957], [43.635896000000116, -12.318903999999975], [43.63614700000011, -12.318985999999938], [43.636307000000045, -12.319104999999922], [43.636558000000036, -12.319200999999964], [43.63680100000005, -12.319275999999945], [43.63707500000015, -12.319291999999962], [43.637304000000086, -12.319351999999924], [43.63750100000004, -12.31940499999996], [43.63776800000011, -12.31945699999983], [43.638201000000095, -12.319503999999881], [43.63847500000003, -12.319511999999918], [43.63877900000011, -12.319380999999908], [43.63922100000008, -12.31941999999998], [43.63934200000017, -12.319265999999914], [43.63934100000006, -12.318631999999866], [43.639470000000074, -12.318301999999903], [43.63961400000011, -12.31799999999987], [43.63968999999997, -12.317838999999879], [43.63968200000005, -12.317248999999833], [43.6393930000001, -12.31701199999992], [43.63921000000005, -12.316885999999897], [43.639202000000125, -12.316745999999966], [43.63935400000008, -12.316746999999964], [43.639545000000055, -12.316820999999948], [43.63975800000014, -12.316866999999945], [43.63994000000008, -12.316800999999884], [43.64009200000004, -12.316668999999877], [43.640084000000115, -12.316307999999935], [43.63987100000003, -12.316012999999884], [43.63963400000017, -12.31567999999993], [43.63932200000011, -12.315265999999895], [43.6389870000001, -12.314711999999872], [43.63886500000012, -12.31457899999998], [43.63873600000011, -12.314762999999914], [43.638637000000074, -12.314746999999954], [43.63860600000004, -12.314194999999927], [43.6385600000001, -12.314208999999835], [43.63839300000018, -12.314281999999935], [43.637890000000084, -12.314124999999876], [43.63779900000003, -12.314190999999937], [43.63764000000003, -12.314315999999963], [43.63740400000006, -12.314498999999955], [43.63716100000016, -12.31470399999995], [43.63694000000004, -12.314886999999885], [43.636834000000135, -12.315048999999874], [43.63670500000012, -12.315047999999877], [43.63670500000012, -12.314995999999951], [43.63672000000008, -12.314752999999882], [43.63703100000009, -12.314444999999978], [43.637252000000046, -12.314335999999969], [43.63738100000006, -12.314210999999887], [43.63734200000005, -12.31399799999997], [43.63734200000005, -12.31356999999997], [43.63738000000018, -12.313444999999945], [43.63750900000019, -12.313371999999958], [43.63755400000019, -12.313025999999923], [43.63764500000008, -12.312333999999964], [43.63746200000003, -12.312104999999917], [43.63702100000012, -12.312110999999959], [43.63674600000013, -12.311828999999932], [43.636472000000026, -12.31177699999995], [43.63635799999997, -12.31167999999991], [43.63617500000015, -12.311561999999924], [43.63617500000015, -12.311450999999977], [43.636259000000166, -12.311369999999954], [43.63628900000015, -12.311267999999927], [43.63632700000011, -12.311083999999823], [43.63641100000012, -12.311120999999957], [43.636517000000026, -12.311157999999978], [43.636654000000135, -12.311099999999897], [43.63673799999998, -12.311026999999967], [43.63680600000009, -12.310820999999976], [43.636882000000185, -12.310606999999948], [43.63693500000011, -12.310408999999936], [43.636926000000074, -12.309789999999964], [43.63671300000004, -12.309545999999841], [43.63654500000018, -12.309272999999905], [43.63641600000017, -12.309035999999935], [43.63630100000006, -12.308468999999889], [43.63629300000014, -12.307878999999957], [43.63623100000012, -12.307650999999964], [43.63604800000013, -12.307362999999953], [43.63605600000005, -12.30711999999994], [43.63618500000007, -12.30705399999988], [43.636299000000065, -12.30694399999993], [43.63629100000014, -12.306648999999936], [43.636153999999976, -12.306486999999947], [43.63588700000008, -12.306330999999943], [43.635575000000074, -12.306085999999823], [43.63540000000012, -12.30588699999987], [43.63522500000005, -12.305605999999898], [43.63504900000004, -12.305427999999893], [43.6348670000001, -12.305323999999928], [43.63473699999997, -12.305220999999904], [43.63465300000013, -12.305072999999936], [43.63460800000013, -12.304880999999966], [43.63457600000015, -12.30426199999988], [43.63461400000011, -12.304173999999875], [43.634652000000074, -12.304070999999965], [43.63479600000005, -12.30386599999997], [43.63500200000004, -12.303681999999867], [43.63500100000016, -12.303328999999962], [43.63506200000006, -12.303196999999955], [43.63522900000004, -12.303137999999876], [43.63541900000013, -12.302932999999882], [43.6355410000001, -12.302741999999967], [43.63554000000016, -12.302446999999972], [43.63536500000009, -12.302269999999908], [43.63534200000015, -12.302033999999935], [43.635646000000065, -12.30165999999997], [43.63563000000016, -12.301585999999816], [43.63561500000014, -12.301467999999886], [43.63546200000013, -12.301025999999922], [43.63527200000004, -12.300810999999896], [43.635081000000014, -12.300522999999941], [43.63481400000012, -12.300064999999904], [43.634555000000034, -12.299658999999963], [43.63422800000018, -12.299310999999875], [43.63384700000006, -12.298947999999939], [43.63349700000009, -12.298659999999927], [43.63310100000018, -12.298362999999938], [43.6327500000001, -12.298073999999929], [43.63251400000007, -12.29785199999992], [43.63220200000001, -12.297688999999934], [43.63191300000011, -12.29753299999993], [43.63128200000011, -12.297713999999871], [43.63083300000011, -12.2978149999999], [43.63058200000012, -12.29780599999998], [43.63052900000014, -12.29761499999995], [43.630208000000096, -12.296817999999917], [43.63022300000006, -12.296404999999936], [43.630375000000015, -12.296228999999926], [43.63037400000013, -12.295867999999928], [43.63022900000004, -12.295579999999973], [43.63014500000003, -12.295439999999928], [43.62997800000005, -12.295114999999953], [43.629909, -12.294974999999909], [43.62981000000019, -12.29484199999996], [43.62954400000018, -12.294803999999885], [43.62933100000015, -12.294728999999904], [43.62904100000014, -12.294543999999973], [43.62878200000006, -12.294313999999929], [43.6287440000001, -12.294232999999906], [43.62869100000012, -12.29415199999994], [43.62834000000004, -12.293774999999926], [43.6280660000001, -12.2935599999999], [43.627876000000015, -12.293330999999966], [43.62787500000013, -12.29299199999997], [43.62799700000011, -12.292527999999947], [43.62805000000003, -12.292380999999978], [43.62827699999997, -12.292109999999923], [43.62870300000009, -12.291588999999817], [43.628687000000184, -12.291278999999918], [43.62842100000017, -12.291093999999873], [43.62814700000007, -12.290804999999978], [43.62800900000019, -12.290553999999872], [43.627842000000044, -12.290376999999978], [43.62775800000003, -12.290250999999955], [43.62775800000003, -12.290066999999908], [43.62787900000012, -12.289772999999911], [43.62786300000005, -12.289558999999883], [43.627802000000145, -12.289278999999908], [43.62771100000003, -12.28906499999988], [43.627574000000095, -12.28894699999995], [43.62707200000011, -12.288958999999977], [43.6268740000001, -12.288964999999962], [43.62672100000003, -12.288861999999938], [43.626562000000035, -12.288786999999957], [43.62643200000008, -12.288756999999976], [43.626349000000175, -12.28877199999988], [43.62624199999999, -12.288822999999923], [43.62607500000007, -12.28892499999995], [43.625915000000134, -12.28901299999984], [43.625733000000025, -12.289018999999882], [43.62558100000001, -12.288936999999862], [43.62543600000009, -12.288825999999915], [43.625299000000155, -12.288633999999945], [43.62516199999999, -12.288463999999976], [43.625161000000105, -12.288360999999895], [43.62526000000014, -12.288191999999924], [43.625306000000194, -12.288081999999974], [43.62545800000015, -12.288008999999818], [43.62551100000013, -12.287927999999965], [43.62540400000012, -12.287750999999957], [43.62529700000016, -12.2876839999999], [43.625199000000066, -12.28769799999992], [43.62493200000017, -12.287792999999965], [43.6242400000001, -12.287759999999821], [43.623883000000035, -12.287713999999937], [43.62367700000004, -12.287653999999918], [43.623510000000124, -12.287579999999934], [43.623357000000055, -12.287438999999893], [43.623174000000176, -12.28719499999994], [43.62306000000018, -12.28701099999995], [43.622831000000076, -12.286184999999875], [43.622845000000154, -12.285455999999954], [43.62289800000008, -12.285337999999967], [43.62303500000007, -12.285323999999946], [43.62312600000013, -12.285242999999923], [43.62325500000014, -12.28508899999997], [43.62343000000004, -12.284839999999974], [43.62355900000006, -12.284626999999944], [43.62381000000005, -12.284384999999816], [43.62400000000014, -12.28438599999987], [43.62402300000008, -12.284341999999981], [43.62514900000019, -12.28433199999995], [43.62526300000019, -12.284250999999927], [43.625384000000054, -12.284089999999935], [43.625468000000126, -12.283861999999885], [43.62545900000009, -12.283345999999824], [43.62553500000013, -12.283316999999897], [43.625512000000185, -12.283044999999959], [43.62560300000007, -12.283000999999956], [43.62558000000013, -12.282698999999923], [43.625527000000034, -12.282690999999886], [43.62552600000009, -12.282071999999914], [43.625602000000185, -12.281917999999962], [43.62575400000014, -12.281785999999954], [43.62592900000004, -12.281646999999907], [43.62592100000012, -12.281344999999817], [43.625647000000185, -12.28114499999998], [43.625418000000025, -12.280996999999957], [43.62519000000003, -12.280700999999908], [43.62498400000004, -12.280544999999961], [43.62473300000005, -12.280359999999916], [43.624489000000096, -12.280174999999929], [43.62428399999999, -12.280018999999982], [43.624055000000055, -12.279781999999898], [43.62391000000014, -12.279582999999946], [43.623857000000044, -12.27944999999994], [43.623887000000025, -12.279250999999931], [43.6239480000001, -12.279096999999979], [43.62406900000019, -12.279082999999957], [43.62413000000004, -12.279170999999963], [43.62408500000009, -12.279251999999929], [43.62410600000004, -12.279368999999917], [43.62417600000015, -12.279458999999974], [43.62426000000016, -12.27953999999994], [43.6243970000001, -12.279547999999977], [43.62464000000017, -12.279416999999967], [43.62487600000014, -12.279402999999888], [43.62500500000016, -12.279300999999975], [43.62521800000019, -12.279116999999928], [43.62532400000009, -12.278948999999898], [43.625400000000184, -12.278860999999893], [43.62539200000003, -12.278454999999951], [43.62533100000013, -12.278373999999928], [43.62522500000006, -12.278284999999926], [43.62504200000001, -12.278224999999964], [43.62486700000011, -12.278165999999942], [43.62486700000011, -12.278010999999935], [43.62517100000002, -12.277952999999911], [43.62515500000012, -12.27751899999987], [43.625026000000105, -12.277488999999889], [43.62479000000013, -12.27750199999997], [43.624638000000175, -12.277567999999917], [43.62435700000003, -12.277661999999907], [43.62425000000002, -12.27759599999996], [43.62422000000004, -12.277499999999975], [43.62409000000014, -12.277417999999955], [43.624014000000045, -12.277395999999897], [43.62387700000011, -12.27735099999984], [43.62374200000011, -12.277315999999871], [43.623611000000096, -12.277260999999953], [43.62348100000003, -12.277164999999968], [43.623405000000105, -12.277053999999964], [43.62342800000005, -12.276869999999917], [43.62351900000016, -12.276678999999945], [43.62361700000008, -12.276597999999979], [43.62375400000002, -12.276561999999842], [43.62386100000003, -12.276554999999973], [43.62393700000007, -12.276614999999936], [43.623970000000156, -12.276733999999863], [43.62389200000007, -12.276820999999927], [43.623808000000054, -12.276856999999893], [43.62379300000009, -12.276937999999973], [43.623801000000185, -12.277003999999977], [43.623884000000146, -12.27710099999996], [43.62399900000008, -12.277166999999963], [43.6241050000001, -12.277196999999887], [43.62431000000004, -12.27710999999988], [43.62476600000008, -12.27681699999988], [43.62496400000015, -12.276825999999915], [43.62504000000001, -12.27675199999993], [43.62504000000001, -12.276560999999845], [43.6252300000001, -12.276443999999913], [43.62542800000017, -12.276429999999948], [43.62544300000019, -12.276274999999885], [43.6254120000001, -12.276142999999877], [43.62545800000015, -12.275906999999904], [43.625396000000194, -12.275589999999966], [43.62554800000015, -12.275472999999977], [43.62552500000004, -12.275199999999927], [43.62544900000012, -12.275170999999943], [43.62544800000006, -12.274566999999877], [43.62527300000011, -12.274373999999966], [43.625067000000115, -12.27420399999994], [43.62478700000008, -12.274089999999944], [43.62460300000009, -12.273980999999878], [43.62453499999998, -12.273869999999931], [43.624458000000004, -12.273758999999927], [43.624291000000085, -12.273559999999975], [43.62419900000009, -12.273345999999947], [43.624062000000094, -12.272843999999964], [43.62409900000017, -12.272608999999875], [43.62434200000018, -12.272321999999917], [43.62467700000019, -12.27230899999995], [43.625187000000096, -12.272392999999965], [43.62535400000007, -12.272429999999815], [43.625590000000045, -12.272489999999891], [43.62574200000006, -12.272387999999978], [43.62574200000006, -12.272203999999931], [43.62614500000018, -12.272212999999965], [43.626342000000136, -12.271830999999906], [43.626334000000156, -12.271285999999918], [43.626509000000055, -12.270836999999972], [43.62651600000015, -12.27063099999998], [43.62650800000017, -12.270276999999908], [43.626188000000184, -12.270039999999938], [43.6259060000001, -12.269935999999973], [43.62559700000014, -12.269849999999963], [43.62546500000019, -12.269712999999967], [43.62546500000019, -12.269410999999934], [43.62556300000017, -12.269263999999964], [43.625692000000186, -12.268836999999962], [43.625874000000124, -12.268005999999957], [43.62603300000012, -12.267763999999943], [43.6262000000001, -12.267594999999972], [43.62655000000012, -12.26758899999993], [43.626733000000115, -12.267515999999944], [43.62688400000019, -12.267325999999912], [43.62719600000008, -12.266928999999948], [43.627272000000175, -12.26680399999998], [43.627271000000064, -12.266339999999957], [43.62712800000014, -12.266025999999897], [43.62721800000014, -12.266047999999955]]]}}]}