{"type": "FeatureCollection", "features": [{"type": "Feature", "properties": {"country": "Comoros", "pcode": "KM261", "name": "Cembenoi Lac Sal\u00e9", "island": "Grande Comore (Ngazidja)"}, "geometry": {"type": "Polygon", "coordinates": [[[43.34425300000004, -11.366578999999888], [43.34446800000006, -11.366593999999964], [43.34496300000018, -11.366538999999875], [43.34544100000011, -11.36643799999996], [43.34575300000017, -11.366406999999981], [43.34605500000009, -11.366499999999917], [43.346438000000035, -11.366661999999906], [43.34702000000004, -11.366707999999903], [43.347379000000046, -11.366769999999974], [43.3478090000001, -11.366808999999932], [43.34827999999999, -11.366792999999916], [43.3489100000001, -11.366722999999979], [43.349620000000016, -11.366597999999954], [43.350202000000024, -11.366627999999935], [43.35061700000011, -11.366627999999935], [43.350864000000115, -11.36665099999982], [43.35150200000015, -11.366611999999975], [43.35170900000003, -11.366657999999973], [43.352052000000185, -11.366665999999896], [43.35241100000002, -11.366603999999938], [43.35299400000014, -11.366455999999914], [43.3536160000001, -11.366330999999889], [43.354022999999984, -11.366268999999932], [43.354461000000185, -11.366337999999928], [43.35471700000005, -11.366321999999968], [43.35511600000001, -11.366244999999878], [43.35549100000014, -11.366080999999895], [43.355746000000124, -11.365933999999982], [43.355858000000126, -11.365847999999971], [43.355962000000034, -11.365839999999935], [43.356217000000186, -11.365924999999947], [43.356448000000114, -11.366025999999977], [43.35679800000008, -11.36625099999992], [43.35725200000019, -11.366514999999936], [43.35752300000007, -11.366700999999978], [43.35789799999998, -11.366878999999926], [43.358312000000126, -11.367111999999963], [43.358861000000104, -11.367428999999959], [43.35923600000001, -11.367723999999953], [43.35944300000011, -11.367894999999976], [43.359649000000104, -11.368196999999839], [43.35979300000014, -11.368352999999956], [43.35984000000008, -11.368483999999967], [43.35986400000013, -11.368608999999822], [43.36003900000003, -11.368902999999875], [43.360333000000026, -11.369089999999915], [43.360612, -11.369205999999906], [43.36106600000011, -11.369437999999946], [43.36146400000018, -11.369678999999962], [43.36168000000009, -11.369802999999933], [43.361823000000015, -11.369825999999875], [43.361999000000026, -11.369809999999973], [43.36215800000002, -11.36978699999986], [43.36230200000006, -11.369716999999923], [43.36238100000003, -11.369770999999957], [43.362477000000126, -11.36987999999991], [43.36265200000008, -11.36994199999998], [43.36286800000016, -11.36994199999998], [43.363059000000135, -11.370041999999899], [43.36327399999999, -11.37018999999998], [43.36351300000007, -11.37031399999995], [43.363728000000094, -11.370382999999947], [43.36399100000017, -11.370390999999927], [43.36431800000008, -11.370320999999876], [43.364430000000084, -11.370312999999953], [43.36494800000014, -11.370545999999933], [43.36536200000012, -11.370637999999929], [43.36571300000003, -11.370738999999844], [43.36598400000008, -11.370777999999973], [43.366223000000105, -11.37075399999992], [43.36655800000011, -11.370722999999941], [43.366877000000045, -11.370760999999959], [43.3671480000001, -11.370869999999911], [43.36749100000003, -11.370993999999882], [43.367810000000134, -11.371086999999932], [43.368113000000164, -11.371140999999966], [43.3683200000001, -11.371186999999964], [43.36862300000007, -11.371326999999894], [43.36891700000007, -11.371512999999936], [43.36932300000012, -11.371838999999909], [43.36959400000012, -11.372070999999835], [43.36980100000005, -11.3722029999999], [43.36997600000012, -11.372241999999858], [43.370120000000156, -11.372241999999858], [43.370390999999984, -11.372194999999977], [43.370631000000174, -11.37208599999991], [43.370813999999996, -11.371969999999976], [43.37095000000005, -11.37185299999993], [43.37108600000016, -11.371759999999938], [43.371341000000086, -11.371797999999956], [43.37155600000011, -11.37178299999988], [43.37170800000007, -11.371681999999964], [43.37187600000016, -11.371549999999957], [43.37198800000016, -11.371533999999883], [43.37225100000006, -11.37151799999998], [43.37254600000017, -11.371602999999936], [43.37278500000019, -11.371703999999909], [43.373239000000126, -11.37182799999988], [43.37336700000003, -11.371897999999817], [43.37348600000013, -11.372052999999937], [43.373589000000095, -11.372122999999874], [43.37369300000017, -11.372106999999971], [43.37383700000004, -11.372075999999879], [43.37401200000011, -11.371989999999869], [43.3743080000001, -11.371881999999914], [43.37436300000019, -11.37195899999989], [43.374474000000134, -11.372183999999947], [43.374609000000135, -11.372548999999935], [43.374728000000005, -11.372920999999906], [43.37497500000006, -11.373215999999957], [43.3752530000001, -11.373370999999906], [43.375580000000184, -11.373479999999972], [43.376290000000154, -11.373548999999912], [43.376832000000036, -11.373563999999817], [43.377638000000104, -11.37346999999994], [43.377932999999985, -11.373423999999943], [43.378348000000074, -11.373275999999976], [43.37865900000003, -11.373143999999968], [43.3799590000001, -11.373103999999955], [43.38054200000005, -11.37306499999994], [43.38089300000013, -11.37297099999995], [43.381132000000036, -11.372861999999884], [43.38136400000019, -11.372721999999953], [43.38147600000008, -11.37257499999987], [43.38153200000005, -11.372450999999899], [43.38154800000012, -11.372232999999824], [43.38153300000016, -11.372038999999916], [43.38143800000012, -11.371751999999901], [43.38138200000009, -11.371542999999917], [43.38137500000005, -11.371371999999894], [43.381686, -11.371099999999956], [43.38191800000004, -11.371068999999977], [43.38245900000004, -11.37130899999994], [43.38310500000017, -11.371571999999844], [43.38372600000008, -11.371781999999882], [43.38410100000016, -11.371881999999914], [43.38472300000012, -11.371951999999908], [43.38495400000005, -11.372005999999942], [43.38553600000006, -11.372183999999947], [43.385695000000055, -11.372276999999826], [43.38574300000016, -11.372377999999912], [43.38590200000016, -11.372563999999954], [43.38603700000016, -11.372671999999909], [43.38616500000006, -11.372679999999946], [43.38622100000009, -11.372617999999875], [43.38651600000014, -11.37248599999998], [43.387011000000086, -11.372500999999886], [43.38727400000016, -11.372376999999915], [43.38749700000017, -11.372352999999976], [43.387720000000115, -11.372445999999968], [43.387664000000086, -11.372763999999961], [43.387600000000134, -11.373004999999921], [43.387862000000155, -11.373190999999963], [43.38799000000006, -11.373190999999963], [43.38821400000012, -11.37294999999989], [43.38863700000013, -11.372825999999861], [43.388732000000175, -11.373089999999934], [43.38889900000015, -11.373298999999918], [43.389138, -11.373414999999909], [43.38927300000017, -11.373616999999854], [43.38932000000017, -11.373849999999948], [43.389487000000145, -11.374074999999891], [43.38968700000015, -11.374097999999947], [43.38975900000008, -11.373903999999982], [43.389935000000094, -11.373709999999903], [43.390278000000194, -11.373724999999979], [43.39049300000005, -11.373941999999829], [43.390708000000075, -11.374143999999944], [43.39097800000002, -11.374244999999917], [43.39109000000008, -11.374244999999917], [43.39127400000018, -11.3740039999999], [43.39143400000012, -11.373878999999931], [43.391713000000095, -11.373746999999923], [43.39185700000013, -11.373746999999923], [43.39185600000019, -11.373948999999982], [43.39173600000004, -11.374103999999932], [43.39145700000006, -11.374267999999972], [43.39142500000008, -11.374375999999927], [43.39177500000005, -11.374569999999835], [43.39191900000009, -11.374561999999969], [43.39199100000019, -11.374429999999961], [43.39205500000014, -11.374103999999932], [43.39211900000009, -11.374002999999902], [43.392199000000176, -11.374056999999937], [43.39223800000019, -11.374266999999975], [43.39231000000012, -11.374468999999976], [43.392382000000055, -11.374421999999925], [43.39246200000008, -11.374103999999932], [43.39271700000006, -11.37412699999993], [43.39291700000007, -11.37389399999995], [43.39316400000007, -11.373908999999855], [43.393196000000046, -11.374071999999842], [43.39306800000014, -11.374234999999828], [43.39270900000008, -11.374289999999917], [43.39264500000013, -11.374429999999961], [43.392677000000106, -11.374522999999954], [43.392795999999976, -11.374561999999969], [43.393084000000044, -11.37435199999993], [43.393155000000036, -11.374459999999942], [43.39301900000015, -11.374607999999967], [43.393043000000034, -11.374786999999912], [43.39322600000003, -11.374762999999973], [43.39349000000004, -11.374661999999887], [43.393641000000116, -11.37483299999991], [43.39383200000009, -11.3747469999999], [43.39383200000009, -11.374886999999944], [43.39368800000011, -11.375057999999967], [43.39349700000008, -11.37504999999993], [43.39332100000007, -11.375173999999959], [43.39340100000015, -11.375344999999982], [43.39374300000003, -11.375678999999934], [43.394078000000036, -11.375677999999937], [43.39438100000007, -11.375778999999966], [43.39453100000003, -11.376096999999959], [43.39465100000018, -11.376127999999937], [43.394794000000104, -11.376174999999932], [43.39493000000016, -11.376337999999919], [43.395001000000036, -11.37652399999996], [43.39498500000013, -11.376756999999941], [43.3948410000001, -11.376965999999925], [43.39483999999999, -11.377113999999892], [43.39493600000014, -11.377276999999879], [43.39505500000001, -11.37731599999995], [43.395263, -11.377182999999945], [43.3953820000001, -11.377144999999814], [43.39557400000018, -11.377167999999926], [43.39568500000013, -11.377244999999903], [43.395852000000104, -11.377438999999981], [43.39600300000012, -11.377694999999846], [43.396162000000174, -11.377873999999906], [43.39617700000014, -11.378362999999979], [43.396144000000106, -11.379130999999916], [43.39593600000012, -11.37928699999992], [43.39593600000012, -11.379410999999891], [43.396191000000044, -11.379635999999948], [43.39629400000007, -11.379805999999974], [43.39629400000007, -11.379891999999927], [43.396158000000185, -11.38020999999992], [43.396094000000005, -11.38020999999992], [43.395926000000145, -11.38020299999988], [43.39576700000015, -11.380248999999935], [43.395766000000094, -11.380442999999843], [43.39587000000017, -11.380574999999908], [43.396356000000026, -11.380729999999971], [43.39646700000014, -11.380783999999892], [43.39645100000007, -11.380946999999878], [43.39623500000016, -11.381110999999976], [43.396243000000084, -11.381179999999972], [43.396450000000186, -11.381265999999925], [43.396554000000094, -11.381187999999952], [43.39673000000005, -11.381164999999896], [43.39675300000005, -11.3813659999999], [43.396905000000174, -11.381443999999874], [43.39709600000015, -11.381606999999974], [43.39694400000019, -11.381792999999902], [43.39684000000011, -11.38176199999998], [43.39665700000006, -11.381691999999873], [43.39658500000013, -11.381847999999934], [43.396449000000075, -11.381956999999943], [43.39670300000017, -11.382343999999932], [43.396927000000005, -11.382258999999976], [43.39703800000018, -11.382266999999956], [43.397230000000036, -11.38214199999993], [43.39722200000011, -11.38237499999991], [43.39712600000013, -11.382452999999884], [43.397125000000074, -11.382871999999907], [43.39724400000017, -11.38294999999988], [43.39724400000017, -11.383228999999972], [43.397156000000166, -11.383306999999945], [43.39694100000014, -11.383205999999916], [43.396909000000164, -11.383236999999895], [43.39682100000016, -11.383368999999902], [43.396804000000145, -11.383523999999966], [43.39721900000001, -11.383779999999888], [43.39713100000006, -11.383934999999951], [43.397122000000195, -11.38428499999992], [43.397376000000065, -11.384586999999954], [43.39731200000011, -11.384695999999906], [43.39730400000013, -11.384982999999977], [43.39698500000003, -11.38508399999995], [43.39694400000019, -11.38516999999996], [43.396984000000145, -11.385278999999855], [43.39730300000008, -11.38530899999995], [43.39713499999999, -11.385440999999844], [43.39712700000007, -11.385759999999948], [43.39702300000016, -11.385852999999827], [43.39705400000008, -11.386193999999875], [43.39691799999997, -11.386357999999973], [43.396894000000145, -11.386589999999956], [43.39696500000014, -11.386589999999956], [43.39727600000015, -11.386543999999958], [43.397540000000106, -11.386511999999982], [43.39757100000003, -11.386573999999882], [43.39741200000003, -11.386705999999947], [43.39721199999997, -11.386799999999937], [43.397021000000166, -11.386807999999974], [43.396909000000164, -11.38686999999993], [43.39690800000005, -11.387148999999965], [43.39705200000009, -11.387319999999875], [43.39717900000011, -11.38743599999998], [43.39735400000018, -11.387536999999895], [43.39761000000004, -11.38733499999995], [43.397817000000146, -11.38721899999996], [43.3979930000001, -11.387194999999906], [43.39824000000016, -11.387202999999886], [43.39836800000006, -11.387271999999882], [43.39849500000008, -11.387388999999928], [43.398463000000106, -11.387535999999898], [43.398287000000096, -11.387566999999876], [43.3980160000001, -11.387730999999974], [43.3980140000001, -11.388327999999888], [43.397950000000094, -11.388475999999969], [43.39799000000005, -11.38852999999989], [43.39800600000012, -11.388669999999934], [43.39783800000009, -11.388786999999923], [43.39783699999998, -11.38901199999998], [43.39797300000009, -11.389205999999945], [43.39810000000011, -11.389298999999937], [43.39845100000019, -11.389313999999843], [43.39872200000002, -11.389390999999819], [43.39878500000009, -11.389522999999883], [43.39896800000014, -11.38968599999987], [43.39907200000005, -11.389825999999914], [43.39902400000017, -11.38990299999989], [43.39885600000014, -11.389980999999977], [43.39874400000008, -11.390058999999951], [43.39856900000018, -11.389973999999938], [43.398298000000125, -11.389810999999952], [43.398171000000104, -11.389756999999975], [43.39801900000015, -11.38977199999988], [43.39779500000009, -11.390004999999974], [43.39761200000004, -11.390214999999955], [43.3975870000001, -11.39050999999995], [43.39761900000008, -11.390703999999914], [43.3977220000001, -11.391029999999887], [43.397865000000195, -11.391285999999923], [43.39805500000011, -11.391619999999932], [43.39838900000001, -11.39196899999996], [43.39868400000012, -11.392224999999826], [43.398907000000065, -11.392441999999903], [43.399034000000086, -11.392526999999859], [43.39910600000019, -11.392472999999939], [43.39919400000019, -11.392247999999938], [43.399251000000106, -11.391921999999965], [43.399363000000164, -11.39164199999982], [43.39942700000012, -11.391501999999946], [43.39961100000005, -11.391377999999975], [43.39991400000008, -11.39115299999986], [43.400050000000135, -11.390996999999913], [43.40031400000015, -11.390779999999893], [43.400442000000055, -11.390716999999938], [43.40068900000006, -11.39060899999987], [43.40098500000005, -11.39046899999994], [43.40123200000005, -11.390359999999873], [43.401496000000066, -11.390141999999969], [43.40177500000004, -11.389939999999967], [43.402030000000025, -11.389885999999933], [43.402206000000035, -11.389978999999869], [43.40225299999997, -11.390079999999898], [43.40234100000015, -11.39025799999996], [43.402340000000095, -11.390684999999962], [43.40238700000009, -11.39080899999982], [43.402594000000136, -11.391134999999963], [43.402825000000064, -11.391468999999972], [43.40300800000011, -11.391708999999935], [43.40325400000006, -11.392019999999832], [43.403332999999975, -11.39220599999993], [43.40335700000003, -11.392593999999974], [43.40324500000003, -11.39260899999988], [43.40302200000019, -11.392585999999937], [43.40267100000011, -11.392469999999946], [43.402464000000066, -11.392415999999912], [43.40208100000012, -11.392276999999865], [43.401810000000125, -11.392190999999855], [43.40143500000016, -11.39216799999997], [43.40114000000011, -11.392245999999943], [43.400853000000154, -11.392377999999951], [43.40064500000017, -11.392517999999825], [43.40047700000014, -11.392696999999885], [43.400237000000175, -11.393154999999922], [43.400053000000014, -11.393566999999905], [43.399972000000105, -11.393876999999975], [43.39986000000005, -11.394187999999872], [43.39985900000016, -11.394753999999978], [43.39992200000006, -11.395002999999974], [43.400184000000024, -11.395623999999941], [43.40035100000017, -11.395979999999895], [43.40035800000004, -11.39634499999994], [43.40023800000006, -11.396461999999929], [43.399919000000125, -11.396407999999894], [43.399823000000026, -11.396492999999907], [43.399799000000144, -11.396710999999982], [43.39996600000012, -11.39691199999993], [43.399998000000096, -11.39699799999994], [43.39992500000011, -11.397206999999923], [43.39948500000014, -11.397983999999894], [43.39946900000001, -11.39823999999993], [43.39968300000015, -11.398650999999916], [43.39992200000006, -11.398999999999944], [43.400136000000145, -11.399217999999962], [43.400431000000026, -11.399379999999951], [43.40050300000013, -11.399387999999817], [43.40079099999997, -11.39907699999992], [43.40127700000005, -11.399099999999976], [43.40139700000003, -11.399192999999912], [43.40162800000013, -11.399068999999884], [43.40177900000003, -11.399146999999857], [43.40178700000018, -11.399503999999979], [43.40206500000005, -11.399712999999963], [43.401937000000146, -11.399960999999962], [43.40161800000004, -11.400256999999954], [43.40143400000011, -11.400481999999897], [43.401425000000074, -11.40098699999993], [43.40139200000016, -11.40111799999994], [43.40147200000001, -11.401195999999914], [43.40180700000002, -11.401234999999872], [43.40248500000018, -11.40125699999993], [43.402732000000185, -11.401419999999973], [43.40300300000007, -11.401419999999973], [43.403257999999994, -11.401481999999874], [43.403640000000166, -11.401714999999967], [43.40370400000012, -11.401814999999885], [43.403591000000006, -11.402218999999945], [43.40380500000015, -11.402847999999835], [43.40401200000002, -11.403204999999957], [43.40006600000004, -11.405043999999975], [43.38422200000008, -11.40880599999997], [43.36694700000015, -11.412458999999956], [43.36291700000015, -11.39958299999995], [43.36019400000009, -11.394055999999978], [43.35332000000011, -11.381003999999962], [43.33829500000019, -11.377680999999939], [43.33719300000013, -11.371426999999926], [43.33761600000014, -11.37126399999994], [43.33803100000006, -11.371046999999919], [43.33839000000006, -11.370797999999922], [43.338710000000106, -11.370502999999928], [43.33888600000006, -11.370230999999933], [43.33900600000004, -11.369927999999959], [43.33905400000015, -11.36971799999992], [43.33906300000018, -11.369539999999915], [43.33910300000008, -11.369438999999943], [43.33920700000016, -11.369314999999972], [43.33945400000016, -11.369213999999943], [43.339550000000145, -11.369119999999896], [43.339550000000145, -11.369049999999959], [43.33951100000007, -11.36894999999987], [43.339415000000145, -11.368677999999932], [43.33939200000003, -11.36856199999994], [43.339401000000066, -11.368180999999936], [43.33948900000007, -11.368079999999907], [43.3397040000001, -11.367932999999937], [43.33998400000013, -11.36783099999991], [43.34019100000006, -11.36768399999994], [43.34040700000014, -11.367395999999928], [43.34052700000012, -11.36719399999987], [43.340647000000104, -11.36710899999997], [43.34091000000001, -11.367061999999976], [43.34108600000019, -11.366983999999945], [43.34134900000009, -11.366820999999959], [43.34154900000016, -11.366649999999936], [43.341701000000114, -11.366463999999894], [43.34178100000014, -11.366323999999963], [43.341862000000106, -11.366005999999913], [43.34190200000006, -11.365896999999961], [43.342038000000116, -11.365733999999975], [43.34225300000014, -11.365531999999973], [43.34250100000003, -11.365337999999895], [43.34262100000001, -11.365275999999938], [43.34270100000009, -11.365275999999938], [43.342796000000135, -11.365399999999966], [43.342858999999976, -11.365562999999952], [43.342915000000175, -11.36574899999988], [43.34301000000005, -11.36591199999998], [43.343225000000075, -11.366089999999929], [43.34350400000005, -11.366268999999932], [43.34385400000008, -11.36645499999986], [43.34402200000011, -11.36652399999997], [43.34425300000004, -11.366578999999888]]]}}]}