{"type": "FeatureCollection", "features": [{"type": "Feature", "properties": {"country": "Comoros", "pcode": "KM252", "name": "Nioumagama", "island": "Grande Comore (Ngazidja)"}, "geometry": {"type": "Polygon", "coordinates": [[[43.41841299999999, -11.816185999999902], [43.42578900000012, -11.824454999999944], [43.438624000000175, -11.854238999999836], [43.43964600000004, -11.890912999999955], [43.44241600000004, -11.898203999999964], [43.445083000000125, -11.90522199999998], [43.44588900000019, -11.909721999999874], [43.440694000000065, -11.920027999999945], [43.438598000000184, -11.92583599999989], [43.4381570000001, -11.925756999999862], [43.438053000000025, -11.92565499999995], [43.438042000000166, -11.925360999999953], [43.43776300000019, -11.925145999999927], [43.43767000000014, -11.925134999999898], [43.43758900000017, -11.925134999999898], [43.437448000000074, -11.92555399999992], [43.437298000000055, -11.92549699999995], [43.43724000000009, -11.925349999999924], [43.43714700000004, -11.925202999999954], [43.43700800000005, -11.924999999999955], [43.43689200000006, -11.924988999999925], [43.43671700000016, -11.925259999999867], [43.43654300000014, -11.925259999999867], [43.43641500000001, -11.92516999999998], [43.43638100000004, -11.925011999999924], [43.436207000000024, -11.924807999999928], [43.43607900000012, -11.924841999999899], [43.43583500000017, -11.924626999999873], [43.43545200000011, -11.924604999999929], [43.43532500000009, -11.924310999999932], [43.435058000000026, -11.924095999999906], [43.4348720000001, -11.923949999999934], [43.43469800000008, -11.923745999999937], [43.43457100000006, -11.923576999999966], [43.43427100000008, -11.92276199999992], [43.434097000000065, -11.92261499999995], [43.43381800000009, -11.92233299999998], [43.433156000000054, -11.922366999999952], [43.43307500000009, -11.922265999999922], [43.43338900000015, -11.921959999999956], [43.43340100000006, -11.9218469999999], [43.43326200000007, -11.921688999999958], [43.43312300000014, -11.92165499999993], [43.43307600000014, -11.921563999999933], [43.43310100000008, -11.921066999999937], [43.43268200000006, -11.920998999999824], [43.43250800000004, -11.920908999999938], [43.43229900000017, -11.920795999999882], [43.432207000000005, -11.920693999999969], [43.431953000000135, -11.919687999999951], [43.43178000000006, -11.919121999999959], [43.43164100000007, -11.918895999999904], [43.43149100000011, -11.918522999999936], [43.43110800000005, -11.91822899999994], [43.43092200000012, -11.91807099999994], [43.430598000000145, -11.917742999999973], [43.4304820000001, -11.91759599999989], [43.43033100000008, -11.917369999999949], [43.42997200000019, -11.916815999999926], [43.42982200000006, -11.916601999999898], [43.429589000000135, -11.916454999999928], [43.429473000000144, -11.916397999999901], [43.42909100000014, -11.915945999999963], [43.42882400000008, -11.915934999999934], [43.42865000000006, -11.915844999999877], [43.428662000000145, -11.91540299999997], [43.42859300000015, -11.915256999999883], [43.42815200000007, -11.914769999999919], [43.42771100000016, -11.914578999999947], [43.42775800000015, -11.914340999999979], [43.42794500000019, -11.91377499999993], [43.427957000000106, -11.91358299999996], [43.42750400000011, -11.913571999999931], [43.427493000000084, -11.913187999999934], [43.427273000000184, -11.912949999999967], [43.42711000000003, -11.912915999999939], [43.427134000000194, -11.912644999999884], [43.42686700000013, -11.912723999999912], [43.426739000000055, -11.912610999999913], [43.42705300000006, -11.912327999999945], [43.42693800000018, -11.912124999999946], [43.42664700000006, -11.912305999999887], [43.42639200000008, -11.912090999999975], [43.426962000000174, -11.911841999999979], [43.426962000000174, -11.911660999999981], [43.42652000000004, -11.911683999999923], [43.42683500000015, -11.911321999999927], [43.42656800000009, -11.91103899999996], [43.426847000000066, -11.910846999999876], [43.42670900000002, -11.91059799999988], [43.42649900000009, -11.910563999999908], [43.42644200000018, -11.910495999999966], [43.42667400000016, -11.910258999999883], [43.4263620000001, -11.90942199999995], [43.426467000000116, -11.909240999999952], [43.426433000000145, -11.908822999999927], [43.426178000000164, -11.908652999999958], [43.42592200000013, -11.908833999999956], [43.42578300000014, -11.908698999999956], [43.42601600000006, -11.908415999999932], [43.42535500000008, -11.907782999999938], [43.42515700000007, -11.907918999999936], [43.42506400000019, -11.90785099999988], [43.425181000000066, -11.907590999999968], [43.42476400000004, -11.907115999999974], [43.42430000000019, -11.906561999999894], [43.423754000000145, -11.906516999999894], [43.423254000000156, -11.90658499999995], [43.42275400000017, -11.906754999999976], [43.42232400000012, -11.906970999999885], [43.422439000000054, -11.907592999999963], [43.42210200000005, -11.907388999999853], [43.42178799999999, -11.90779699999996], [43.42167100000012, -11.907818999999904], [43.42162600000012, -11.907536999999934], [43.42153300000007, -11.907468999999878], [43.42069600000008, -11.907627999999818], [43.42052100000018, -11.907910999999956], [43.42023100000017, -11.907729999999901], [43.42007899999999, -11.907797999999957], [43.41982400000006, -11.907786999999928], [43.41998700000005, -11.907356999999934], [43.41941900000012, -11.907051999999965], [43.41915100000017, -11.907255999999961], [43.41908100000006, -11.907210999999961], [43.41916300000008, -11.906961999999965], [43.41823500000004, -11.906192999999917], [43.41803699999997, -11.90664599999991], [43.417909000000066, -11.906566999999939], [43.41806100000019, -11.906102999999916], [43.41798000000006, -11.905910999999946], [43.41750300000001, -11.906193999999914], [43.41741000000013, -11.906102999999916], [43.417609000000084, -11.905865999999946], [43.417562000000146, -11.905718999999976], [43.41731800000019, -11.905820999999946], [43.417201999999975, -11.905763999999976], [43.41722600000003, -11.905277999999953], [43.416821000000084, -11.904723999999874], [43.416519000000164, -11.904486999999904], [43.41649600000005, -11.904316999999935], [43.41632200000004, -11.904305999999849], [43.4159150000001, -11.904577999999958], [43.41578700000014, -11.904452999999933], [43.415985000000035, -11.904237999999907], [43.41580000000016, -11.904102999999907], [43.41543900000016, -11.904475999999875], [43.415241000000094, -11.904272999999932], [43.415242000000035, -11.903865999999937], [43.41506800000019, -11.903876999999966], [43.41460400000017, -11.903639999999882], [43.41480200000018, -11.903311999999914], [43.41480200000018, -11.903243999999972], [43.414558000000056, -11.903220999999974], [43.414535000000114, -11.903085999999973], [43.4143610000001, -11.90277999999995], [43.41407200000003, -11.902486999999951], [43.41358500000007, -11.902033999999958], [43.41319000000004, -11.9018089999999], [43.412817000000075, -11.902136999999982], [43.41253899999998, -11.902102999999897], [43.41214400000018, -11.901740999999959], [43.412552000000176, -11.901333999999963], [43.41228500000011, -11.901028999999937], [43.411854000000176, -11.90142499999996], [43.411587999999995, -11.901198999999963], [43.411286000000075, -11.901198999999963], [43.41133200000013, -11.901074999999935], [43.41112300000009, -11.900916999999936], [43.41090300000019, -11.900837999999965], [43.41071700000009, -11.900644999999884], [43.410718000000145, -11.900509999999827], [43.41061300000018, -11.900396999999884], [43.41030000000001, -11.900034999999946], [43.40981200000016, -11.900159999999971], [43.410068000000194, -11.899797999999976], [43.4097900000001, -11.899401999999895], [43.409534000000065, -11.899571999999921], [43.40944200000007, -11.89953799999995], [43.409605000000056, -11.899277999999924], [43.40953600000006, -11.898892999999873], [43.40896500000008, -11.899424999999951], [43.40884900000003, -11.899277999999924], [43.409163999999976, -11.898802999999873], [43.40911100000005, -11.898555999999871], [43.41333300000014, -11.896166999999934], [43.41714600000017, -11.886803999999813], [43.414611000000036, -11.877832999999953], [43.40717800000016, -11.860934999999927], [43.403504999999996, -11.85258499999992], [43.38783681700011, -11.816968400999883], [43.37076100000007, -11.778151999999977], [43.370859000000166, -11.77808099999993], [43.37100600000008, -11.777747999999917], [43.37137400000017, -11.777176999999938], [43.3717170000001, -11.77677199999988], [43.371937, -11.776533999999913], [43.372084000000086, -11.77624899999995], [43.37220800000006, -11.775749999999903], [43.372331000000145, -11.77520299999992], [43.37238100000019, -11.774679999999933], [43.372383000000184, -11.773799999999937], [43.37238500000012, -11.772919999999942], [43.37243400000011, -11.772681999999975], [43.37250800000004, -11.77251599999994], [43.37260600000013, -11.772230999999977], [43.372607000000016, -11.771944999999846], [43.37270500000017, -11.77180199999998], [43.37312100000014, -11.771611999999891], [43.37358500000016, -11.771468999999968], [43.374343000000124, -11.77125499999994], [43.374978999999996, -11.770802999999944], [43.375469000000066, -11.770254999999963], [43.37591000000015, -11.769636999999932], [43.376278000000184, -11.768946999999855], [43.41841299999999, -11.816185999999902]]]}}]}