{"type": "FeatureCollection", "features": [{"type": "Feature", "properties": {"country": "Comoros", "pcode": "KM264", "name": "Nyuma Komo", "island": "Grande Comore (Ngazidja)"}, "geometry": {"type": "Polygon", "coordinates": [[[43.33244400000012, -11.404443999999899], [43.33692800000006, -11.416978999999913], [43.30752800000005, -11.417332999999928], [43.30154599999997, -11.419475999999918], [43.29786100000007, -11.421610999999928], [43.290621000000044, -11.420125999999982], [43.28700000000009, -11.419604999999933], [43.28313900000006, -11.422471999999857], [43.28522200000009, -11.413305999999977], [43.28519400000005, -11.402916999999945], [43.29277800000017, -11.39677799999987], [43.29991700000005, -11.396027999999887], [43.31930600000004, -11.396249999999952], [43.32550000000009, -11.390055999999959], [43.33244400000012, -11.404443999999899]]]}}]}