{"type": "FeatureCollection", "features": [{"type": "Feature", "properties": {"country": "Comoros", "pcode": "KM151", "name": "Moya", "island": "Anjouan (Ndzouani)"}, "geometry": {"type": "Polygon", "coordinates": [[[44.457525000000146, -12.277804999999944], [44.4568910000001, -12.280259999999942], [44.45537600000017, -12.28381899999988], [44.45414900000003, -12.286092999999823], [44.45264500000013, -12.287969999999973], [44.45198800000014, -12.288759999999968], [44.45263200000011, -12.289849999999888], [44.4535590000001, -12.29044499999992], [44.45241000000004, -12.294795999999963], [44.45265100000012, -12.29773199999994], [44.45311800000019, -12.300185999999883], [44.45737700000018, -12.30431399999992], [44.45915769800007, -12.305934050999952], [44.46120220500018, -12.307794110999907], [44.46159877400004, -12.308154903999935], [44.46275300000019, -12.309204999999963], [44.46420900000004, -12.312596999999926], [44.46327100000002, -12.315360999999939], [44.46238000000005, -12.3185059999999], [44.46171900000007, -12.319845999999927], [44.46067600000009, -12.322191999999973], [44.46050100000019, -12.322247999999831], [44.46038400000009, -12.322224999999946], [44.4602680000001, -12.322010999999918], [44.46002500000003, -12.321705999999836], [44.45974700000016, -12.321264999999926], [44.4594800000001, -12.320959999999843], [44.45930600000008, -12.320801999999901], [44.45907200000005, -12.320710999999847], [44.458885000000066, -12.320710999999847], [44.45873400000016, -12.320732999999962], [44.45856900000018, -12.320890999999904], [44.45846300000011, -12.321002999999848], [44.45837000000006, -12.321013999999934], [44.45834600000006, -12.321092999999905], [44.458182000000136, -12.321193999999934], [44.45799500000015, -12.321261999999933], [44.45794700000005, -12.321430999999905], [44.45783000000017, -12.321463999999878], [44.45773600000018, -12.321598999999935], [44.457536000000175, -12.321801999999877], [44.457349000000136, -12.321857999999963], [44.457196000000124, -12.321936999999934], [44.45704500000005, -12.321946999999966], [44.457046000000105, -12.321744999999964], [44.45729300000011, -12.321394999999939], [44.45736500000004, -12.32110199999994], [44.457494000000054, -12.320921999999882], [44.45769300000018, -12.320809999999938], [44.45796300000012, -12.320663999999965], [44.458092000000136, -12.32053999999988], [44.458059000000105, -12.320189999999968], [44.457966000000056, -12.320088999999882], [44.45773300000013, -12.31998699999997], [44.457535000000064, -12.319952999999941], [44.45732400000003, -12.319985999999972], [44.45707900000019, -12.320018999999945], [44.456751000000054, -12.320119999999974], [44.456400000000144, -12.320254999999861], [44.45594300000016, -12.320411999999976], [44.455616000000134, -12.32048999999995], [44.45537100000007, -12.320466999999894], [44.45518500000014, -12.320240999999953], [44.45504600000004, -12.31995899999987], [44.45490700000005, -12.319777999999928], [44.45465000000013, -12.319698999999957], [44.454417000000035, -12.31964199999993], [44.45374000000015, -12.319583999999963], [44.453576000000055, -12.319560999999908], [44.45329600000019, -12.319526999999937], [44.45293500000014, -12.319356999999968], [44.45271500000007, -12.31908599999997], [44.452657000000045, -12.318859999999972], [44.45268199999998, -12.318611999999973], [44.45271900000006, -12.318295999999975], [44.45251000000013, -12.31809299999992], [44.45228900000018, -12.317821999999978], [44.45232600000003, -12.317629999999895], [44.452269000000115, -12.317201999999952], [44.452015000000074, -12.316828999999814], [44.45201600000013, -12.31651299999993], [44.45184200000011, -12.316286999999818], [44.45167900000013, -12.316263999999933], [44.45161000000013, -12.315959999999961], [44.451391000000115, -12.315485999999964], [44.45106500000014, -12.315247999999826], [44.450868000000185, -12.315078999999969], [44.450634000000036, -12.315043999999887], [44.4502720000001, -12.315043999999887], [44.45003800000006, -12.31508799999989], [44.44955900000008, -12.315165999999977], [44.449068000000125, -12.315119999999979], [44.448870000000056, -12.315164999999979], [44.44865900000019, -12.315208999999982], [44.44815500000004, -12.315467999999896], [44.4475930000001, -12.315781999999956], [44.447253000000046, -12.315972999999929], [44.4466910000001, -12.316106999999931], [44.44614200000012, -12.31620799999996], [44.44566300000014, -12.316217999999878], [44.4451840000001, -12.31618299999991], [44.445078000000194, -12.316261999999881], [44.44469100000015, -12.316689999999937], [44.44429300000007, -12.316699999999969], [44.44411700000012, -12.316811999999913], [44.443966000000046, -12.316789999999969], [44.44387300000017, -12.316642999999942], [44.443839000000025, -12.316495999999972], [44.44384000000008, -12.316315999999972], [44.44372299999998, -12.316393999999946], [44.44350000000003, -12.316449999999975], [44.44341800000018, -12.316551999999888], [44.44322000000011, -12.31642699999992], [44.44310400000012, -12.316302999999891], [44.44295200000016, -12.316302999999891], [44.442872000000136, -12.316019999999924], [44.44277900000003, -12.315907999999979], [44.44273200000009, -12.315884999999867], [44.44262700000007, -12.315884999999867], [44.44248800000014, -12.315759999999898], [44.44236000000001, -12.315579999999954], [44.44220800000005, -12.315578999999957], [44.44215000000008, -12.315499999999872], [44.44209200000006, -12.315477999999928], [44.4419400000001, -12.315510999999901], [44.44184700000005, -12.315465999999901], [44.44162600000004, -12.315205999999819], [44.44149900000019, -12.315047999999877], [44.44137000000018, -12.315035999999964], [44.44133500000015, -12.315103999999906], [44.441265000000044, -12.315046999999879], [44.44118300000014, -12.315114999999935], [44.44106600000009, -12.315057999999908], [44.44092600000005, -12.315023999999937], [44.44084400000003, -12.315124999999966], [44.44084400000003, -12.315203999999937], [44.44079600000009, -12.315339999999878], [44.44063200000005, -12.315395999999907], [44.44044600000012, -12.315372999999965], [44.44023600000014, -12.315168999999969], [44.44012000000015, -12.315033999999969], [44.439972000000125, -12.314390999999887], [44.43953000000016, -12.313972999999919], [44.43915700000002, -12.31393799999995], [44.439065000000085, -12.313689999999951], [44.43884300000019, -12.313587999999982], [44.437970000000064, -12.313145999999904], [44.437690000000146, -12.313043999999877], [44.43765500000012, -12.31299899999982], [44.43764400000009, -12.312908999999934], [44.4375500000001, -12.312907999999936], [44.43745700000005, -12.312907999999936], [44.437328000000036, -12.312918999999965], [44.43720000000013, -12.312974999999938], [44.43717600000008, -12.313053999999909], [44.43690700000002, -12.313075999999967], [44.43674400000003, -12.312962999999968], [44.43675700000006, -12.312748999999826], [44.4368520000001, -12.31236599999994], [44.437134000000185, -12.312140999999883], [44.4371010000001, -12.311756999999886], [44.436786000000154, -12.311677999999915], [44.43663500000008, -12.311496999999974], [44.436589000000026, -12.311383999999862], [44.43653100000017, -12.311293999999975], [44.436461000000065, -12.311383999999862], [44.43625000000003, -12.311439999999948], [44.43613200000004, -12.311619999999948], [44.43599200000017, -12.311698999999976], [44.435898000000066, -12.311697999999978], [44.43578200000002, -12.31161899999995], [44.435818000000154, -12.311460999999838], [44.435830000000124, -12.311269999999922], [44.43579600000015, -12.31111199999998], [44.43571500000019, -12.311020999999926], [44.435587000000055, -12.311009999999897], [44.43554000000006, -12.311065999999926], [44.43524800000006, -12.311065999999926], [44.43500200000017, -12.31104299999987], [44.43495600000006, -12.310963999999842], [44.43495800000005, -12.31065899999993], [44.434841000000176, -12.310556999999903], [44.43465500000002, -12.310500999999874], [44.43446800000004, -12.310454999999934], [44.43429400000019, -12.310330999999962], [44.434142000000065, -12.310217999999907], [44.43414400000006, -12.309991999999966], [44.43426200000005, -12.30980099999988], [44.43419200000011, -12.309653999999966], [44.43397200000004, -12.309416999999826], [44.43393800000007, -12.30924699999997], [44.434149000000104, -12.309010999999884], [44.43413900000019, -12.308773999999914], [44.43405800000005, -12.308672999999885], [44.43395300000003, -12.308649999999943], [44.43371800000017, -12.308761999999888], [44.433578000000125, -12.308840999999973], [44.43333200000018, -12.308873999999946], [44.433181000000104, -12.308794999999975], [44.43298300000009, -12.30862499999995], [44.43299600000012, -12.30843399999992], [44.433043000000055, -12.30838899999992], [44.43304500000005, -12.30795999999998], [44.43313900000004, -12.307801999999981], [44.433084000000065, -12.307260999999869], [44.43289800000014, -12.307136999999898], [44.43273600000009, -12.306820999999957], [44.43250300000017, -12.306650999999931], [44.43248100000011, -12.306481999999903], [44.432528000000104, -12.306345999999905], [44.43290200000013, -12.306312999999932], [44.43290300000001, -12.30616699999996], [44.432741000000135, -12.305940999999905], [44.43273099999999, -12.305579999999964], [44.432920000000195, -12.305252999999823], [44.43289800000014, -12.304925999999853], [44.43285300000014, -12.304666999999938], [44.43276100000003, -12.304497999999967], [44.43265700000012, -12.304305999999883], [44.43236500000012, -12.304124999999942], [44.432215000000156, -12.303943999999944], [44.43215700000013, -12.303785999999945], [44.432136000000185, -12.30342499999989], [44.43207800000016, -12.303322999999978], [44.43200800000005, -12.303289999999947], [44.43192700000009, -12.30318799999992], [44.43181000000004, -12.30318799999992], [44.43161200000014, -12.303141999999923], [44.43151800000004, -12.303096999999866], [44.43136700000014, -12.303039999999953], [44.431250000000034, -12.303028999999924], [44.431075000000135, -12.303084999999953], [44.43087500000013, -12.303241999999955], [44.430548000000044, -12.303229999999928], [44.43042000000014, -12.303150999999957], [44.43039699999997, -12.303048999999874], [44.43051600000007, -12.302654999999959], [44.43051700000012, -12.302417999999818], [44.42967200000004, -12.301175999999884], [44.42962700000004, -12.300746999999944], [44.42933800000014, -12.30018299999989], [44.42930400000017, -12.300013999999862], [44.42930600000011, -12.29961899999995], [44.42982600000016, -12.298604999999895], [44.429853000000094, -12.298018999999897], [44.4297610000001, -12.297634999999843], [44.42941500000012, -12.296923999999876], [44.4292650000001, -12.296585999999934], [44.42876500000011, -12.296054999999853], [44.42825400000015, -12.295534999999973], [44.42770700000017, -12.295183999999892], [44.42762600000003, -12.295082999999977], [44.42738300000019, -12.294675999999981], [44.426941000000056, -12.294279999999958], [44.42670800000013, -12.29411099999993], [44.42626700000005, -12.293669999999963], [44.42612800000006, -12.293466999999964], [44.42601100000019, -12.293409999999938], [44.42575500000015, -12.293330999999966], [44.42560400000008, -12.293228999999883], [44.42560400000008, -12.29311599999994], [44.42560500000013, -12.292969999999968], [44.42575800000003, -12.29274399999997], [44.425667000000146, -12.292360999999914], [44.42557500000015, -12.292112999999915], [44.425226000000066, -12.291716999999949], [44.424680000000194, -12.291185999999868], [44.424145000000124, -12.2907679999999], [44.423655999999994, -12.290529999999933], [44.42122300000017, -12.288968999999952], [44.42052500000011, -12.288436999999874], [44.41980300000006, -12.287961999999936], [44.41919800000011, -12.287554999999884], [44.417429000000084, -12.286411999999928], [44.41713700000008, -12.2863099999999], [44.41657700000013, -12.286274999999875], [44.416284000000076, -12.28634199999982], [44.415898000000084, -12.286453999999935], [44.41546600000004, -12.286385999999823], [44.414356000000055, -12.286540999999943], [44.41404000000017, -12.286641999999972], [44.41337300000009, -12.286831999999947], [44.41296300000005, -12.286921999999947], [44.41200500000019, -12.286953999999923], [44.41187700000012, -12.286964999999952], [44.4117480000001, -12.287054999999839], [44.411407999999994, -12.287245999999925], [44.41115000000019, -12.287402999999927], [44.41089200000016, -12.287492999999927], [44.41069400000009, -12.2874809999999], [44.41019200000011, -12.287321999999904], [44.40982000000008, -12.287117999999964], [44.4089810000001, -12.28663199999994], [44.40870200000012, -12.286472999999887], [44.40836500000012, -12.286144999999863], [44.40831900000006, -12.286054999999976], [44.408226000000184, -12.285862999999893], [44.408133000000134, -12.28579499999995], [44.40797000000015, -12.285738999999921], [44.407677000000035, -12.28580599999998], [44.40743300000008, -12.28568099999984], [44.4068170000001, -12.285149999999874], [44.40639700000003, -12.284900999999877], [44.405664000000115, -12.28438099999994], [44.405350000000055, -12.284187999999858], [44.40504600000014, -12.28422199999983], [44.40470600000009, -12.284434999999974], [44.40455500000019, -12.284377999999947], [44.40442600000017, -12.284355999999889], [44.40410000000003, -12.284174999999948], [44.40384400000016, -12.28399399999995], [44.403519000000074, -12.283631999999955], [44.403288000000146, -12.283089999999959], [44.403071000000125, -12.282175999999936], [44.402549000000135, -12.28158899999994], [44.401898000000074, -12.280989999999917], [44.40143400000005, -12.280492999999922], [44.40100500000011, -12.279916999999955], [44.400681000000134, -12.279295999999931], [44.4003350000001, -12.278516999999965], [44.400174000000106, -12.278099999999881], [44.400012000000174, -12.277816999999914], [44.39980400000019, -12.277342999999973], [44.39963200000017, -12.276756999999975], [44.39961100000005, -12.276237999999921], [44.399497, -12.275729999999896], [44.39921100000015, -12.274680999999816], [44.399049000000105, -12.274353999999846], [44.40106700000007, -12.273342999999954], [44.40378399999997, -12.27107199999989], [44.40397900000016, -12.269885999999929], [44.40782899999999, -12.265340999999978], [44.40793200000019, -12.264054999999928], [44.413485000000094, -12.255852999999945], [44.41239000000007, -12.252684999999929], [44.41577300000006, -12.248436999999967], [44.41652000000005, -12.248140999999976], [44.42177499999997, -12.242608999999959], [44.430556000000195, -12.23866599999991], [44.445202000000165, -12.235128999999915], [44.45210200000014, -12.233853999999951], [44.452736000000186, -12.236426999999935], [44.45383100000004, -12.239495999999974], [44.45565200000004, -12.245334999999898], [44.45646100000005, -12.249392999999941], [44.45735500000012, -12.254538999999909], [44.45834000000008, -12.2600809999999], [44.45904600000006, -12.265423999999939], [44.458544000000074, -12.270567999999855], [44.45775400000008, -12.276798999999926], [44.457525000000146, -12.277804999999944]]]}}]}