{"type": "FeatureCollection", "features": [{"type": "Feature", "properties": {"country": "Comoros", "pcode": "KM235", "name": "Mbadani", "island": "Grande Comore (Ngazidja)"}, "geometry": {"type": "Polygon", "coordinates": [[[43.318281000000184, -11.605324999999937], [43.3127990000001, -11.616779999999949], [43.31881700000008, -11.623110999999938], [43.32643200000007, -11.625423999999896], [43.33304200000009, -11.633326999999952], [43.2911390000001, -11.638249999999971], [43.287812621000114, -11.637709119999954], [43.28556100000009, -11.637342999999873], [43.28433309300016, -11.637141907999933], [43.28211100000004, -11.636777999999936], [43.26335300000005, -11.648960999999872], [43.26110800000009, -11.649643999999967], [43.260941000000116, -11.649317999999937], [43.260997000000145, -11.648968999999909], [43.261045000000195, -11.648913999999877], [43.26139699999999, -11.648719999999912], [43.26139699999999, -11.64861099999996], [43.26126999999997, -11.648370999999884], [43.261254000000065, -11.648106999999982], [43.26099900000014, -11.647997999999973], [43.26105500000011, -11.647912999999846], [43.261247000000026, -11.647858999999926], [43.2612390000001, -11.647772999999972], [43.26116700000017, -11.647741999999823], [43.261000000000195, -11.647703999999976], [43.26091200000019, -11.647648999999944], [43.26067400000005, -11.647400999999945], [43.2606100000001, -11.647268999999937], [43.26065, -11.647198999999944], [43.26088200000004, -11.647012999999902], [43.26093800000007, -11.646911999999872], [43.260922000000164, -11.646810999999957], [43.260612000000094, -11.646562999999958], [43.26052400000009, -11.646461999999872], [43.26053300000012, -11.646275999999943], [43.260597000000075, -11.646119999999883], [43.26044500000012, -11.645995999999968], [43.260518000000104, -11.645754999999895], [43.26050200000003, -11.645553999999947], [43.26054200000016, -11.645467999999937], [43.260812999999985, -11.645436999999959], [43.26093300000019, -11.645327999999836], [43.260910000000024, -11.64525099999986], [43.260742000000164, -11.645195999999942], [43.26061500000014, -11.645180999999923], [43.26042300000006, -11.64518899999996], [43.26034400000009, -11.645048999999915], [43.26039300000008, -11.64440499999995], [43.26057700000018, -11.644225999999946], [43.260601000000065, -11.644085999999902], [43.26027399999998, -11.643962999999871], [43.260115000000155, -11.643884999999898], [43.26003500000013, -11.643768999999963], [43.26001200000019, -11.643721999999912], [43.260163000000034, -11.643605999999977], [43.2603630000001, -11.643527999999947], [43.26077800000013, -11.643410999999958], [43.26102500000013, -11.643317999999965], [43.26112100000012, -11.643185999999957], [43.26105000000007, -11.643037999999876], [43.26105100000018, -11.642455999999981], [43.261123000000055, -11.642370999999969], [43.26122700000013, -11.642292999999881], [43.26135399999998, -11.642346999999916], [43.261530000000164, -11.642455999999981], [43.26167300000009, -11.642493999999829], [43.261833000000195, -11.642416999999853], [43.26192900000018, -11.642276999999979], [43.26190600000001, -11.641958999999872], [43.262050000000045, -11.641500999999892], [43.26205799999997, -11.641352999999924], [43.26194700000002, -11.64114399999994], [43.26191700000004, -11.640428999999926], [43.262013000000024, -11.640040999999883], [43.26212600000014, -11.639722999999947], [43.26225400000004, -11.639442999999972], [43.26245400000005, -11.639217999999914], [43.26259800000008, -11.639069999999947], [43.262749000000156, -11.638875999999982], [43.2628620000001, -11.638611999999966], [43.262880000000166, -11.637633999999878], [43.262386000000106, -11.637145999999916], [43.26213100000018, -11.636989999999969], [43.262012000000084, -11.636935999999935], [43.26199600000018, -11.636772999999948], [43.262316, -11.636337999999853], [43.26250800000008, -11.636197999999979], [43.262525000000096, -11.635646999999949], [43.262398000000076, -11.635545999999977], [43.26199900000006, -11.635437999999965], [43.26194400000014, -11.635328999999956], [43.26193600000005, -11.635111999999936], [43.26185700000008, -11.634902999999952], [43.26171300000004, -11.634809999999902], [43.26172200000008, -11.634444999999971], [43.26160299999998, -11.634257999999875], [43.26160299999998, -11.634180999999899], [43.26189800000009, -11.634118999999941], [43.261915000000045, -11.633986999999934], [43.26177100000007, -11.633761999999876], [43.261819000000116, -11.633675999999866], [43.26192400000008, -11.633489999999938], [43.261956000000055, -11.633341999999914], [43.26188400000018, -11.633124999999836], [43.261829000000034, -11.63302399999992], [43.26171700000003, -11.63290799999993], [43.26172600000007, -11.632728999999927], [43.26184600000005, -11.632573999999977], [43.261830000000145, -11.63226299999991], [43.26215000000013, -11.63210799999996], [43.26228600000019, -11.631983999999932], [43.262166000000036, -11.631804999999929], [43.26205500000009, -11.63155699999993], [43.261968000000195, -11.631424999999865], [43.261784000000034, -11.631478999999956], [43.261729000000116, -11.631447999999978], [43.261729000000116, -11.63130899999993], [43.261896999999976, -11.631106999999929], [43.261833000000195, -11.63101399999988], [43.26174600000013, -11.63091999999989], [43.26190600000001, -11.630601999999897], [43.26202599999999, -11.630407999999932], [43.26205799999997, -11.630166999999972], [43.26211500000011, -11.629964999999856], [43.26229800000016, -11.629809999999907], [43.26241000000016, -11.629630999999847], [43.26251400000007, -11.629529999999932], [43.26277700000014, -11.62946799999986], [43.262945, -11.629444999999976], [43.262969000000055, -11.629335999999967], [43.262890000000084, -11.629265999999916], [43.26269100000013, -11.62909599999989], [43.262476000000106, -11.62894099999994], [43.26194200000015, -11.628459999999961], [43.26181500000013, -11.62842099999989], [43.26149600000019, -11.628459999999961], [43.26142400000009, -11.628335999999877], [43.26153600000015, -11.62818799999991], [43.261528, -11.62808699999988], [43.261393000000055, -11.627986999999962], [43.26115300000009, -11.628102999999896], [43.260922000000164, -11.628102999999896], [43.260857999999985, -11.628064999999935], [43.260851000000116, -11.627916999999968], [43.260963000000174, -11.627800999999863], [43.260955000000195, -11.627683999999931], [43.26086000000015, -11.62756799999994], [43.260836000000154, -11.627427999999895], [43.26069200000012, -11.627412999999933], [43.26058100000017, -11.627303999999867], [43.260725000000036, -11.627148999999918], [43.26053400000018, -11.626822999999945], [43.26055000000008, -11.626752999999837], [43.260765000000106, -11.626860999999963], [43.260997000000145, -11.626705999999956], [43.26098100000007, -11.626565999999912], [43.26088600000003, -11.626433999999904], [43.26078200000012, -11.626387999999906], [43.26075900000018, -11.626247999999975], [43.26053600000017, -11.626185999999905], [43.26048800000012, -11.62613199999987], [43.26059200000003, -11.625898999999947], [43.26044900000011, -11.625720999999885], [43.26034500000003, -11.625595999999916], [43.26028200000013, -11.62522399999989], [43.260059000000126, -11.62518499999993], [43.259884000000056, -11.625060999999903], [43.25985200000008, -11.624998999999946], [43.25990800000011, -11.624897999999916], [43.259933000000046, -11.624726999999893], [43.26007600000014, -11.624532999999929], [43.26017300000018, -11.624377999999979], [43.25992600000018, -11.624067999999966], [43.259893999999974, -11.623958999999957], [43.25949600000013, -11.623741999999936], [43.2594400000001, -11.623648999999943], [43.25965600000001, -11.623523999999918], [43.259768000000065, -11.623407999999927], [43.25990400000012, -11.623267999999882], [43.260048000000154, -11.623081999999954], [43.26000800000003, -11.622956999999815], [43.259857000000125, -11.622848999999917], [43.25972900000005, -11.622747999999945], [43.25981000000013, -11.622561999999903], [43.25975400000016, -11.622475999999892], [43.25977800000015, -11.622429999999895], [43.25999400000012, -11.62230499999987], [43.26005800000007, -11.622188999999935], [43.26003400000002, -11.622095999999885], [43.25991500000015, -11.62191699999994], [43.259843000000046, -11.621862999999962], [43.25973099999999, -11.621823999999947], [43.259652000000074, -11.621800999999891], [43.25968400000005, -11.621699999999976], [43.2599790000001, -11.621551999999895], [43.26013900000004, -11.62142799999998], [43.26013100000006, -11.621388999999908], [43.26000400000004, -11.621334999999817], [43.25992400000018, -11.621280999999954], [43.259892000000036, -11.62121099999996], [43.260036000000184, -11.621132999999872], [43.26006000000007, -11.62098599999996], [43.26017200000007, -11.62089299999991], [43.260212000000195, -11.62075299999998], [43.26018799999997, -11.620690999999908], [43.260197000000005, -11.62056599999994], [43.26016500000003, -11.620503999999869], [43.2601810000001, -11.620402999999953], [43.260373000000186, -11.62031799999994], [43.26052400000009, -11.62023199999993], [43.26070800000019, -11.62008499999996], [43.26075600000007, -11.619983999999931], [43.26074100000011, -11.619711999999822], [43.26066900000018, -11.619579999999928], [43.26055800000006, -11.619579999999928], [43.2604300000001, -11.619556999999872], [43.26036600000015, -11.619448999999975], [43.2604060000001, -11.619393999999886], [43.26061400000009, -11.6192309999999], [43.26090900000014, -11.619113999999968], [43.26113300000003, -11.61888899999991], [43.26127700000001, -11.618686999999909], [43.26139699999999, -11.61850099999998], [43.26174100000003, -11.618344999999977], [43.261868000000106, -11.61817399999984], [43.26186100000001, -11.617902999999956], [43.26161400000001, -11.617661999999939], [43.26136800000012, -11.61749199999997], [43.26120000000003, -11.617289999999969], [43.26128900000015, -11.617126999999812], [43.26125700000017, -11.616885999999852], [43.261553000000106, -11.616722999999865], [43.26159300000006, -11.61660699999993], [43.26147300000008, -11.616489999999942], [43.26129000000003, -11.616412999999966], [43.26121100000006, -11.616218999999887], [43.26103600000016, -11.61607099999992], [43.26094000000006, -11.615970999999888], [43.260701000000154, -11.615946999999949], [43.260693, -11.615838999999823], [43.26091700000006, -11.615713999999969], [43.26092500000004, -11.615566999999942], [43.26084500000019, -11.615473999999892], [43.260750000000144, -11.61545099999995], [43.26072600000009, -11.61530299999987], [43.26061500000014, -11.615232999999932], [43.26062300000012, -11.61513199999996], [43.26095000000015, -11.615046999999947], [43.261333000000036, -11.61491499999994], [43.26146900000009, -11.614758999999879], [43.261613000000125, -11.614502999999957], [43.261669000000154, -11.614246999999978], [43.26163800000006, -11.613842999999974], [43.26155100000017, -11.613710999999967], [43.26142400000009, -11.613609999999937], [43.26136000000014, -11.613578999999959], [43.26120000000003, -11.61354799999998], [43.26120100000014, -11.613462999999967], [43.26141600000017, -11.613307999999904], [43.26124900000019, -11.613105999999902], [43.26102600000007, -11.61323799999991], [43.26093800000007, -11.61322999999993], [43.260857999999985, -11.613136999999881], [43.26124200000015, -11.612919999999974], [43.2612180000001, -11.612849999999867], [43.261083000000156, -11.612756999999874], [43.26110699999998, -11.612694999999917], [43.26096400000006, -11.612259999999878], [43.26066100000003, -11.612026999999898], [43.26048600000013, -11.611871999999948], [43.260455000000036, -11.611693999999943], [43.26037500000018, -11.611569999999915], [43.260559000000114, -11.61142999999987], [43.260631000000046, -11.611235999999906], [43.260631000000046, -11.611087999999938], [43.259906000000115, -11.611018999999885], [43.25973099999999, -11.610847999999976], [43.25965100000013, -11.610801999999978], [43.259652000000074, -11.610614999999939], [43.25967600000007, -11.61052199999989], [43.259772000000055, -11.610436999999877], [43.25974000000002, -11.61024999999995], [43.25974000000002, -11.610172999999975], [43.25966900000003, -11.61013399999996], [43.25979600000005, -11.609978999999896], [43.25995600000016, -11.609884999999963], [43.25996500000019, -11.609675999999979], [43.259853000000135, -11.609489999999937], [43.259854000000075, -11.60930299999984], [43.259950000000174, -11.609201999999925], [43.2598220000001, -11.609155999999928], [43.2596870000001, -11.609085999999934], [43.25962300000015, -11.609062999999878], [43.25964699999997, -11.608992999999941], [43.25969500000008, -11.608907999999929], [43.25974300000013, -11.608837999999935], [43.25985500000013, -11.608829999999955], [43.259951000000115, -11.608751999999981], [43.25985500000013, -11.60853499999996], [43.25977599999999, -11.608417999999972], [43.25979200000006, -11.608216999999968], [43.259753000000046, -11.60798399999993], [43.259801000000095, -11.607952999999952], [43.25996100000003, -11.607812999999908], [43.26009600000003, -11.607765999999856], [43.260328000000186, -11.607711999999935], [43.26053500000012, -11.607617999999945], [43.260639000000026, -11.607330999999931], [43.26066500000019, -11.606492999999944], [43.2606100000001, -11.606290999999942], [43.26057000000014, -11.606119999999976], [43.260467000000176, -11.60596499999997], [43.260220000000174, -11.605809999999906], [43.26002100000005, -11.605755999999815], [43.26001300000007, -11.60561599999994], [43.25996600000008, -11.605390999999884], [43.26001400000018, -11.605351999999868], [43.26016500000003, -11.60531299999991], [43.260261000000185, -11.605227999999897], [43.260261000000185, -11.60515799999996], [43.26008600000006, -11.604971999999975], [43.260078000000135, -11.604909999999961], [43.2603180000001, -11.604800999999952], [43.2603180000001, -11.604668999999944], [43.260071000000096, -11.604606999999874], [43.26026300000018, -11.60437399999995], [43.26025600000008, -11.604078999999956], [43.260455000000036, -11.604062999999883], [43.26047999999997, -11.603767999999889], [43.260512000000176, -11.603666999999973], [43.26058400000005, -11.603565999999887], [43.26080700000006, -11.603363999999942], [43.26080000000019, -11.603224999999895], [43.260601000000065, -11.60303099999993], [43.26045000000016, -11.602820999999892], [43.26045000000016, -11.6027279999999], [43.260403, -11.602440999999885], [43.26032300000014, -11.602347999999836], [43.260164000000145, -11.602308999999877], [43.260108000000116, -11.602215999999942], [43.26008400000006, -11.602168999999947], [43.259909000000164, -11.602153999999928], [43.25988500000017, -11.602044999999976], [43.25988500000017, -11.601936999999907], [43.260157000000106, -11.60194399999989], [43.26023600000008, -11.601881999999932], [43.26023700000013, -11.601765999999884], [43.2601810000001, -11.60169599999989], [43.26010100000008, -11.601617999999917], [43.25999800000005, -11.601672999999948], [43.25994200000008, -11.60157199999992], [43.260022000000106, -11.601501999999925], [43.260070000000155, -11.601369999999918], [43.260198000000116, -11.601252999999929], [43.260198000000116, -11.601183999999876], [43.260126000000184, -11.601128999999958], [43.26003100000014, -11.60108299999996], [43.25998300000009, -11.600950999999952], [43.26013500000005, -11.600771999999893], [43.26031900000015, -11.60068699999988], [43.260295000000156, -11.600554999999872], [43.26024700000005, -11.600437999999883], [43.26031200000011, -11.600235999999882], [43.26045600000015, -11.600065999999913], [43.260384000000045, -11.599909999999909], [43.260552000000075, -11.599801999999954], [43.260552000000075, -11.599661999999967], [43.26044900000011, -11.59944499999989], [43.26050500000008, -11.599257999999963], [43.26039400000013, -11.599195999999893], [43.26039400000013, -11.599009999999964], [43.26033000000018, -11.598908999999935], [43.2604510000001, -11.598683999999878], [43.26060200000012, -11.598566999999889], [43.260611000000154, -11.59831899999989], [43.26073000000008, -11.598310999999853], [43.26080200000018, -11.598248999999953], [43.26080300000007, -11.598023999999896], [43.260963000000174, -11.59786099999991], [43.261018999999976, -11.59758899999997], [43.26149900000013, -11.597176999999817], [43.2618020000001, -11.596788999999944], [43.26201800000007, -11.596531999999911], [43.2620270000001, -11.596376999999961], [43.262266000000125, -11.596229999999878], [43.26243400000004, -11.59607399999993], [43.263278000000014, -11.596388999999874], [43.27866700000004, -11.601638999999977], [43.28210000000007, -11.599210999999968], [43.28891700000008, -11.594388999999978], [43.29413700000015, -11.594688999999903], [43.324501, -11.592497999999921], [43.318281000000184, -11.605324999999937]]]}}]}