{"type": "FeatureCollection", "features": [{"type": "Feature", "properties": {"country": "Comoros", "pcode": "KM234", "name": "Isahari", "island": "Grande Comore (Ngazidja)"}, "geometry": {"type": "Polygon", "coordinates": [[[43.28433309300016, -11.637141907999933], [43.28556100000009, -11.637342999999873], [43.28191700000019, -11.640860999999973], [43.282500000000084, -11.645277999999962], [43.28051900000014, -11.649022999999943], [43.27949000000012, -11.650022999999976], [43.27794600000004, -11.651709999999866], [43.28077800000011, -11.664193999999952], [43.283472000000074, -11.666832999999883], [43.27708300000006, -11.670277999999882], [43.26655600000004, -11.667360999999971], [43.26532000000009, -11.667492999999865], [43.26533200000017, -11.66586999999987], [43.26514900000012, -11.665652999999963], [43.26509300000009, -11.665621999999871], [43.26491000000004, -11.665515999999968], [43.26473400000009, -11.665453999999897], [43.26461500000016, -11.665468999999973], [43.26425600000016, -11.665422999999919], [43.26406500000013, -11.66532199999989], [43.26386600000018, -11.665197999999975], [43.2637620000001, -11.665065999999968], [43.263758000000166, -11.6635839999999], [43.26388600000007, -11.663241999999855], [43.26400600000005, -11.663055999999926], [43.264142000000106, -11.662868999999887], [43.2643010000001, -11.662790999999913], [43.26451700000007, -11.662775999999951], [43.26479600000005, -11.662697999999978], [43.2650670000001, -11.662673999999924], [43.26513100000005, -11.662627999999927], [43.26513100000005, -11.662541999999917], [43.264949000000115, -11.662192999999945], [43.26487800000007, -11.661889999999971], [43.26487900000018, -11.661105999999961], [43.26499100000018, -11.660880999999904], [43.26498400000014, -11.660663999999883], [43.26472200000012, -11.660228999999958], [43.264690000000144, -11.660128999999927], [43.26470600000005, -11.65996599999994], [43.26482700000014, -11.65964699999995], [43.26474800000017, -11.659305999999958], [43.26458800000006, -11.65911999999986], [43.26455699999997, -11.658862999999826], [43.26465300000012, -11.658645999999976], [43.26485300000013, -11.658420999999919], [43.264949000000115, -11.65815699999996], [43.264822000000095, -11.657869999999889], [43.26496600000007, -11.657628999999929], [43.26487900000018, -11.657387999999969], [43.2646160000001, -11.657349999999951], [43.26460800000012, -11.657240999999885], [43.264784000000134, -11.657100999999955], [43.26475300000004, -11.656976999999927], [43.264825000000144, -11.656634999999937], [43.264642000000094, -11.656347999999923], [43.2644830000001, -11.656262999999967], [43.26437100000004, -11.656262999999967], [43.264243000000135, -11.656348999999977], [43.263932000000125, -11.65634099999994], [43.263637000000074, -11.656356999999957], [43.26334200000019, -11.65627899999987], [43.26321500000017, -11.656201999999894], [43.26311200000015, -11.65607799999998], [43.26300000000015, -11.655906999999956], [43.26276900000005, -11.656023999999945], [43.262529000000086, -11.656031999999982], [43.262226000000055, -11.656007999999929], [43.26212300000003, -11.65585299999998], [43.261908000000176, -11.655790999999908], [43.26186000000013, -11.655728999999951], [43.26186100000001, -11.655263999999931], [43.26171800000009, -11.655115999999964], [43.26171900000003, -11.654859999999815], [43.26155900000009, -11.654681999999923], [43.26138400000019, -11.65460399999995], [43.261265000000094, -11.654417999999907], [43.26113000000015, -11.654262999999958], [43.26122600000008, -11.654068999999936], [43.26140900000013, -11.654005999999924], [43.261489000000154, -11.653881999999896], [43.26156199999997, -11.653640999999936], [43.26162600000015, -11.653532999999982], [43.26156199999997, -11.653392999999937], [43.26155400000005, -11.653245999999854], [43.26145900000017, -11.65307499999983], [43.26149100000015, -11.652965999999935], [43.261731999999995, -11.652406999999869], [43.26184400000005, -11.65232199999997], [43.26207500000015, -11.652196999999944], [43.26241800000014, -11.652033999999958], [43.26247500000005, -11.651870999999971], [43.26245900000015, -11.651606999999956], [43.262260000000026, -11.651482999999928], [43.26202100000012, -11.651304999999923], [43.261878000000195, -11.651242999999965], [43.261823000000106, -11.650566999999967], [43.261561000000086, -11.650357999999926], [43.26128200000011, -11.650225999999975], [43.26110699999998, -11.650078999999891], [43.26110800000009, -11.649643999999967], [43.26335300000005, -11.648960999999872], [43.28211100000004, -11.636777999999936], [43.28433309300016, -11.637141907999933]]]}}]}