{"type": "FeatureCollection", "features": [{"type": "Feature", "properties": {"country": "Comoros", "pcode": "KM153", "name": "Vouani", "island": "Anjouan (Ndzouani)"}, "geometry": {"type": "Polygon", "coordinates": [[[44.45192700000007, -12.232368999999835], [44.45210200000014, -12.233853999999951], [44.445202000000165, -12.235128999999915], [44.430556000000195, -12.23866599999991], [44.42177499999997, -12.242608999999959], [44.41652000000005, -12.248140999999976], [44.41577300000006, -12.248436999999967], [44.41239000000007, -12.252684999999929], [44.413485000000094, -12.255852999999945], [44.40793200000019, -12.264054999999928], [44.40782899999999, -12.265340999999978], [44.40397900000016, -12.269885999999929], [44.40378399999997, -12.27107199999989], [44.40106700000007, -12.273342999999954], [44.399049000000105, -12.274353999999846], [44.39886400000006, -12.274115999999935], [44.398724000000186, -12.273980999999878], [44.39853800000009, -12.273855999999853], [44.39821300000017, -12.273573999999883], [44.397992000000045, -12.273302999999942], [44.397876, -12.273110999999915], [44.397693000000174, -12.27250099999992], [44.39743900000008, -12.271902999999895], [44.397337000000164, -12.271428999999955], [44.39724699999999, -12.270786999999928], [44.397166000000084, -12.270537999999931], [44.39706300000006, -12.27030099999996], [44.39676100000014, -12.269837999999936], [44.396366000000114, -12.269431999999938], [44.39601800000014, -12.269046999999944], [44.39565799999997, -12.268662999999947], [44.39542600000016, -12.268357999999978], [44.39522900000003, -12.26814399999995], [44.395089000000155, -12.268052999999952], [44.39459800000003, -12.268051999999955], [44.3944590000001, -12.268006999999955], [44.39416800000015, -12.2677359999999], [44.394029000000046, -12.267452999999932], [44.39404200000007, -12.267193999999904], [44.39414900000003, -12.26687899999996], [44.39423300000004, -12.266584999999964], [44.39415300000019, -12.266212999999937], [44.39402700000005, -12.265716999999938], [44.39387800000014, -12.26529899999997], [44.3937160000001, -12.264971999999943], [44.39361200000019, -12.264768999999944], [44.39339100000018, -12.264542999999946], [44.393252000000075, -12.264417999999921], [44.3929500000001, -12.264078999999924], [44.39278800000005, -12.263830999999925], [44.392534000000126, -12.26328899999993], [44.39238400000016, -12.262984999999844], [44.392198000000064, -12.262656999999876], [44.391978000000165, -12.262475999999936], [44.39181500000018, -12.262328999999909], [44.391443000000095, -12.261989999999912], [44.39107100000007, -12.261628999999914], [44.39081500000003, -12.261458999999945], [44.39047800000003, -12.261209999999949], [44.39018700000014, -12.260994999999923], [44.38996600000013, -12.260836999999924], [44.38986100000017, -12.260678999999982], [44.38972200000018, -12.260463999999956], [44.38956000000013, -12.260260999999957], [44.38936200000006, -12.260147999999958], [44.38922200000019, -12.260034999999903], [44.38870900000006, -12.259830999999906], [44.3882890000001, -12.259739999999908], [44.387799000000086, -12.259636999999941], [44.38748500000003, -12.259455999999886], [44.38722900000016, -12.259285999999918], [44.38703200000003, -12.258958999999948], [44.386917000000096, -12.258732999999836], [44.38690900000012, -12.25793299999998], [44.38676100000015, -12.257311999999956], [44.38672800000006, -12.25687199999993], [44.38712700000008, -12.256680999999958], [44.38710500000019, -12.256297999999958], [44.386966000000086, -12.25617399999993], [44.38688500000012, -12.25598199999996], [44.38680500000004, -12.255687999999964], [44.38634200000013, -12.254852999999969], [44.385926000000154, -12.25411899999989], [44.38556600000004, -12.253678999999977], [44.385031000000026, -12.253271999999981], [44.38405300000011, -12.252705999999876], [44.38332900000006, -12.25253499999991], [44.382676000000004, -12.252364999999884], [44.381825000000106, -12.252057999999977], [44.38106800000003, -12.251695999999981], [44.38081100000005, -12.251604999999813], [44.38004200000006, -12.251287999999875], [44.37958700000007, -12.251173999999935], [44.37883000000011, -12.250709999999913], [44.37759600000015, -12.25001999999995], [44.376734000000056, -12.249611999999956], [44.37453700000003, -12.249629999999911], [44.37296000000009, -12.24966099999989], [44.372529000000156, -12.24935499999998], [44.371844000000124, -12.24872199999993], [44.371088999999984, -12.247919999999908], [44.37013700000011, -12.246880999999917], [44.369357000000036, -12.246292999999923], [44.36904200000009, -12.246325999999897], [44.36808100000019, -12.246785999999872], [44.36714700000016, -12.246738999999877], [44.36661000000015, -12.24657999999988], [44.36620300000004, -12.246274999999969], [44.36578500000007, -12.245856999999944], [44.36539100000016, -12.245190999999977], [44.36519400000003, -12.245009999999922], [44.36496000000005, -12.245008999999925], [44.36475000000007, -12.24498599999987], [44.36450300000007, -12.245210999999927], [44.36361400000004, -12.2455369999999], [44.36303000000004, -12.245410999999876], [44.36247100000014, -12.245172999999909], [44.36193600000013, -12.244731999999942], [44.36179600000008, -12.244641999999942], [44.360863000000165, -12.244346999999948], [44.36044400000014, -12.244086999999922], [44.35970000000003, -12.24348699999996], [44.359246000000155, -12.243181999999933], [44.35869900000017, -12.242729999999938], [44.357408000000135, -12.241802999999948], [44.35667400000011, -12.241371999999899], [44.35636000000011, -12.2411689999999], [44.35598600000003, -12.241122999999902], [44.35515700000019, -12.241188999999963], [44.354375000000175, -12.24092799999994], [44.35228700000005, -12.240347999999926], [44.350374000000045, -12.239949999999965], [44.34946400000007, -12.239755999999886], [44.34851700000007, -12.239742999999976], [44.34771200000006, -12.239673999999923], [44.34718600000008, -12.239638999999954], [44.346792000000164, -12.239152999999817], [44.34649000000019, -12.238745999999878], [44.3458490000001, -12.238519999999937], [44.34567300000009, -12.238586999999882], [44.34541600000017, -12.238585999999884], [44.34505400000006, -12.238652999999942], [44.3449260000001, -12.238539999999887], [44.34498500000001, -12.238415999999859], [44.34484500000019, -12.238302999999917], [44.34453000000002, -12.238223999999946], [44.34368300000011, -12.237274999999954], [44.343311000000085, -12.236946999999816], [44.34289000000007, -12.23693499999996], [44.342516000000046, -12.236989999999821], [44.34202500000009, -12.237079999999878], [44.34173300000009, -12.23713499999991], [44.341511000000025, -12.237100999999939], [44.34140700000012, -12.236919999999884], [44.34121000000016, -12.236536999999885], [44.34094400000015, -12.23612999999989], [44.34047800000013, -12.235869999999977], [44.34015200000016, -12.23576799999995], [44.339718000000175, -12.235969999999952], [44.33926100000019, -12.236261999999954], [44.3384870000001, -12.236846999999955], [44.33762000000013, -12.23722799999996], [44.3368210000001, -12.238071999999818], [44.336176000000194, -12.238442999999961], [44.335496000000035, -12.239038999999877], [44.33465300000012, -12.239352999999937], [44.333696000000145, -12.239057999999943], [44.33292600000004, -12.23888699999992], [44.33271500000018, -12.239021999999977], [44.33231599999999, -12.239483999999948], [44.33188000000018, -12.240057999999976], [44.33129500000007, -12.24031599999995], [44.33079100000015, -12.240607999999952], [44.32998500000008, -12.240606999999954], [44.329180000000065, -12.240378999999905], [44.32877200000007, -12.240175999999906], [44.328176000000155, -12.240252999999882], [44.327522000000044, -12.240195999999969], [44.325897000000055, -12.24041799999992], [44.3247770000001, -12.240178999999955], [44.32316800000018, -12.239610999999968], [44.3224800000001, -12.239350999999942], [44.32035500000012, -12.239210999999898], [44.31999300000001, -12.239029999999957], [44.31967900000018, -12.238769999999931], [44.319215000000156, -12.23824999999988], [44.31863300000015, -12.237887999999941], [44.31776000000019, -12.237299999999891], [44.317153000000076, -12.237128999999925], [44.31669699999998, -12.237297999999896], [44.31589200000019, -12.237092999999902], [44.3152300000001, -12.236459999999909], [44.31462600000003, -12.235826999999972], [44.31362400000012, -12.235238999999979], [44.31265600000012, -12.234943999999928], [44.31164400000006, -12.234264999999937], [44.31095700000009, -12.233857999999941], [44.31006000000008, -12.233415999999977], [44.30901100000017, -12.232984999999928], [44.308195000000126, -12.232644999999934], [44.30748500000004, -12.232214999999883], [44.30718000000019, -12.232315999999969], [44.30698300000006, -12.23214699999994], [44.30629400000009, -12.232110999999975], [44.30572300000006, -12.231793999999866], [44.304616000000124, -12.23122799999993], [44.30440700000008, -12.23103599999996], [44.30373400000019, -12.23013299999991], [44.30312900000001, -12.229668999999888], [44.305024000000174, -12.226096999999925], [44.31617100000017, -12.216913999999974], [44.31756900000005, -12.216816999999935], [44.322431000000165, -12.214054999999917], [44.33482200000009, -12.21328399999993], [44.33947200000006, -12.21408299999996], [44.34952400000009, -12.21489099999991], [44.359855000000096, -12.215698999999972], [44.382091000000116, -12.21850499999988], [44.396897000000195, -12.218528999999933], [44.40735900000004, -12.214093999999875], [44.41201100000018, -12.21469499999995], [44.42236600000001, -12.212040999999942], [44.435804000000076, -12.208104999999932], [44.43316000000016, -12.213244999999972], [44.43174100000016, -12.216309999999908], [44.433302000000026, -12.219477999999924], [44.43524200000013, -12.221657999999934], [44.43783400000018, -12.223739999999964], [44.43950000000018, -12.225225999999907], [44.442004000000054, -12.226614999999981], [44.4445080000001, -12.22810299999992], [44.45016700000008, -12.231079999999963], [44.45192700000007, -12.232368999999835]]]}}]}