{"type": "FeatureCollection", "features": [{"type": "Feature", "properties": {"country": "Comoros", "pcode": "KM123", "name": "Mramani", "island": "Anjouan (Ndzouani)"}, "geometry": {"type": "Polygon", "coordinates": [[[44.51066900000012, -12.34339799999998], [44.51347100000015, -12.343846999999926], [44.516640000000166, -12.343090999999902], [44.52111900000017, -12.342780999999832], [44.52338100000014, -12.343735999999979], [44.52659300000016, -12.345326999999884], [44.529575000000136, -12.34564899999998], [44.53155200000009, -12.344700999999873], [44.53333300000003, -12.343805999999972], [44.53328100000016, -12.34341499999988], [44.53358400000019, -12.343516999999963], [44.53364200000004, -12.34365299999996], [44.53389499999997, -12.34431899999987], [44.53401100000019, -12.344510999999954], [44.534150000000125, -12.344690999999955], [44.53433600000005, -12.34481599999998], [44.534722000000045, -12.344827999999893], [44.53495600000019, -12.344669999999894], [44.535285000000044, -12.344298999999921], [44.535577000000046, -12.344321999999977], [44.53562400000004, -12.344400999999948], [44.535996000000125, -12.344672999999943], [44.5359830000001, -12.344796999999915], [44.535947000000135, -12.345122999999887], [44.53608600000007, -12.345213999999942], [44.53682300000014, -12.345158999999853], [44.53684500000003, -12.345294999999908], [44.53677500000009, -12.345361999999966], [44.536623000000134, -12.345406999999966], [44.53640000000013, -12.345597999999939], [44.53622400000012, -12.345721999999967], [44.53592000000003, -12.345731999999941], [44.53561600000012, -12.345742999999857], [44.53549800000013, -12.345888999999943], [44.53532100000001, -12.346226999999942], [44.535203000000195, -12.346576999999854], [44.53520200000014, -12.346756999999911], [44.535282000000166, -12.34695999999991], [44.53536300000013, -12.347095999999965], [44.53545600000018, -12.347219999999936], [44.535607000000084, -12.347309999999936], [44.53595700000005, -12.347457999999904], [44.53645800000015, -12.347638999999958], [44.53662200000019, -12.3477069999999], [44.53684300000003, -12.347763999999927], [44.53692500000005, -12.34782099999984], [44.53702900000013, -12.347921999999926], [44.537052000000074, -12.348000999999897], [44.537157000000036, -12.348136999999952], [44.53722600000009, -12.348271999999952], [44.537179000000094, -12.34838499999995], [44.53707300000002, -12.348496999999895], [44.53690900000015, -12.348552999999924], [44.53673300000014, -12.348631999999952], [44.53655800000007, -12.348642999999981], [44.536336000000176, -12.348619999999869], [44.53613800000011, -12.348596999999927], [44.536032000000034, -12.348618999999871], [44.53589200000005, -12.348674999999957], [44.53575200000017, -12.348697999999843], [44.53551799999997, -12.34859599999993], [44.53542500000009, -12.348561999999959], [44.535238000000106, -12.348572999999874], [44.53508700000003, -12.348515999999961], [44.53492300000016, -12.348548999999934], [44.534842000000026, -12.34848199999982], [44.53469000000007, -12.348514999999963], [44.53460799999999, -12.348401999999965], [44.534456000000034, -12.348435999999936], [44.53430500000019, -12.348400999999967], [44.53397899999999, -12.348084999999912], [44.533885000000055, -12.348197999999968], [44.53405900000007, -12.348468999999966], [44.53400000000016, -12.348592999999937], [44.53391800000014, -12.348648999999966], [44.533709000000044, -12.34834399999994], [44.533439999999985, -12.348376999999914], [44.53343799999999, -12.34877199999994], [44.5335530000001, -12.349042999999938], [44.533762000000195, -12.349301999999966], [44.53371500000003, -12.349414999999908], [44.53353900000019, -12.34949399999988], [44.53320000000002, -12.34950399999991], [44.53308300000015, -12.349638999999968], [44.53303400000016, -12.35007899999988], [44.532880000000034, -12.350314999999966], [44.53275100000019, -12.350483999999824], [44.53292600000009, -12.350574999999878], [44.53299400000003, -12.350924999999961], [44.53328600000003, -12.350981999999817], [44.53369300000014, -12.3512419999999], [44.53369200000009, -12.351444999999842], [44.53336300000001, -12.351793999999927], [44.533280000000104, -12.351984999999956], [44.53296400000005, -12.35210899999987], [44.532951000000025, -12.352254999999957], [44.533302000000106, -12.352289999999925], [44.53331200000008, -12.352503999999954], [44.53323000000006, -12.352616999999896], [44.53301900000014, -12.352773999999954], [44.532667000000174, -12.352908999999897], [44.53255000000007, -12.353065999999956], [44.53253700000005, -12.353291999999897], [44.53231299999999, -12.353606999999954], [44.532581000000164, -12.353798999999924], [44.53262700000005, -12.353934999999979], [44.532790000000034, -12.354035999999894], [44.53271900000004, -12.354182999999978], [44.53250900000006, -12.35413699999998], [44.53228700000017, -12.35418199999998], [44.5321570000001, -12.354350999999951], [44.53179400000005, -12.35448499999984], [44.53165300000012, -12.354687999999953], [44.53129400000006, -12.356130999999948], [44.53109400000005, -12.35641199999992], [44.531117000000165, -12.356592999999975], [44.53144300000014, -12.356818999999973], [44.531464000000085, -12.357179999999971], [44.53165000000007, -12.357393999999942], [44.53162500000013, -12.35766499999994], [44.531318999999996, -12.357990999999913], [44.53141000000011, -12.358397999999966], [44.53135099999997, -12.35856699999988], [44.53126900000012, -12.35865699999988], [44.53109300000017, -12.358712999999966], [44.530894000000046, -12.358801999999969], [44.5306480000001, -12.35897099999994], [44.53024900000014, -12.35933099999994], [44.530143000000066, -12.359409999999912], [44.530142000000126, -12.359589999999969], [44.530247000000145, -12.35970299999991], [44.53070200000013, -12.359681999999964], [44.530901000000085, -12.359670999999935], [44.530993000000024, -12.359862999999905], [44.53088700000018, -12.360076999999876], [44.53070000000014, -12.36010999999985], [44.53024500000015, -12.360018999999966], [44.52987000000019, -12.360175999999967], [44.52984600000019, -12.36028899999991], [44.5302660000001, -12.360492999999906], [44.53025300000007, -12.360661999999934], [44.53008800000015, -12.360920999999962], [44.530273000000136, -12.361247999999932], [44.530273000000136, -12.361349999999959], [44.530015000000105, -12.361472999999933], [44.52973300000008, -12.361708999999905], [44.52978900000005, -12.362148999999874], [44.530008000000066, -12.362667999999928], [44.53007600000018, -12.36307399999987], [44.529978000000085, -12.36387499999995], [44.53038600000008, -12.364066999999977], [44.530408000000136, -12.364258999999947], [44.53031300000009, -12.364529999999888], [44.529840000000036, -12.365689999999972], [44.53036500000013, -12.365713999999969], [44.53035300000005, -12.36587199999991], [44.53009500000019, -12.36600599999997], [44.52966300000014, -12.365971999999942], [44.52948700000013, -12.366027999999858], [44.52938100000006, -12.366207999999915], [44.529485000000136, -12.366376999999943], [44.52982300000002, -12.366591999999969], [44.53012600000005, -12.36661499999991], [44.530277000000126, -12.366885999999965], [44.53041700000017, -12.366942999999878], [44.530897000000095, -12.366762999999935], [44.53111900000016, -12.366740999999877], [44.531317, -12.366831999999931], [44.53125700000004, -12.36712499999993], [44.53126700000013, -12.367350999999871], [44.53159400000004, -12.367373999999927], [44.531651000000124, -12.367689999999982], [44.53188400000005, -12.36780299999998], [44.53183600000017, -12.368027999999867], [44.531427000000065, -12.368060999999955], [44.53132100000016, -12.368162999999925], [44.53135600000007, -12.368263999999954], [44.53176400000007, -12.36837799999995], [44.531834000000174, -12.368445999999892], [44.53182100000015, -12.36867099999995], [44.53163400000017, -12.36871599999995], [44.53135400000008, -12.368613999999923], [44.53118999999998, -12.368624999999952], [44.53096600000009, -12.368962999999951], [44.53058900000019, -12.369626999999923], [44.53063400000019, -12.369942999999864], [44.53110100000009, -12.369932999999946], [44.53121700000008, -12.370146999999974], [44.53115700000012, -12.370338999999944], [44.530935000000056, -12.370382999999947], [44.53080600000004, -12.370540999999946], [44.53046600000016, -12.37066399999992], [44.53046500000005, -12.370844999999974], [44.53038300000003, -12.370979999999975], [44.5299720000001, -12.371294999999975], [44.53000600000007, -12.371508999999946], [44.530284000000165, -12.37183699999997], [44.530284000000165, -12.37189299999983], [44.53016600000018, -12.372050999999942], [44.52996800000017, -12.372060999999974], [44.52979200000016, -12.372207999999944], [44.52977800000008, -12.372534999999914], [44.52982400000013, -12.372624999999971], [44.52983500000016, -12.372861999999884], [44.52977600000008, -12.372951999999941], [44.52983400000005, -12.373030999999912], [44.530079000000114, -12.373087999999939], [44.530102000000056, -12.37315599999988], [44.530078000000174, -12.373256999999967], [44.52999600000015, -12.373312999999882], [44.529903000000104, -12.37324499999994], [44.529821000000084, -12.373301999999967], [44.5296800000001, -12.373413999999912], [44.52952800000014, -12.373368999999911], [44.529306000000076, -12.373412999999914], [44.52917700000006, -12.373480999999856], [44.52904700000016, -12.373773999999855], [44.52898800000008, -12.37397599999997], [44.529021000000114, -12.374224999999967], [44.52909000000017, -12.37441599999994], [44.52925200000004, -12.374664999999936], [44.52925100000016, -12.374855999999852], [44.52914599999997, -12.374923999999965], [44.52886500000017, -12.375013999999965], [44.52843100000018, -12.375395999999853], [44.52799600000003, -12.37582399999991], [44.52750300000014, -12.376228999999853], [44.527067999999986, -12.376723999999967], [44.52688000000006, -12.37690399999991], [44.526470000000074, -12.37708299999997], [44.52600200000006, -12.377318999999886], [44.52582500000017, -12.377588999999944], [44.52576600000009, -12.377746999999943], [44.525682000000074, -12.378118999999913], [44.52568000000008, -12.378389999999968], [44.52572600000019, -12.378581999999938], [44.52591200000012, -12.378761999999824], [44.52629700000017, -12.378898999999876], [44.52640100000008, -12.378965999999934], [44.52635400000008, -12.379123999999933], [44.52624800000018, -12.379292999999961], [44.526339000000064, -12.379619999999932], [44.526373000000035, -12.379845999999873], [44.52652400000011, -12.379958999999928], [44.5266180000001, -12.3799479999999], [44.52672300000006, -12.37989199999987], [44.526922000000184, -12.3799029999999], [44.52701500000006, -12.37993699999987], [44.52720100000016, -12.380207999999982], [44.52724600000016, -12.38053599999995], [44.52717500000017, -12.38067099999995], [44.526905, -12.380771999999865], [44.526729000000046, -12.380962999999952], [44.52665900000011, -12.381052999999952], [44.52653000000009, -12.381040999999982], [44.52646000000016, -12.380961999999954], [44.52640300000007, -12.380871999999954], [44.52635700000013, -12.380736999999897], [44.52633400000019, -12.3806459999999], [44.52624100000014, -12.380589999999927], [44.52605300000005, -12.380634999999813], [44.52591300000017, -12.380723999999873], [44.52571400000005, -12.380779999999902], [44.5255150000001, -12.38075699999996], [44.52532900000017, -12.380609999999876], [44.525235000000066, -12.38066699999996], [44.52504800000003, -12.380710999999962], [44.52480200000008, -12.380834999999934], [44.52424100000002, -12.38085599999988], [44.52389100000005, -12.380922999999939], [44.52376100000009, -12.381102999999882], [44.52348000000012, -12.381226999999853], [44.52319800000009, -12.38146299999994], [44.52305800000005, -12.381575999999939], [44.52292800000009, -12.381687999999883], [44.52297500000009, -12.381755999999939], [44.52316200000013, -12.381766999999968], [44.52324300000009, -12.381823999999938], [44.52327800000012, -12.38189199999988], [44.52321900000004, -12.38198199999988], [44.52313700000019, -12.382037999999966], [44.52293800000007, -12.382127999999966], [44.52284400000008, -12.38214999999991], [44.522739000000115, -12.38219499999991], [44.52263400000015, -12.38219499999991], [44.52254000000016, -12.38216099999994], [44.52243699999997, -12.381855999999914], [44.52236700000009, -12.381866999999943], [44.52223800000007, -12.381866999999943], [44.51989400000008, -12.37932399999994], [44.51902000000007, -12.378386999999975], [44.51771400000018, -12.376231999999902], [44.51579400000014, -12.373701999999923], [44.514312000000075, -12.371452999999917], [44.511873000000094, -12.367705999999941], [44.512064000000066, -12.365552999999977], [44.510409000000095, -12.362929999999949], [44.50980900000019, -12.360588999999948], [44.50903600000015, -12.357873999999924], [44.507207000000164, -12.35496999999998], [44.50547100000006, -12.351316999999824], [44.505053000000146, -12.348226999999952], [44.50639200000006, -12.3457029999999], [44.506491000000096, -12.343200999999851], [44.50822200000016, -12.342582999999877], [44.51066900000012, -12.34339799999998]]]}}]}