{"type": "FeatureCollection", "features": [{"type": "Feature", "properties": {"country": "Comoros", "pcode": "KM243", "name": "Pimba", "island": "Grande Comore (Ngazidja)"}, "geometry": {"type": "Polygon", "coordinates": [[[43.45097200000009, -11.897971999999982], [43.44241600000004, -11.898203999999964], [43.43964600000004, -11.890912999999955], [43.438624000000175, -11.854238999999836], [43.42578900000012, -11.824454999999944], [43.41841299999999, -11.816185999999902], [43.43597200000016, -11.810082999999963], [43.45814000000007, -11.852393999999947], [43.47558300000003, -11.864527999999837], [43.49252800000016, -11.878721999999982], [43.49507100000005, -11.883241999999939], [43.49219400000004, -11.888693999999873], [43.49122200000011, -11.895999999999958], [43.48511100000019, -11.90074999999996], [43.48458300000004, -11.902360999999928], [43.47500000000008, -11.912166999999954], [43.46252800000002, -11.908166999999935], [43.45097200000009, -11.897971999999982]]]}}]}