{"type": "FeatureCollection", "features": [{"type": "Feature", "properties": {"country": "Comoros", "pcode": "KM222", "name": "Tsinimoipangua", "island": "Grande Comore (Ngazidja)"}, "geometry": {"type": "Polygon", "coordinates": [[[43.35694400000011, -11.773451999999907], [43.30466700000011, -11.832582999999886], [43.30205600000011, -11.843499999999892], [43.29905700000012, -11.851110999999946], [43.2989300000001, -11.851216999999906], [43.29860600000012, -11.851093999999932], [43.29828100000003, -11.851234999999974], [43.29786600000017, -11.851076999999975], [43.29748700000005, -11.850883999999951], [43.2973070000001, -11.850795999999889], [43.29718100000014, -11.850637999999947], [43.29691000000008, -11.850603999999976], [43.296893000000125, -11.850321999999949], [43.29653200000007, -11.850322999999833], [43.296280000000195, -11.850111999999967], [43.296045000000106, -11.849988999999823], [43.29588300000006, -11.849883999999918], [43.29570300000006, -11.849883999999918], [43.295324000000164, -11.849532999999838], [43.295214999999985, -11.84981399999998], [43.295089000000075, -11.84981399999998], [43.29510800000003, -11.849409999999978], [43.294783000000166, -11.849357999999938], [43.29478400000005, -11.849058999999954], [43.29449400000004, -11.849339999999927], [43.29436900000019, -11.849041999999884], [43.2942240000001, -11.849340999999924], [43.29409700000008, -11.849392999999964], [43.29409800000013, -11.84898899999996], [43.29372000000012, -11.84876099999991], [43.29363000000012, -11.848567999999943], [43.29332300000016, -11.84839299999993], [43.292331000000104, -11.848287999999854], [43.29175399999997, -11.847866999999837], [43.29132100000004, -11.848042999999905], [43.29040200000003, -11.84726999999998], [43.29016700000011, -11.84748099999996], [43.28982400000018, -11.847358999999926], [43.28973400000018, -11.847270999999978], [43.289825000000064, -11.846971999999937], [43.28950100000009, -11.846655999999825], [43.2892480000001, -11.846480999999926], [43.28912200000019, -11.846427999999946], [43.288996000000054, -11.846339999999884], [43.28897800000016, -11.846164999999871], [43.2887070000001, -11.846181999999942], [43.288328000000035, -11.846410999999875], [43.28821900000008, -11.846586999999886], [43.28805700000015, -11.846604999999954], [43.28794900000014, -11.846586999999886], [43.28778700000004, -11.846375999999907], [43.28764200000012, -11.846340999999939], [43.28762400000005, -11.846235999999976], [43.287860000000194, -11.845919999999921], [43.288077000000044, -11.845690999999931], [43.288059000000146, -11.845532999999875], [43.287861000000134, -11.845392999999945], [43.287644000000114, -11.84530499999994], [43.28728400000017, -11.845199999999977], [43.28713900000008, -11.845129999999926], [43.287050000000136, -11.844935999999961], [43.287050000000136, -11.844777999999963], [43.28721300000012, -11.844478999999978], [43.286924000000056, -11.844514999999944], [43.28682800000007, -11.844248999999877], [43.286970999999994, -11.844127999999898], [43.28699100000006, -11.843957999999873], [43.28690000000017, -11.84379999999993], [43.286677000000054, -11.84379999999993], [43.28659700000014, -11.843147999999928], [43.28611900000004, -11.843226999999956], [43.286079000000086, -11.843088999999907], [43.286232000000155, -11.842840999999908], [43.286263000000076, -11.842317999999977], [43.28493400000008, -11.842209999999909], [43.284731000000136, -11.842209999999909], [43.28488399999998, -11.841458999999873], [43.28480400000012, -11.841073999999821], [43.28456100000011, -11.84075799999988], [43.28432800000019, -11.840648999999928], [43.284033000000136, -11.84068899999994], [43.28362600000003, -11.840984999999932], [43.28329100000019, -11.841281999999978], [43.28318900000011, -11.841301999999928], [43.2833030000001, -11.840244999999982], [43.28292799999997, -11.840155999999979], [43.282624000000055, -11.83994899999982], [43.28253200000006, -11.839987999999948], [43.28234900000007, -11.840264999999931], [43.282187000000135, -11.8400969999999], [43.28177000000011, -11.840432999999962], [43.28174000000013, -11.840225999999916], [43.28189300000014, -11.83983099999989], [43.281843000000094, -11.839543999999876], [43.28148600000003, -11.840027999999961], [43.28135500000002, -11.83978099999996], [43.28102000000001, -11.839692999999954], [43.28121300000004, -11.839474999999936], [43.28104100000019, -11.839316999999937], [43.28081700000013, -11.839563999999939], [43.280645000000106, -11.839554999999905], [43.28072600000007, -11.83935699999995], [43.28072700000013, -11.838941999999975], [43.28009800000012, -11.838843999999938], [43.279875000000175, -11.838586999999904], [43.279856000000166, -11.83815199999998], [43.27996800000005, -11.8378459999999], [43.27921600000019, -11.838072999999952], [43.279176000000064, -11.83782599999995], [43.27884100000006, -11.83777699999996], [43.278679000000125, -11.837687999999957], [43.2788010000001, -11.83760899999993], [43.27896400000009, -11.837410999999975], [43.27888300000012, -11.836986999999965], [43.27870100000018, -11.83678899999984], [43.27842700000008, -11.836581999999964], [43.27792000000005, -11.836601999999914], [43.27777800000018, -11.836492999999962], [43.27794100000017, -11.836225999999954], [43.277585000000045, -11.836166999999875], [43.27767700000004, -11.835969999999918], [43.277678000000094, -11.835840999999903], [43.277536000000055, -11.83579199999997], [43.27719000000002, -11.835929999999905], [43.27711900000003, -11.835712999999885], [43.276876000000186, -11.835534999999823], [43.27700900000019, -11.83507099999997], [43.27660200000008, -11.83537699999988], [43.27660300000014, -11.83513999999991], [43.27641000000017, -11.835129999999879], [43.2764820000001, -11.834536999999955], [43.27626900000007, -11.834527999999978], [43.27589400000011, -11.834181999999942], [43.27596600000004, -11.83400399999988], [43.27574200000015, -11.833885999999893], [43.275743000000034, -11.833608999999967], [43.27518500000008, -11.83324399999998], [43.27519600000011, -11.833184999999958], [43.275428999999974, -11.8330949999999], [43.27541000000019, -11.83285799999993], [43.27514600000001, -11.832581999999832], [43.275299000000075, -11.83242399999989], [43.27568500000007, -11.832244999999944], [43.27546200000006, -11.831968999999901], [43.2750870000001, -11.831998999999882], [43.274783000000184, -11.831583999999964], [43.274611000000164, -11.831366999999943], [43.274377000000186, -11.831316999999956], [43.27426600000007, -11.83104099999997], [43.27405300000004, -11.830882999999915], [43.27421700000008, -11.830476999999917], [43.27410500000008, -11.830397999999946], [43.27384000000018, -11.830694999999935], [43.273689000000104, -11.830477999999914], [43.27325300000007, -11.830270999999925], [43.2731720000001, -11.830112999999926], [43.27329400000008, -11.829914999999971], [43.27285700000016, -11.829845999999918], [43.27317300000004, -11.829677999999888], [43.27278700000005, -11.829420999999854], [43.272920000000056, -11.8292229999999], [43.27261500000003, -11.829084999999964], [43.272748000000036, -11.828847999999937], [43.27242400000006, -11.828610999999967], [43.272841000000085, -11.828135999999915], [43.27264800000012, -11.827977999999916], [43.2726090000001, -11.827414999999974], [43.27230500000013, -11.82715799999994], [43.272579000000064, -11.826989999999967], [43.27260000000007, -11.826584999999966], [43.272479000000146, -11.82623899999993], [43.27222599999999, -11.826149999999927], [43.27221600000007, -11.825892999999894], [43.272105000000124, -11.825774999999965], [43.27223700000002, -11.825448999999935], [43.27194300000002, -11.825240999999949], [43.272177000000056, -11.825013999999896], [43.27203500000019, -11.824904999999944], [43.271751000000165, -11.824905999999942], [43.27124400000014, -11.824747999999943], [43.2710100000001, -11.825034999999957], [43.270786000000044, -11.825034999999957], [43.27071600000011, -11.824688999999921], [43.27046300000018, -11.82430399999987], [43.269905000000165, -11.824244999999962], [43.26996700000018, -11.823562999999922], [43.2696830000001, -11.823414999999954], [43.2700200000001, -11.822702999999933], [43.2700200000001, -11.822554999999909], [43.26988900000009, -11.822218999999905], [43.269513000000074, -11.82237699999996], [43.26924900000006, -11.82237699999996], [43.269513000000074, -11.822169999999971], [43.269595000000095, -11.821941999999922], [43.269809000000066, -11.821674999999857], [43.269809000000066, -11.821556999999927], [43.26922000000019, -11.821517999999912], [43.26945400000017, -11.821230999999955], [43.2693220000001, -11.821131999999977], [43.26945500000005, -11.82094399999994], [43.26904000000019, -11.820410999999979], [43.268807000000095, -11.820213999999964], [43.26863400000019, -11.820144999999911], [43.268370000000175, -11.820144999999911], [43.26825900000006, -11.820075999999972], [43.26825900000006, -11.819847999999922], [43.26820900000018, -11.819650999999965], [43.26844300000016, -11.819511999999861], [43.26834100000008, -11.81933399999997], [43.26843300000007, -11.819116999999949], [43.26808800000009, -11.819106999999917], [43.26779400000015, -11.818820999999957], [43.26779400000015, -11.81874199999993], [43.268314000000146, -11.818029999999965], [43.26799000000017, -11.81769399999996], [43.26799000000017, -11.817426999999896], [43.2676350000001, -11.817407999999944], [43.26762500000018, -11.817140999999879], [43.267270999999994, -11.816784999999982], [43.26738300000005, -11.816557999999873], [43.267190000000085, -11.816409999999962], [43.26742400000006, -11.816310999999928], [43.267302000000086, -11.816142999999897], [43.266988000000026, -11.815925999999877], [43.267314, -11.81568799999991], [43.26687800000019, -11.815391999999918], [43.26707100000016, -11.81531299999989], [43.26696000000004, -11.815075999999976], [43.267275000000154, -11.814907999999946], [43.26690000000008, -11.814314999999908], [43.26683000000014, -11.814126999999814], [43.26669800000002, -11.813711999999953], [43.26669900000013, -11.813237999999956], [43.26641500000005, -11.81319899999994], [43.26632400000017, -11.81296199999997], [43.26601000000011, -11.812823999999978], [43.26644700000003, -11.812783999999965], [43.26645700000017, -11.812546999999824], [43.266133000000025, -11.81206299999991], [43.266114000000016, -11.811478999999906], [43.26611500000013, -11.811281999999949], [43.26628800000003, -11.8110539999999], [43.26592300000004, -11.810797999999977], [43.265913000000126, -11.810510999999849], [43.26636100000002, -11.810213999999974], [43.26645200000013, -11.810045999999943], [43.26695000000012, -11.81019399999991], [43.2670720000001, -11.810104999999908], [43.26708200000019, -11.80987799999997], [43.26686000000012, -11.80944299999993], [43.26683000000014, -11.809294999999963], [43.26702399999999, -11.80849399999994], [43.266884000000175, -11.807703999999944], [43.26666100000017, -11.807406999999955], [43.265991000000156, -11.807417999999927], [43.265819000000135, -11.807358999999906], [43.26551400000011, -11.807111999999904], [43.26530200000019, -11.80691399999995], [43.26511900000014, -11.806696999999929], [43.26513000000017, -11.80626199999989], [43.26489800000013, -11.805965999999955], [43.264471000000185, -11.805896999999902], [43.264339000000064, -11.8058079999999], [43.26428900000019, -11.805728999999872], [43.26448199999999, -11.805511999999965], [43.26452400000011, -11.805076999999926], [43.26463600000011, -11.804957999999942], [43.26469700000001, -11.804572999999948], [43.264403000000016, -11.80451399999987], [43.264189999999985, -11.804394999999886], [43.264191000000096, -11.804038999999932], [43.263989000000095, -11.80366399999997], [43.26396900000003, -11.803535999999951], [43.26406099999997, -11.803189999999915], [43.26393100000007, -11.80207299999995], [43.26375900000005, -11.801756999999952], [43.26373900000016, -11.801598999999896], [43.26392300000009, -11.80096599999996], [43.27683300000018, -11.803499999999929], [43.27980600000012, -11.80058299999996], [43.29047100000008, -11.797104999999874], [43.35700300000019, -11.768957999999941], [43.35719800000015, -11.769243999999901], [43.35734400000018, -11.769480999999871], [43.357539000000145, -11.769766999999945], [43.357538000000034, -11.769980999999973], [43.357464000000164, -11.770217999999943], [43.35724400000004, -11.770241999999882], [43.35700000000014, -11.77045599999991], [43.35680400000007, -11.770693999999878], [43.35663200000005, -11.770955999999899], [43.356362000000104, -11.771312999999964], [43.35633700000017, -11.771645999999976], [43.35631200000006, -11.772144999999966], [43.35638400000016, -11.772572999999909], [43.356530000000134, -11.772928999999976], [43.35670000000016, -11.773142999999948], [43.35694400000011, -11.773451999999907]]]}}]}