{"type": "FeatureCollection", "features": [{"type": "Feature", "properties": {"country": "Comoros", "pcode": "KM213", "name": "Nyuma Msiru", "island": "Grande Comore (Ngazidja)"}, "geometry": {"type": "Polygon", "coordinates": [[[43.40147200000001, -11.483710999999914], [43.40128800000008, -11.483928999999932], [43.401096000000166, -11.483982999999967], [43.40068200000002, -11.483913999999913], [43.400506000000064, -11.484177999999929], [43.400394000000176, -11.484285999999884], [43.400274000000024, -11.484223999999813], [43.40008300000005, -11.484216999999944], [43.39995500000009, -11.484363999999914], [43.39982700000019, -11.484736999999882], [43.39969000000019, -11.485117999999886], [43.39955200000014, -11.48628999999994], [43.39943200000016, -11.486708999999962], [43.39927100000017, -11.487003999999956], [43.39927100000017, -11.487221999999974], [43.39935800000006, -11.487345999999945], [43.39946199999997, -11.487469999999973], [43.39944600000007, -11.487593999999945], [43.39929300000006, -11.487904999999898], [43.39907800000003, -11.488191999999856], [43.39897300000001, -11.488408999999933], [43.39893300000011, -11.488618999999915], [43.39897300000001, -11.488773999999978], [43.39911600000016, -11.488936999999964], [43.399298999999985, -11.489052999999956], [43.399538000000064, -11.489114999999913], [43.39969000000019, -11.48912299999995], [43.399833000000115, -11.48900599999996], [43.399953000000096, -11.488858999999877], [43.400129000000106, -11.48869599999989], [43.40029700000014, -11.488741999999888], [43.400368000000185, -11.488896999999838], [43.40032800000006, -11.48901399999994], [43.40007200000019, -11.48912299999995], [43.40007200000019, -11.489300999999955], [43.400263000000166, -11.489440999999886], [43.40055000000012, -11.489486999999883], [43.40068600000018, -11.489525999999898], [43.4008290000001, -11.489688999999885], [43.400884000000076, -11.49005399999993], [43.40106700000007, -11.490332999999964], [43.40113800000012, -11.490534999999909], [43.40113800000012, -11.490689999999972], [43.40100200000006, -11.490953999999931], [43.400794000000076, -11.491101999999955], [43.40053800000004, -11.491241999999886], [43.40040300000004, -11.491342999999972], [43.40063400000014, -11.491520999999977], [43.40070500000019, -11.49162199999995], [43.40058499999998, -11.491823999999895], [43.40060900000003, -11.492032999999935], [43.4009190000001, -11.492257999999936], [43.40103000000005, -11.49239799999998], [43.4010780000001, -11.492738999999915], [43.40100500000011, -11.492963999999972], [43.400670000000105, -11.492995999999948], [43.400439000000176, -11.493096999999977], [43.400223000000096, -11.493166999999971], [43.400024000000144, -11.493228999999872], [43.399912000000086, -11.493415999999968], [43.3999510000001, -11.493546999999978], [43.400039000000106, -11.49366399999991], [43.400230000000136, -11.493833999999936], [43.400230000000136, -11.493942999999888], [43.400102000000174, -11.494066999999859], [43.39995000000005, -11.494136999999967], [43.39966300000009, -11.49430099999995], [43.39932000000016, -11.494377999999926], [43.399136, -11.49453399999993], [43.399127000000135, -11.494843999999944], [43.39914300000004, -11.495123999999919], [43.39923800000008, -11.495224999999834], [43.39938200000012, -11.495123999999919], [43.39953300000019, -11.495231999999874], [43.399557000000016, -11.495371999999918], [43.39936500000016, -11.49548799999991], [43.399221000000125, -11.495651999999893], [43.399221000000125, -11.49585299999984], [43.39945900000009, -11.496147999999891], [43.399675, -11.496170999999947], [43.399706000000094, -11.4962799999999], [43.3996820000001, -11.496473999999978], [43.39977700000014, -11.496690999999885], [43.39950600000009, -11.496861999999908], [43.39936200000005, -11.496931999999958], [43.399609000000055, -11.497141999999883], [43.39924100000019, -11.497545999999943], [43.39925700000009, -11.497669999999971], [43.39942400000007, -11.497669999999971], [43.39950400000009, -11.497832999999957], [43.39961500000004, -11.498095999999975], [43.39959099999999, -11.498196999999891], [43.39937500000008, -11.498282999999901], [43.399167999999975, -11.49831399999988], [43.39903200000009, -11.498298999999975], [43.398952000000065, -11.498360999999875], [43.39898300000016, -11.498725999999976], [43.39905400000015, -11.499035999999933], [43.399221000000125, -11.499307999999871], [43.399404000000175, -11.499462999999935], [43.399740000000065, -11.499361999999905], [43.39985100000018, -11.499407999999903], [43.39995500000009, -11.499508999999932], [43.39985800000005, -11.499943999999914], [43.40012000000007, -11.500470999999948], [43.40012000000007, -11.500540999999942], [43.399871000000076, -11.501402999999925], [43.399878000000115, -11.501782999999932], [43.39987000000019, -11.5019079999999], [43.400005000000135, -11.501976999999897], [43.40014100000002, -11.501930999999956], [43.400356000000045, -11.501968999999974], [43.400539000000094, -11.502100999999982], [43.400850000000105, -11.502147999999863], [43.4010330000001, -11.50230299999987], [43.40122400000013, -11.50253499999991], [43.40128800000008, -11.502736999999911], [43.40140700000018, -11.502969999999948], [43.40137400000009, -11.503280999999902], [43.40126200000009, -11.503435999999851], [43.40112599999998, -11.50349799999998], [43.40077500000007, -11.503598999999838], [43.40064800000005, -11.503691999999887], [43.40056700000014, -11.503901999999925], [43.40050300000013, -11.503971999999976], [43.40029600000008, -11.504064999999912], [43.40027200000003, -11.504158999999959], [43.400319000000025, -11.50434499999983], [43.40021500000012, -11.504693999999915], [43.40009400000008, -11.50507499999992], [43.40009400000008, -11.505213999999967], [43.40008500000005, -11.505462999999963], [43.400125000000116, -11.505687999999907], [43.40024400000004, -11.505912999999964], [43.40037899999999, -11.50609099999997], [43.40057000000019, -11.5062309999999], [43.400798000000066, -11.506302999999832], [43.40126200000009, -11.506318999999905], [43.40228500000018, -11.506170999999938], [43.402587000000096, -11.506227999999908], [43.40272600000003, -11.506374999999935], [43.40301600000004, -11.506611999999905], [43.40327100000019, -11.506848999999875], [43.403434000000175, -11.507120999999927], [43.40353700000003, -11.507436999999868], [43.403700000000185, -11.507617999999923], [43.40408300000007, -11.507753999999977], [43.40416400000004, -11.507832999999948], [43.404349000000025, -11.508114999999918], [43.40454100000011, -11.508374999999944], [43.40485900000016, -11.508810999999866], [43.40505000000013, -11.509369999999933], [43.40535700000015, -11.509833999999955], [43.405362000000025, -11.51004899999998], [43.40545400000019, -11.510364999999922], [43.40570400000007, -11.51060299999989], [43.405866000000174, -11.510568999999919], [43.40622700000017, -11.510375999999951], [43.40632000000005, -11.510499999999979], [43.40649300000018, -11.510805999999889], [43.406609000000174, -11.511099999999885], [43.406759000000136, -11.511494999999968], [43.406945000000064, -11.511619999999937], [43.40702600000003, -11.511879999999962], [43.40703600000012, -11.512422999999956], [43.40718600000014, -11.512817999999925], [43.407348000000184, -11.513100999999892], [43.40755700000011, -11.513326999999947], [43.40774300000004, -11.513326999999947], [43.40787000000006, -11.513597999999888], [43.40773100000007, -11.513699999999972], [43.407428000000095, -11.513858999999911], [43.40740400000004, -11.51406199999991], [43.40749700000009, -11.514242999999965], [43.40779900000001, -11.514140999999881], [43.40797300000003, -11.514468999999963], [43.40804200000008, -11.51467299999996], [43.40791400000012, -11.514932999999871], [43.40804099999997, -11.515215999999953], [43.40790000000004, -11.515791999999976], [43.407898000000046, -11.516798999999878], [43.40765400000009, -11.516945999999962], [43.407583999999986, -11.517092999999875], [43.40759400000013, -11.517601999999897], [43.40757100000019, -11.517816999999923], [43.40740800000003, -11.517986999999948], [43.406908000000044, -11.51805499999989], [43.406722000000116, -11.518134999999972], [43.40647700000005, -11.518394999999884], [43.4062560000001, -11.51862099999994], [43.40596500000015, -11.518869999999936], [43.40576700000014, -11.519141999999874], [43.40576600000003, -11.519344999999873], [43.40581200000014, -11.519525999999928], [43.40617200000008, -11.519650999999953], [43.40635800000018, -11.519853999999896], [43.40647300000012, -11.520158999999978], [43.40649600000006, -11.520633999999973], [43.40626300000014, -11.520848999999885], [43.406251000000054, -11.521052999999881], [43.40642500000001, -11.521142999999881], [43.40642400000013, -11.521335999999962], [43.40608700000013, -11.521437999999932], [43.4060520000001, -11.521697999999958], [43.40573800000004, -11.5217659999999], [43.40556300000014, -11.521946999999955], [43.405481000000066, -11.522195999999951], [43.40574800000013, -11.52236499999998], [43.40587600000009, -11.522466999999892], [43.40607300000005, -11.522522999999921], [43.40627000000018, -11.522748999999976], [43.406456000000105, -11.523122999999941], [43.40673400000003, -11.523223999999914], [43.40686200000016, -11.523302999999885], [43.406605000000184, -11.523687999999936], [43.406384, -11.523936999999933], [43.405175000000156, -11.524016999999901], [43.40482600000007, -11.524254999999869], [43.40481300000005, -11.525204999999971], [43.40495200000004, -11.525475999999912], [43.40523000000013, -11.525871999999936], [43.40541500000012, -11.526131999999848], [43.40536700000007, -11.526629999999841], [43.40561100000019, -11.526662999999928], [43.405750000000126, -11.526866999999982], [43.40580800000015, -11.527013999999895], [43.40558700000014, -11.527137999999866], [43.405668000000105, -11.52727399999992], [43.405900000000145, -11.527544999999975], [43.40599200000008, -11.527770999999916], [43.40595700000006, -11.528132999999855], [43.405840000000126, -11.52822399999991], [43.405713000000105, -11.52821299999988], [43.405481000000066, -11.527952999999968], [43.40524799999997, -11.528189999999938], [43.405074000000184, -11.528043999999966], [43.40493400000014, -11.528088999999966], [43.404585000000054, -11.528394999999932], [43.40439900000007, -11.528688999999929], [43.40435100000019, -11.52895999999987], [43.404177000000004, -11.529106999999954], [43.40345700000012, -11.529039999999952], [43.40341000000018, -11.52916399999998], [43.40381600000018, -11.529401999999948], [43.40371099999999, -11.529480999999919], [43.40344400000015, -11.529706999999974], [43.40333900000013, -11.529899999999941], [43.403199000000086, -11.530182999999909], [43.40339600000004, -11.53026199999988], [43.403513000000146, -11.530046999999968], [43.403640000000166, -11.530034999999941], [43.40402400000016, -11.530181999999911], [43.404256000000146, -11.530294999999967], [43.40465100000017, -11.53038499999991], [43.40477800000019, -11.530497999999966], [43.4048820000001, -11.530893999999932], [43.4048820000001, -11.53099599999996], [43.404742000000056, -11.53107499999993], [43.40428900000006, -11.531255999999871], [43.404648000000066, -11.531526999999926], [43.40474100000017, -11.531775999999923], [43.40457600000019, -11.532578999999942], [43.40415800000005, -11.532613999999967], [43.40398300000015, -11.53280599999988], [43.404006000000095, -11.532997999999964], [43.40407500000009, -11.533099999999934], [43.40423800000008, -11.53331499999996], [43.40445799999998, -11.533280999999931], [43.40459800000002, -11.53340499999996], [43.404481000000146, -11.533551999999872], [43.40451600000017, -11.53359699999993], [43.404760000000124, -11.533619999999814], [43.40485300000017, -11.533777999999927], [43.404712000000075, -11.534105999999952], [43.40466500000008, -11.534580999999946], [43.40476900000016, -11.534806999999887], [43.40459500000014, -11.534886999999912], [43.40437300000008, -11.535112999999967], [43.40411700000004, -11.535237999999936], [43.40411700000004, -11.535395999999935], [43.404315000000054, -11.535350999999935], [43.40464000000014, -11.535338999999851], [43.404756000000134, -11.535496999999964], [43.40469800000017, -11.535609999999963], [43.4044530000001, -11.535632999999905], [43.40391899999997, -11.535519999999906], [43.40368600000005, -11.535689999999931], [43.40368600000005, -11.53596199999987], [43.403860000000066, -11.535972999999899], [43.40406900000016, -11.536017999999899], [43.40422000000001, -11.536141999999927], [43.404185000000155, -11.536300999999867], [43.40418400000004, -11.53656099999995], [43.40405600000014, -11.53659499999992], [43.403557000000035, -11.536515999999892], [43.40333600000008, -11.53659499999992], [43.403568000000064, -11.536775999999975], [43.40375300000011, -11.536967999999888], [43.40376500000002, -11.53720599999997], [43.403927000000124, -11.537329999999827], [43.403927000000124, -11.53743199999991], [43.403763000000026, -11.537702999999965], [43.40373900000003, -11.538053999999931], [43.403995000000066, -11.538177999999903], [43.40394800000007, -11.538336999999899], [43.40398300000015, -11.53850599999987], [43.40376200000014, -11.538551999999925], [43.4036220000001, -11.53870999999998], [43.40373800000009, -11.53873299999998], [43.40377300000017, -11.53882299999998], [43.40335400000015, -11.538834999999892], [43.40325000000007, -11.538924999999892], [43.4035750000001, -11.539071999999976], [43.40367900000001, -11.539207999999974], [43.40341100000006, -11.539399999999944], [43.403655000000185, -11.53965999999997], [43.403864000000056, -11.539716999999882], [43.40375900000009, -11.539919999999881], [43.40386300000017, -11.540100999999936], [43.403688000000045, -11.540259999999876], [43.40356000000014, -11.540281999999934], [43.403165000000115, -11.540236999999934], [43.40300300000007, -11.540259999999876], [43.403049000000124, -11.540372999999875], [43.40333900000013, -11.540519999999958], [43.403734000000156, -11.54064399999993], [43.403815000000066, -11.540745999999956], [43.40376800000013, -11.540847999999926], [43.403640000000166, -11.541050999999925], [43.40351200000009, -11.541175999999894], [43.403326000000106, -11.541220999999894], [43.40318600000012, -11.541300999999919], [43.40310500000015, -11.541447999999946], [43.402942000000166, -11.541560999999945], [43.40270900000007, -11.541684999999916], [43.402546000000086, -11.541832999999883], [43.40245300000004, -11.542001999999854], [43.40240600000004, -11.542409999999961], [43.40292800000009, -11.542431999999906], [43.40311400000019, -11.54270299999996], [43.40324100000004, -11.542792999999847], [43.40354300000013, -11.542838999999901], [43.403636000000006, -11.54289499999993], [43.40377500000017, -11.5430869999999], [43.404089, -11.543267999999955], [43.40432100000004, -11.543301999999926], [43.40448300000014, -11.543391999999926], [43.40469200000018, -11.543561999999952], [43.404831000000115, -11.543741999999952], [43.40499300000005, -11.543967999999893], [43.40499300000005, -11.544115999999974], [43.404749000000095, -11.544375999999886], [43.40473600000007, -11.544624999999883], [43.40439900000007, -11.54491899999988], [43.40429400000011, -11.545065999999963], [43.404305000000136, -11.54515699999996], [43.4044100000001, -11.54535999999996], [43.40459500000014, -11.545540999999844], [43.404711000000134, -11.545698999999956], [43.40468700000014, -11.546105999999952], [43.40486100000015, -11.546275999999978], [43.40512799999999, -11.546275999999978], [43.40526700000015, -11.546512999999948], [43.40548700000005, -11.54662599999989], [43.405452000000025, -11.546840999999915], [43.405138000000136, -11.547202999999968], [43.40512600000005, -11.547360999999967], [43.405358000000035, -11.547564999999963], [43.40538100000015, -11.547711999999876], [43.40511300000003, -11.548062999999956], [43.405100000000175, -11.548333999999898], [43.40498300000007, -11.548865999999975], [43.40469200000018, -11.549114999999972], [43.4046800000001, -11.549317999999971], [43.404935000000194, -11.549374999999884], [43.40498200000019, -11.549430999999913], [43.404958000000136, -11.54971399999988], [43.40493400000014, -11.549973999999963], [43.40515500000009, -11.549996999999848], [43.40538700000013, -11.550290999999902], [43.40566600000011, -11.550289999999848], [43.405665000000056, -11.550629999999899], [43.405234000000064, -11.551127999999892], [43.40521000000007, -11.551217999999892], [43.40572200000014, -11.551206999999977], [43.40578000000016, -11.551330999999891], [43.40607000000017, -11.551375999999891], [43.4062560000001, -11.551499999999862], [43.40620800000005, -11.552257999999938], [43.40613700000017, -11.552698999999961], [43.40605500000015, -11.552924999999902], [43.40593900000016, -11.55307299999987], [43.405776000000174, -11.55320799999987], [43.40556600000019, -11.553377999999896], [43.405589000000134, -11.553479999999979], [43.40607700000004, -11.55356999999998], [43.40607700000004, -11.553716999999892], [43.40597200000002, -11.553863999999976], [43.405855000000145, -11.554056999999943], [43.40561000000008, -11.554463999999882], [43.40572600000013, -11.554689999999937], [43.40562100000011, -11.554870999999878], [43.40531900000019, -11.554791999999907], [43.40513300000009, -11.55495099999996], [43.40546900000015, -11.555243999999846], [43.40543400000013, -11.555345999999929], [43.40527100000014, -11.555492999999842], [43.40577100000013, -11.555469999999957], [43.40577100000013, -11.555549999999926], [43.40535100000017, -11.55596799999995], [43.40509500000013, -11.556307999999945], [43.40488500000015, -11.55647799999997], [43.40472200000016, -11.556647999999939], [43.40438500000016, -11.556749999999909], [43.404361000000165, -11.557020999999963], [43.40470899999997, -11.557370999999875], [43.404674000000114, -11.557472999999959], [43.40446500000007, -11.557563999999957], [43.40475500000008, -11.557902999999953], [43.40485900000016, -11.558207999999865], [43.405043999999975, -11.558264999999949], [43.40517200000011, -11.55838899999992], [43.40520700000013, -11.558501999999919], [43.40503200000006, -11.558512999999948], [43.40491600000007, -11.558637999999917], [43.40504300000009, -11.558727999999974], [43.40520600000008, -11.558965999999941], [43.40506600000003, -11.559067999999968], [43.404671000000064, -11.559067999999968], [43.40453100000019, -11.559180999999967], [43.40449600000011, -11.559429999999963], [43.404402000000175, -11.559610999999961], [43.404390000000035, -11.559780999999873], [43.404495000000054, -11.559802999999931], [43.40463400000016, -11.559836999999902], [43.388941000000045, -11.561113999999975], [43.38450000000017, -11.560360999999943], [43.3630280000001, -11.560027999999818], [43.34433900000005, -11.559345999999948], [43.351103000000194, -11.523449999999968], [43.35049000000009, -11.512408999999934], [43.34911139900015, -11.510914164999974], [43.34708600000016, -11.508717999999874], [43.34711160100005, -11.506620568999892], [43.34711645900012, -11.506222603999845], [43.34733300000016, -11.488481999999976], [43.35150300000004, -11.487337999999966], [43.35759000000007, -11.487766999999963], [43.361266000000114, -11.489176999999927], [43.377642000000094, -11.493498999999929], [43.38766200000009, -11.49343399999998], [43.387720000000115, -11.493127999999956], [43.38797600000015, -11.492347999999822], [43.38823200000019, -11.491570999999908], [43.38831900000014, -11.491353999999887], [43.38853600000016, -11.491043999999931], [43.388716999999986, -11.490737999999908], [43.388777000000175, -11.490405999999894], [43.38871500000005, -11.489939999999876], [43.38870400000019, -11.489521999999965], [43.388821000000064, -11.488992999999937], [43.38901700000014, -11.488456999999926], [43.38924600000007, -11.488089999999943], [43.38954600000005, -11.487837999999954], [43.38990200000018, -11.48767399999997], [43.39014600000013, -11.487586999999962], [43.39030700000012, -11.487487999999871], [43.39049800000009, -11.48723299999989], [43.390701000000035, -11.486970999999926], [43.39110200000016, -11.486595999999963], [43.391840000000116, -11.48605299999997], [43.39247800000015, -11.485581999999908], [43.39275100000003, -11.485345999999936], [43.393012999999996, -11.484880999999973], [43.39322900000013, -11.484487999999885], [43.393439000000114, -11.484062999999878], [43.39369400000004, -11.4837389999999], [43.394219000000135, -11.483151999999848], [43.39450800000009, -11.482681999999954], [43.39458800000011, -11.482266999999979], [43.39464100000009, -11.481822999999906], [43.40147200000001, -11.483710999999914]]]}}]}