{"type": "FeatureCollection", "features": [{"type": "Feature", "properties": {"country": "Comoros", "pcode": "KM221", "name": "Djoumoipangua", "island": "Grande Comore (Ngazidja)"}, "geometry": {"type": "Polygon", "coordinates": [[[43.36074800000006, -11.776516999999956], [43.361260000000186, -11.776920999999959], [43.36152900000002, -11.776896999999963], [43.36184700000007, -11.776920999999959], [43.362237000000164, -11.77713499999993], [43.36235900000014, -11.777395999999953], [43.36240700000002, -11.777870999999891], [43.362577000000044, -11.778227999999956], [43.36282000000011, -11.778512999999975], [43.36321100000015, -11.778869999999927], [43.36144400000012, -11.84247199999993], [43.361278000000084, -11.844138999999927], [43.36050000000017, -11.848999999999876], [43.36155600000012, -11.852499999999907], [43.35891600000019, -11.855485999999871], [43.35833900000006, -11.855468999999914], [43.35797700000012, -11.855977999999936], [43.35783200000003, -11.855995999999891], [43.35787000000016, -11.855415999999877], [43.35745500000013, -11.855398999999977], [43.35741800000005, -11.855820999999878], [43.357345000000066, -11.855820999999878], [43.357057000000054, -11.855469999999968], [43.35604600000005, -11.855873999999915], [43.35597300000006, -11.856242999999893], [43.3555760000001, -11.855962999999917], [43.35537800000003, -11.855927999999949], [43.35514200000006, -11.856261999999958], [43.35496200000006, -11.85606899999982], [43.35470900000013, -11.856173999999953], [43.35458200000005, -11.856665999999905], [43.354400999999996, -11.856946999999877], [43.354203000000155, -11.85675399999991], [43.354024000000095, -11.856033999999852], [43.35351900000006, -11.855963999999915], [43.35238200000015, -11.855736999999976], [43.351786000000175, -11.856000999999878], [43.34999900000014, -11.856194999999957], [43.34987100000018, -11.856633999999929], [43.34947400000004, -11.856616999999972], [43.349275999999975, -11.856388999999979], [43.34891500000015, -11.856406999999876], [43.348626000000195, -11.856687999999963], [43.348265000000026, -11.856670999999892], [43.34801200000004, -11.856635999999924], [43.34729000000016, -11.85698799999983], [43.346856000000116, -11.857005999999899], [43.346784000000014, -11.857215999999937], [43.34631400000006, -11.85730499999994], [43.34643900000009, -11.857831999999917], [43.34651100000019, -11.858041999999898], [43.346258000000034, -11.858041999999898], [43.34622300000018, -11.85777899999988], [43.34609700000004, -11.857725999999957], [43.34600600000016, -11.858007999999927], [43.34588000000019, -11.857901999999967], [43.345898999999974, -11.857497999999907], [43.345646000000045, -11.85742799999997], [43.34544800000015, -11.857216999999935], [43.34526800000003, -11.857234999999946], [43.345105000000046, -11.857375999999931], [43.34485200000006, -11.857533999999873], [43.344940000000065, -11.858499999999879], [43.34477800000013, -11.85846499999991], [43.344760000000065, -11.858183999999937], [43.344473000000164, -11.857604999999978], [43.34413000000018, -11.857569999999953], [43.34360600000019, -11.85788599999995], [43.34306400000008, -11.85785199999998], [43.342738999999995, -11.858062999999959], [43.34250400000013, -11.858009999999922], [43.34216100000015, -11.85814199999993], [43.34079000000003, -11.858072999999877], [43.34073600000005, -11.857966999999917], [43.340555000000165, -11.85800299999994], [43.34057300000006, -11.858283999999855], [43.34006700000009, -11.858441999999968], [43.340013000000056, -11.858318999999824], [43.33985000000007, -11.858336999999892], [43.33985000000007, -11.858617999999979], [43.339579000000015, -11.85868899999997], [43.33938000000012, -11.858934999999974], [43.33921700000013, -11.858969999999943], [43.33920000000012, -11.858670999999902], [43.33907399999998, -11.85865399999983], [43.33882100000005, -11.85886499999998], [43.33855000000017, -11.858741999999893], [43.33846000000017, -11.858811999999944], [43.338441000000046, -11.85911099999987], [43.33809800000006, -11.859286999999881], [43.33764600000018, -11.859286999999881], [43.33744800000011, -11.859445999999878], [43.33667100000014, -11.859638999999959], [43.336636000000055, -11.859182999999973], [43.33636500000006, -11.859129999999936], [43.33636600000011, -11.858813999999938], [43.33625800000004, -11.858831999999893], [43.33609500000006, -11.858954999999867], [43.33586100000008, -11.858690999999965], [43.33562600000016, -11.85870899999992], [43.33558900000014, -11.859182999999973], [43.33540900000014, -11.859147999999948], [43.33542700000004, -11.858919999999898], [43.33528300000006, -11.858831999999893], [43.335155999999984, -11.858954999999867], [43.33499400000011, -11.858919999999898], [43.33430800000019, -11.858814999999936], [43.33420000000012, -11.859043999999926], [43.33409100000017, -11.859043999999926], [43.333965000000035, -11.85883299999989], [43.33376700000019, -11.85883299999989], [43.33365800000007, -11.859061999999938], [43.333189000000175, -11.859202999999866], [43.33299000000005, -11.859132999999929], [43.33284600000019, -11.859132999999929], [43.33271900000017, -11.859343999999965], [43.33192500000018, -11.859115999999972], [43.33156500000007, -11.858975999999927], [43.33118600000017, -11.858834999999885], [43.330861000000084, -11.858905999999877], [43.330716000000166, -11.859186999999963], [43.33001200000018, -11.85918799999996], [43.32985000000008, -11.858906999999874], [43.32974200000007, -11.858923999999945], [43.32961500000005, -11.859327999999891], [43.329398000000026, -11.859134999999924], [43.329181000000176, -11.85934599999996], [43.32901900000007, -11.859381999999925], [43.32855000000018, -11.859311999999932], [43.32790000000006, -11.859416999999894], [43.32789900000017, -11.859610999999973], [43.32782700000007, -11.859715999999935], [43.32766500000014, -11.859522999999967], [43.327340000000106, -11.859487999999885], [43.3272310000001, -11.8597519999999], [43.32717700000012, -11.85957599999989], [43.32706900000005, -11.859540999999922], [43.32688800000017, -11.859716999999932], [43.32634700000017, -11.859787999999867], [43.32548100000008, -11.859313999999813], [43.32488400000011, -11.859998999999902], [43.324541000000124, -11.859964999999931], [43.32429000000013, -11.859595999999954], [43.32401900000008, -11.859577999999885], [43.32401900000008, -11.859419999999943], [43.32356800000008, -11.859367999999904], [43.323532000000114, -11.859209999999905], [43.32315300000005, -11.859227999999973], [43.32306400000016, -11.85882399999997], [43.322793000000104, -11.85882399999997], [43.32257600000008, -11.859104999999943], [43.32185400000003, -11.858982999999967], [43.321855000000085, -11.858824999999854], [43.32165700000007, -11.858595999999977], [43.32143900000017, -11.858894999999961], [43.321169, -11.85887799999989], [43.32091600000007, -11.858649999999955], [43.32048300000008, -11.858579999999904], [43.31999600000012, -11.858544999999935], [43.31936500000012, -11.858351999999968], [43.31893200000019, -11.858351999999968], [43.31880600000005, -11.858018999999956], [43.318427000000156, -11.857948999999849], [43.318246999999985, -11.857807999999977], [43.31817500000011, -11.85772099999997], [43.318031000000076, -11.857684999999947], [43.31786800000009, -11.857966999999917], [43.31772300000017, -11.858001999999885], [43.31743500000016, -11.857738999999981], [43.31736300000006, -11.857597999999939], [43.316858000000025, -11.857527999999832], [43.31669600000009, -11.857387999999958], [43.31657000000018, -11.85721199999989], [43.31644300000016, -11.857141999999953], [43.31629900000013, -11.856948999999872], [43.316137000000026, -11.856913999999904], [43.315902000000165, -11.85701899999998], [43.31565000000006, -11.856948999999872], [43.3153430000001, -11.856913999999904], [43.31509000000011, -11.856861999999978], [43.31476400000014, -11.857371999999884], [43.314602000000036, -11.857371999999884], [43.31436700000012, -11.85768799999994], [43.31391600000012, -11.857494999999858], [43.31344600000017, -11.857811999999967], [43.31304900000015, -11.857723999999962], [43.312850000000026, -11.857899999999972], [43.31268700000004, -11.858356999999955], [43.31254200000012, -11.858303999999976], [43.31238100000013, -11.857952999999895], [43.312200000000075, -11.857882999999958], [43.312002000000064, -11.857952999999895], [43.31194800000003, -11.857777999999826], [43.31184000000013, -11.857759999999928], [43.31162300000011, -11.857759999999928], [43.31147900000013, -11.857707999999889], [43.31117200000011, -11.857883999999956], [43.31117200000011, -11.857584999999915], [43.310938000000135, -11.857461999999941], [43.310847000000024, -11.857567999999958], [43.31064900000018, -11.857514999999978], [43.310668000000135, -11.857057999999938], [43.31041600000009, -11.856917999999894], [43.30998300000016, -11.856513999999947], [43.30978500000009, -11.85642699999994], [43.30946000000006, -11.856356999999946], [43.30924300000004, -11.856813999999929], [43.30890000000005, -11.856549999999913], [43.30890100000016, -11.856215999999904], [43.308595000000025, -11.85586499999988], [43.308360000000164, -11.85619899999989], [43.308215000000075, -11.85619899999989], [43.30799900000011, -11.85583099999991], [43.30796300000014, -11.856005999999923], [43.307728000000054, -11.85600699999992], [43.307602000000145, -11.855970999999954], [43.30747600000018, -11.855883999999946], [43.307404000000076, -11.855777999999873], [43.307206000000065, -11.855479999999943], [43.306989000000044, -11.855461999999932], [43.30670100000003, -11.855391999999938], [43.30661100000003, -11.855110999999965], [43.30630400000001, -11.855163999999888], [43.30597900000015, -11.855322999999885], [43.30578100000008, -11.855146999999931], [43.30581800000016, -11.854724999999974], [43.305529000000035, -11.854549999999904], [43.30504100000013, -11.854848999999945], [43.30484300000012, -11.854690999999946], [43.30507800000004, -11.854497999999865], [43.30507900000009, -11.854145999999957], [43.30495300000018, -11.854128999999887], [43.30464500000005, -11.85437499999989], [43.30451900000014, -11.85437499999989], [43.30441100000007, -11.854040999999881], [43.30433900000014, -11.854040999999881], [43.30432100000007, -11.854321999999968], [43.30410400000005, -11.85437499999989], [43.30394200000018, -11.854023999999981], [43.30367100000012, -11.854023999999981], [43.30367200000006, -11.853935999999976], [43.303544999999986, -11.853988999999956], [43.303329000000076, -11.853988999999956], [43.303202000000056, -11.853883999999937], [43.303239000000076, -11.85370799999987], [43.30336500000004, -11.853672999999901], [43.30343800000003, -11.85353299999997], [43.302500000000066, -11.853040999999905], [43.30213900000001, -11.853287999999907], [43.30192199999999, -11.853269999999952], [43.301797000000136, -11.852883999999904], [43.30161600000008, -11.852830999999867], [43.30138099999999, -11.853129999999908], [43.301237000000185, -11.85305999999997], [43.30134600000014, -11.852725999999961], [43.30102100000005, -11.852778999999828], [43.30082300000004, -11.852602999999931], [43.30048000000005, -11.85253299999988], [43.30057100000016, -11.852269999999976], [43.30030099999999, -11.851970999999935], [43.29994000000016, -11.851637999999923], [43.29968800000012, -11.851602999999955], [43.29965200000015, -11.851338999999939], [43.29945400000008, -11.851374999999905], [43.29934500000013, -11.85169099999996], [43.299254000000076, -11.85169099999996], [43.29923700000006, -11.851251999999874], [43.29905700000012, -11.851110999999946], [43.30205600000011, -11.843499999999892], [43.30466700000011, -11.832582999999886], [43.35694400000011, -11.773451999999907], [43.3573090000001, -11.77402299999983], [43.357625000000155, -11.774663999999916], [43.35782000000012, -11.774830999999892], [43.35804000000019, -11.775163999999904], [43.358406000000116, -11.775305999999944], [43.35869900000017, -11.775352999999825], [43.359089000000154, -11.775590999999963], [43.359235000000126, -11.775804999999934], [43.359455000000025, -11.77594699999986], [43.359992000000034, -11.776041999999904], [43.360261000000094, -11.776160999999888], [43.36074800000006, -11.776516999999956]]]}}]}