{"type": "FeatureCollection", "features": [{"type": "Feature", "properties": {"country": "Comoros", "pcode": "KM331", "name": "Ml\u00e9dj\u00e9l\u00e9", "island": "Moh\u00e9li (Mwali)"}, "geometry": {"type": "MultiPolygon", "coordinates": [[[[43.71574800000013, -12.317594999999926], [43.71717400000017, -12.317923999999891], [43.719455000000096, -12.317703999999821], [43.7211190000001, -12.317619999999977], [43.723066000000074, -12.316385999999909], [43.72430200000019, -12.317127999999968], [43.72558900000013, -12.319388999999887], [43.72578700000014, -12.326291999999853], [43.726690000000076, -12.326020999999969], [43.72730700000017, -12.325654999999927], [43.728590000000054, -12.325476999999921], [43.72987400000011, -12.325850999999943], [43.73111100000011, -12.326546999999891], [43.73258500000003, -12.327197999999953], [43.73325100000011, -12.327338999999881], [43.73491600000017, -12.328542999999854], [43.73653300000001, -12.329516999999953], [43.73672500000009, -12.331358999999964], [43.73734500000006, -12.333247999999855], [43.7378690000001, -12.333940999999982], [43.739629000000036, -12.334915999999907], [43.74062800000013, -12.335609999999974], [43.74215200000009, -12.33800999999994], [43.74296200000015, -12.33953299999996], [43.74446000000006, -12.340593999999953], [43.7453900000001, -12.343178999999964], [43.74641000000014, -12.344891999999959], [43.74874400000016, -12.345835999999906], [43.75218799999999, -12.346724999999935], [43.75713700000006, -12.348985999999968], [43.75884900000011, -12.34963799999997], [43.76118000000008, -12.351120999999921], [43.76455599999997, -12.352516999999978], [43.76746600000007, -12.355530999999871], [43.77229900000009, -12.368335999999942], [43.77268800000013, -12.368641999999966], [43.77803400000016, -12.380747999999926], [43.777761999999996, -12.380717999999945], [43.777558, -12.380481999999915], [43.77737300000018, -12.380358999999885], [43.777169000000185, -12.380273999999872], [43.777033000000074, -12.38022599999988], [43.77665500000006, -12.380186999999978], [43.77649900000017, -12.380147999999906], [43.77631500000018, -12.380137999999874], [43.776208000000054, -12.379883999999947], [43.77618800000016, -12.379563999999903], [43.77605100000005, -12.37926199999987], [43.77591500000017, -12.379233999999883], [43.77573100000018, -12.379166999999939], [43.77560400000016, -12.378705999999966], [43.775555, -12.378300999999965], [43.77551600000015, -12.378112999999928], [43.77522400000015, -12.377791999999943], [43.77500000000009, -12.377574999999922], [43.774845000000084, -12.377422999999965], [43.7745920000001, -12.37722499999984], [43.77454299900006, -12.376547999999957], [43.77442599900013, -12.376254999999958], [43.77444499900008, -12.376010999999949], [43.774493000000064, -12.375992999999937], [43.774483000000146, -12.375559999999837], [43.77454100000017, -12.375540999999942], [43.77452200000016, -12.375371999999913], [43.774269000000004, -12.375003999999933], [43.77423900000019, -12.37482499999993], [43.77408400000019, -12.374523999999894], [43.77392800000007, -12.374259999999936], [43.773792000000185, -12.374136999999962], [43.77367500000008, -12.374041999999974], [43.77357800000004, -12.373834999999929], [43.77350000000018, -12.373721999999816], [43.77327700000018, -12.373626999999942], [43.77312100000006, -12.373550999999964], [43.772868000000074, -12.373436999999967], [43.77266400000008, -12.373426999999936], [43.77242200000012, -12.373377999999946], [43.772266, -12.373283999999899], [43.77212000000003, -12.372953999999936], [43.77212000000003, -12.372784999999908], [43.77217800000005, -12.372728999999879], [43.77219600000012, -12.371947999999918], [43.77220600000004, -12.37184499999995], [43.77204100000006, -12.371514999999818], [43.771846000000096, -12.37123199999985], [43.77169000000015, -12.370976999999982], [43.771603000000084, -12.370703999999932], [43.77152400000011, -12.370317999999884], [43.7714170000001, -12.370072999999877], [43.771252000000175, -12.369799999999941], [43.77103800000003, -12.369554999999934], [43.77095000000003, -12.369318999999905], [43.770892, -12.369102999999882], [43.77074600000003, -12.368781999999896], [43.7706290000001, -12.368621999999903], [43.77043400000014, -12.368469999999945], [43.770269000000155, -12.368299999999977], [43.77025900000007, -12.368046999999933], [43.76989000000009, -12.367762999999968], [43.769705000000044, -12.367573999999877], [43.76953900000018, -12.367337999999961], [43.769403000000125, -12.36714899999987], [43.76927700000016, -12.366960999999947], [43.769189000000154, -12.366771999999969], [43.76911100000012, -12.366583999999932], [43.769014000000084, -12.366526999999905], [43.76886799900018, -12.366459999999961], [43.76858700000008, -12.366477999999972], [43.76826599999998, -12.366504999999961], [43.76790700000015, -12.36657799999989], [43.767587000000105, -12.366651999999874], [43.76728600000007, -12.366791999999919], [43.76704300000006, -12.366949999999918], [43.766810000000135, -12.367024999999899], [43.76667400000008, -12.367183999999952], [43.76657800000015, -12.367530999999872], [43.766374000000155, -12.367670999999973], [43.76599500000003, -12.367753999999934], [43.76561700000019, -12.367789999999957], [43.76528700000006, -12.367872999999918], [43.76494700000018, -12.367965999999967], [43.76455799900009, -12.36801999999983], [43.76431600000001, -12.36798199999987], [43.76411100000013, -12.367698999999902], [43.764121000000046, -12.36743499999983], [43.76429500000006, -12.36727599999989], [43.76434399900012, -12.367134999999962], [43.7643920000001, -12.366909999999905], [43.76450800000009, -12.366665999999952], [43.76461500000005, -12.366468999999938], [43.76459500000004, -12.36616799999996], [43.76448800000003, -12.365979999999979], [43.764274000000114, -12.365884999999935], [43.764002000000175, -12.36578899999995], [43.763594000000126, -12.36579699999993], [43.7629730000001, -12.365849999999966], [43.762380000000064, -12.365865999999926], [43.76204100000007, -12.365901999999892], [43.76185600000008, -12.365948999999887], [43.76170100000019, -12.36605099999997], [43.761574999000175, -12.36605099999997], [43.761409000000185, -12.365936999999974], [43.761301999000125, -12.365719999999953], [43.76112700000016, -12.365418999999918], [43.76099100000005, -12.365276999999878], [43.76078700000005, -12.365256999999929], [43.76044700000017, -12.36496399999993], [43.76022300000011, -12.36469099999988], [43.76007700000014, -12.364614999999901], [43.75983400000007, -12.36445399999991], [43.75980499999997, -12.364218999999935], [43.75930899999997, -12.363971999999933], [43.75922200000008, -12.363970999999935], [43.7590570000001, -12.364195999999879], [43.758824000000175, -12.364194999999881], [43.758814000000086, -12.363611999999875], [43.75870600000019, -12.363075999999921], [43.75865700000003, -12.362905999999896], [43.758395000000064, -12.362603999999976], [43.7580650000001, -12.362865999999883], [43.75794900000011, -12.363062999999954], [43.757813, -12.363042999999948], [43.75782200000003, -12.362723999999957], [43.757764000000066, -12.362723999999957], [43.75762800000018, -12.362797999999941], [43.75730800000014, -12.36295599999994], [43.75715200000002, -12.362945999999909], [43.75713200000018, -12.362682999999947], [43.75694800000002, -12.362672999999972], [43.75686000000002, -12.362352999999871], [43.756636000000185, -12.362125999999932], [43.756190000000004, -12.362066999999968], [43.75614100000007, -12.361963999999944], [43.75599500000004, -12.3618689999999], [43.75578100000013, -12.361773999999969], [43.75546100000008, -12.361593999999968], [43.75495600000005, -12.361609999999871], [43.75467400000019, -12.361730999999963], [43.75442200000009, -12.3618239999999], [43.75417900000008, -12.361841999999967], [43.754092000000185, -12.361925999999926], [43.75395600000013, -12.361962999999946], [43.75386900000018, -12.362206999999898], [43.75371400000017, -12.362544999999955], [43.75343299999997, -12.36286299999989], [43.75319000000013, -12.36304999999993], [43.7529770000001, -12.363161999999932], [43.75257800000014, -12.363169999999968], [43.752355000000136, -12.363008999999977], [43.75221900000008, -12.362819999999886], [43.752150000000086, -12.36264099999994], [43.752150000000086, -12.362057999999934], [43.752023000000065, -12.36180399999995], [43.75194500000015, -12.361567999999977], [43.751944000000094, -12.360806999999966], [43.75147800000008, -12.360663999999929], [43.75120600000014, -12.36050199999994], [43.75090400000016, -12.360303999999928], [43.75054500000016, -12.360057999999981], [43.75027299999999, -12.35997199999997], [43.75017600000018, -12.359970999999973], [43.74994300000009, -12.35991399999989], [43.74973900000009, -12.359874999999931], [43.74952500000012, -12.359742999999924], [43.749389000000065, -12.359628999999927], [43.74931099999998, -12.359487999999885], [43.74929100000014, -12.359383999999977], [43.749049000000184, -12.359467999999936], [43.74874800000015, -12.359531999999888], [43.74808700000017, -12.359716999999932], [43.747719000000075, -12.359884999999963], [43.74725300000006, -12.360154999999907], [43.74700100000018, -12.360360999999898], [43.74694299999999, -12.360510999999974], [43.74688500000019, -12.360717999999963], [43.74695300000013, -12.360999999999933], [43.74708900000019, -12.361141999999973], [43.74715700000013, -12.361320999999862], [43.7472360000001, -12.36198899999988], [43.747178000000076, -12.36211999999989], [43.74668200000008, -12.362183999999957], [43.74658600000015, -12.36237099999994], [43.74644000000012, -12.362633999999957], [43.74625600000019, -12.362876999999912], [43.74616899900019, -12.362942999999973], [43.745975000000044, -12.36297999999988], [43.74566400000003, -12.363043999999945], [43.745295000000056, -12.36304199999995], [43.745070999999996, -12.362974999999949], [43.74488700000006, -12.362945999999909], [43.74467300000015, -12.362973999999952], [43.74445000000014, -12.363009999999974], [43.74430400000017, -12.363037999999904], [43.74411000000009, -12.363186999999982], [43.74390599900016, -12.36335599999984], [43.74380000000019, -12.36351499999995], [43.74375100000003, -12.363655999999878], [43.743693000000064, -12.363767999999823], [43.74370300000015, -12.363871999999901], [43.74383900000004, -12.363994999999932], [43.74405300000018, -12.364098999999953], [43.74413100000004, -12.3641649999999], [43.744219000000044, -12.36434399999996], [43.74431599900015, -12.36453299999988], [43.74443299900008, -12.364692999999875], [43.74454000000014, -12.364796999999953], [43.74474400000014, -12.364947999999913], [43.74491900000004, -12.365033999999923], [43.74497700000006, -12.365184999999826], [43.745025999999996, -12.36565499999989], [43.74516200000011, -12.36592799999994], [43.745347000000095, -12.366220999999939], [43.745474000000115, -12.366399999999885], [43.74560000000008, -12.366522999999972], [43.74567800000017, -12.36656999999991], [43.74580400000008, -12.366635999999971], [43.74589200000008, -12.366636999999969], [43.746057000000064, -12.366590999999971], [43.74616300000014, -12.366505999999958], [43.74626000000018, -12.366318999999862], [43.74635699999999, -12.366187999999966], [43.74655100000007, -12.3659439999999], [43.74671600000005, -12.365775999999869], [43.746939000000054, -12.365663999999924], [43.747017000000085, -12.365673999999956], [43.74706599900014, -12.365889999999979], [43.74717300000003, -12.366031999999905], [43.747376999000096, -12.36620199999993], [43.74766800000015, -12.366221999999937], [43.74779500000017, -12.366410999999914], [43.74779500000017, -12.366654999999867], [43.74804800000015, -12.36690099999987], [43.7482710000001, -12.366910999999902], [43.74831000000012, -12.366985999999883], [43.74814600000008, -12.367558999999972], [43.74821400000019, -12.36769099999998], [43.74838900000009, -12.367832999999962], [43.74840900000015, -12.36818999999997], [43.74845800000014, -12.368256999999971], [43.74847700000009, -12.36849199999989], [43.74837100000019, -12.368650999999886], [43.748273999000105, -12.368809999999826], [43.74813799900005, -12.368950999999925], [43.748059999000134, -12.369006999999954], [43.74806100000012, -12.369702999999902], [43.74772200000018, -12.369963999999982], [43.74752699999999, -12.37001999999984], [43.747421000000145, -12.369943999999862], [43.747275000000116, -12.369708999999943], [43.74709000000007, -12.36946299999994], [43.7469440000001, -12.369339999999966], [43.74679800000007, -12.369226999999967], [43.74664300000006, -12.36901899999998], [43.74660300000011, -12.368849999999952], [43.74654500000014, -12.368604999999889], [43.746438000000126, -12.368425999999943], [43.74627200000009, -12.368236999999908], [43.74617500000005, -12.368057999999962], [43.746087000000045, -12.367803999999978], [43.74605800000012, -12.36752099999984], [43.74588300000005, -12.367463999999927], [43.745747000000165, -12.36743499999983], [43.745553000000086, -12.367340999999954], [43.745426000000066, -12.367339999999956], [43.74522300000018, -12.3674519999999], [43.74508700000007, -12.36757299999988], [43.74498000000011, -12.367760999999973], [43.74494199999998, -12.36789199999987], [43.74487400000004, -12.36823099999998], [43.744777, -12.368558999999948], [43.74470000000002, -12.368981999999846], [43.74473000000006, -12.36916999999994], [43.74475900000016, -12.369564999999852], [43.74459400000018, -12.36973399999988], [43.744342000000074, -12.369892999999877], [43.74425500000018, -12.370164999999929], [43.74431400000009, -12.370559999999955], [43.74439200000012, -12.370747999999935], [43.744343000000185, -12.370954999999924], [43.74424700000003, -12.371170999999947], [43.74415899900015, -12.37132099999991], [43.74405300000018, -12.371348999999952], [43.74387800000005, -12.371215999999947], [43.74383900000004, -12.371065999999871], [43.74367300000017, -12.370998999999927], [43.74351800000011, -12.370828999999901], [43.74348800000013, -12.370405999999889], [43.74335200000007, -12.37025499999993], [43.743099000000086, -12.36996199999993], [43.743099000000086, -12.3699059999999], [43.74320600000004, -12.369736999999873], [43.74334099900011, -12.369501999999954], [43.74334099900011, -12.36921099999995], [43.74317600000006, -12.368974999999978], [43.7429810000001, -12.368785999999943], [43.74278700000002, -12.368671999999947], [43.74256300000013, -12.368605999999886], [43.74244700000014, -12.368519999999876], [43.74224200000009, -12.368312999999887], [43.74222300000008, -12.368161999999927], [43.742281000000105, -12.36809599999998], [43.742281000000105, -12.368030999999917], [43.74212500000016, -12.367803999999978], [43.742105000000095, -12.36754099999996], [43.741843000000074, -12.367257999999936], [43.74151200000006, -12.366926999999976], [43.741328000000124, -12.366878999999926], [43.74116300000014, -12.36681299999998], [43.74102599999998, -12.366632999999979], [43.74087100000014, -12.366425999999933], [43.74072500000011, -12.366151999999886], [43.740462000000036, -12.365868999999918], [43.74024800000012, -12.36564199999998], [43.73992799900003, -12.365461999999923], [43.73948100000007, -12.365290999999957], [43.73918900000007, -12.3651109999999], [43.73898500000007, -12.364940999999874], [43.738732000000084, -12.364788999999917], [43.73840200000012, -12.364570999999899], [43.738149000000135, -12.364475999999968], [43.73786700000011, -12.364352999999824], [43.73769199999998, -12.364238999999884], [43.7376440000001, -12.363993999999934], [43.73743900000005, -12.363748999999927], [43.737235000000055, -12.363719999999944], [43.73683700000015, -12.363614999999868], [43.735953000000166, -12.363280999999915], [43.735535000000084, -12.363025999999877], [43.73520500000012, -12.362891999999817], [43.73470900000012, -12.36276799999996], [43.733932000000095, -12.362754999999936], [43.73382600000008, -12.362791999999956], [43.733496000000116, -12.363043999999945], [43.73326300000019, -12.363249999999937], [43.73321500000014, -12.363475999999821], [43.73305000000016, -12.36356899999987], [43.732748000000015, -12.363284999999905], [43.73261200000013, -12.36318099999994], [43.7325340000001, -12.363058999999964], [43.73214599900007, -12.363084999999955], [43.73183499900006, -12.363120999999921], [43.731000000000165, -12.363389999999981], [43.73050500000005, -12.363584999999944], [43.73001000000016, -12.363629999999944], [43.729282000000126, -12.363532999999904], [43.72908700000016, -12.363371999999913], [43.72896100000003, -12.363220999999953], [43.72862000000009, -12.362899999999968], [43.727979000000175, -12.362652999999852], [43.72738600000014, -12.362329999999929], [43.72693900000007, -12.362148999999874], [43.726735000000076, -12.36211999999989], [43.72649300000012, -12.36214699999988], [43.72619200000008, -12.362229999999954], [43.725924999000085, -12.362292999999909], [43.72532000000007, -12.362368999999887], [43.72494000000006, -12.362409999999898], [43.72472400000015, -12.362540999999908], [43.72453400000006, -12.36273199999988], [43.72444399900013, -12.362906999999893], [43.724336000000164, -12.363054999999974], [43.72425500000003, -12.36330799999996], [43.724120000000084, -12.363403999999889], [43.72392100000013, -12.363480999999979], [43.72378600000013, -12.363480999999979], [43.723604998999974, -12.363427999999942], [43.72319799999997, -12.363425999999947], [43.72313500000013, -12.363468999999952], [43.722973000000025, -12.363572999999917], [43.72281900000007, -12.363677999999936], [43.72276500000004, -12.363834999999938], [43.72265699999997, -12.364034999999888], [43.722585000000095, -12.364191999999889], [43.72261300000008, -12.364436999999953], [43.722577000000115, -12.364611999999909], [43.72249600000015, -12.36470799999995], [43.72236900000013, -12.364794999999958], [43.722189000000185, -12.364845999999943], [43.72202600000003, -12.364871999999934], [43.72191800000013, -12.364827999999932], [43.72181800000004, -12.364835999999968], [43.721837000000164, -12.365010999999981], [43.72180100000003, -12.36536899999993], [43.721792000000164, -12.365683999999817], [43.72175600000003, -12.365884999999935], [43.72172100000017, -12.366129999999941], [43.72175700000014, -12.366278999999906], [43.721838000000105, -12.366505999999958], [43.72186600000009, -12.366733999999894], [43.72198300000019, -12.366847999999948], [43.72227300000003, -12.367207999999948], [43.72254400000003, -12.36746299999993], [43.72274299999998, -12.367498999999953], [43.72274299999998, -12.367751999999939], [43.72231100000016, -12.368606999999884], [43.72214900000006, -12.368912999999907], [43.722095000000195, -12.369261999999935], [43.72190600000005, -12.369575999999938], [43.72181600000005, -12.369802999999933], [43.721572000000094, -12.370326999999918], [43.72145499999999, -12.37032599999992], [43.721012000000144, -12.370201999999892], [43.72053399999999, -12.370303999999976], [43.719910000000084, -12.370301999999981], [43.71959400000003, -12.370229999999879], [43.719115000000045, -12.37004399999995], [43.71856400000007, -12.369822999999883], [43.71808500000009, -12.369645999999875], [43.717489000000114, -12.369415999999944], [43.71677500000004, -12.369141999999954], [43.71638600000017, -12.369016999999872], [43.715898000000095, -12.368804999999952], [43.71559100000013, -12.368645999999842], [43.71541000000008, -12.368496999999934], [43.71524700000009, -12.368277999999862], [43.715039000000104, -12.367943999999909], [43.71484000000015, -12.36764599999998], [43.71469500000006, -12.367312999999967], [43.7145690000001, -12.36718099999996], [43.71442100000013, -12.366998999999907], [43.71426100000019, -12.366733999999894], [43.714106999000194, -12.3666189999999], [43.71391800000009, -12.366548999999964], [43.713800000000106, -12.366809999999873], [43.71362900000014, -12.366984999999886], [43.71347500000019, -12.366957999999954], [43.713538000000085, -12.366712999999947], [43.71352000000019, -12.36638899999997], [43.71335700000003, -12.366125999999952], [43.71335700000003, -12.365828999999906], [43.71357300000011, -12.365864999999872], [43.71381700000006, -12.365961999999968], [43.713881000000015, -12.365953999999931], [43.71404300000012, -12.36574499999989], [43.714106000000186, -12.365560999999957], [43.71411500000005, -12.365377999999964], [43.71399700000006, -12.365009999999927], [43.71381600000018, -12.364623999999935], [43.713635000000124, -12.364308999999821], [43.71362600000009, -12.364203999999916], [43.7137340000001, -12.364107999999874], [43.714013000000136, -12.363776999999857], [43.7142750000001, -12.363524999999981], [43.714401000000066, -12.363358999999889], [43.7144100000001, -12.36329799999993], [43.714247000000114, -12.362999999999943], [43.71412900000013, -12.362613999999894], [43.71412900000013, -12.36216799999994], [43.71407500000009, -12.362141999999949], [43.7140730000001, -12.361301999999966], [43.71412800000002, -12.361267999999939], [43.71413500000011, -12.360025999999891], [43.7140260000001, -12.359806999999932], [43.713736999000105, -12.359621999999888], [43.71360200000004, -12.35960399999982], [43.71338500000019, -12.359654999999862], [43.71267200000017, -12.359773999999959], [43.712446000000114, -12.359772999999961], [43.71188600000016, -12.359665999999947], [43.71138000000002, -12.359645999999827], [43.71108200000009, -12.359679999999969], [43.71075700000017, -12.359756999999945], [43.71045900000007, -12.35985999999997], [43.71030600000017, -12.359981999999832], [43.71027000000004, -12.360199999999907], [43.71014300000019, -12.360199999999907], [43.71009800000019, -12.360076999999876], [43.71001700000005, -12.359997999999905], [43.70979000000011, -12.359786999999926], [43.709601000000134, -12.359698999999864], [43.70922100000013, -12.35945199999992], [43.70876900000019, -12.35918799999996], [43.70837100000011, -12.358984999999848], [43.70794700000005, -12.358702999999878], [43.70767500000011, -12.358578999999907], [43.70726000000002, -12.35841999999991], [43.706953000000055, -12.358409999999878], [43.706474000000185, -12.358398999999963], [43.70600400000001, -12.358352999999966], [43.70590500000003, -12.358404999999891], [43.70539900000006, -12.358454999999935], [43.70501999900006, -12.35854999999998], [43.704902999000126, -12.358784999999898], [43.70490400000017, -12.359265999999934], [43.70482300000003, -12.359763999999927], [43.70472400000017, -12.360078999999928], [43.704580000000135, -12.360462999999925], [43.70443600000016, -12.360610999999892], [43.70427300000017, -12.36071499999997], [43.70413100000013, -12.360857999999837], [43.7040750000001, -12.361002999999926], [43.7040750000001, -12.361561999999822], [43.70392200000009, -12.361561999999822], [43.703786000000036, -12.361184999999978], [43.70364100000012, -12.360912999999925], [43.70345100000003, -12.36064099999993], [43.703315000000146, -12.360474999999951], [43.70317100000011, -12.36035099999998], [43.702971999000056, -12.36025399999994], [43.70271000000014, -12.360156999999901], [43.70237600000007, -12.360015999999973], [43.702141000000154, -12.359917999999936], [43.70192400000013, -12.359794999999963], [43.70162500000009, -12.359591999999964], [43.701417000000106, -12.359415999999896], [43.70126400000004, -12.359266999999932], [43.70111899900007, -12.359091999999976], [43.7010370000001, -12.358941999999843], [43.700938000000065, -12.358731999999975], [43.70082900000011, -12.358267999999953], [43.70076500000016, -12.35809299999994], [43.70082800000006, -12.357865999999888], [43.70082800000006, -12.357637999999952], [43.700756000000126, -12.357585999999912], [43.70030400000002, -12.357583999999918], [43.699987999000086, -12.357660999999894], [43.6997349990001, -12.357755999999938], [43.69941899999998, -12.357850999999812], [43.6984260000001, -12.357845999999938], [43.69823600000018, -12.358010999999976], [43.698037999000064, -12.358167999999921], [43.69783899999999, -12.358332999999902], [43.69755099900004, -12.358514999999954], [43.69732500000009, -12.358601999999962], [43.69675600000011, -12.35867799999994], [43.696684000000175, -12.35872999999998], [43.69655800000004, -12.358930999999927], [43.69644000000005, -12.359139999999968], [43.69642400000015, -12.36017199999992], [43.69632500000017, -12.360371999999927], [43.69617099999999, -12.36048499999987], [43.69603600000005, -12.360493999999903], [43.69581900000003, -12.360413999999935], [43.695728000000145, -12.360351999999978], [43.69556600000004, -12.360097999999937], [43.69543900000019, -12.359843999999953], [43.695339000000104, -12.359632999999974], [43.69526700000017, -12.35939699999983], [43.69515800000005, -12.359159999999918], [43.69504000000006, -12.35896699999995], [43.694850000000145, -12.358747999999935], [43.69470600000011, -12.358580999999901], [43.69455200000016, -12.358439999999973], [43.694398000000035, -12.358316999999886], [43.694181000000015, -12.358175999999958], [43.694073000000174, -12.35815799999989], [43.693928000000085, -12.358218999999963], [43.6936300000001, -12.358304999999973], [43.693360000000155, -12.358364999999878], [43.693035000000066, -12.358476999999937], [43.69275499999998, -12.358580999999901], [43.69256500000006, -12.35868499999998], [43.69241200000005, -12.358779999999854], [43.69227600000016, -12.358901999999887], [43.69220400000006, -12.359032999999897], [43.69214100000016, -12.359163999999907], [43.69216000000017, -12.3596619999999], [43.69222300000001, -12.359679999999969], [43.69233200000019, -12.359968999999978], [43.6924580000001, -12.359986999999876], [43.692657000000054, -12.360162999999886], [43.69283800000011, -12.360390999999936], [43.693001000000095, -12.360417999999925], [43.69301000000013, -12.360610999999892], [43.69288399999999, -12.360740999999905], [43.69273000000004, -12.360862999999881], [43.69258600000006, -12.360923999999955], [43.69236900000004, -12.36100099999993], [43.69218900000004, -12.361017999999945], [43.69200799999999, -12.36108699999994], [43.691212999000015, -12.361083999999948], [43.69092500000011, -12.361195999999893], [43.69078900000005, -12.361212999999964], [43.6906350000001, -12.361202999999932], [43.69051800000017, -12.361158999999873], [43.69035499900008, -12.36105299999997], [43.69023799900003, -12.360973999999942], [43.690147000000024, -12.360938999999973], [43.68999400000018, -12.36087699999996], [43.68984000000006, -12.360858999999891], [43.68974999900013, -12.360857999999837], [43.689606000000026, -12.360926999999947], [43.689524000000176, -12.361005999999975], [43.68941600000011, -12.36104899999998], [43.68924400000009, -12.36106599999988], [43.68908200000004, -12.360994999999889], [43.68895500000019, -12.360915999999918], [43.68895500000019, -12.3605399999999], [43.689125999, -12.36013799999995], [43.689135000000135, -12.35997199999997], [43.689098000000115, -12.359822999999892], [43.688908000000026, -12.359681999999964], [43.68876400000016, -12.35967299999993], [43.68848400000013, -12.359732999999835], [43.68824899900011, -12.359862999999905], [43.68800599999997, -12.359940999999878], [43.687735000000146, -12.36006199999997], [43.68748200000016, -12.360138999999947], [43.68717500000014, -12.360286999999914], [43.68690400000014, -12.360416999999927], [43.686670000000106, -12.36059899999998], [43.68648900000005, -12.360702999999887], [43.68620099900011, -12.360963999999967], [43.68596600000012, -12.36115599999988], [43.685822000000144, -12.361364999999864], [43.68572300000011, -12.361512999999945], [43.68565100000018, -12.36171399999995], [43.68565100000018, -12.361940999999888], [43.68582300000003, -12.362098999999944], [43.68595800000003, -12.362300999999945], [43.68602200000015, -12.362467999999978], [43.68609400000008, -12.362651999999855], [43.686374000000114, -12.362766999999963], [43.68647399900016, -12.362827999999922], [43.68661800000007, -12.36295999999993], [43.686717999999985, -12.36307399999987], [43.686827000000164, -12.363284999999905], [43.68687200000011, -12.363476999999818], [43.68693600000012, -12.363730999999973], [43.68704400000013, -12.36397599999998], [43.68716200000017, -12.36416099999991], [43.68718000000001, -12.364273999999966], [43.68711699900007, -12.364404999999863], [43.68692700000008, -12.364430999999968], [43.68678300000005, -12.364464999999939], [43.68674699899998, -12.36485799999997], [43.68665700000008, -12.364927999999964], [43.68661200000014, -12.364848999999936], [43.686625000000106, -12.364415999999949], [43.68658899999997, -12.364328999999941], [43.68648000000019, -12.364327999999887], [43.686372000000176, -12.36438899999996], [43.68621900000011, -12.364579999999933], [43.68609200000009, -12.36460599999998], [43.68600200000009, -12.36460599999998], [43.685848000000135, -12.364473999999973], [43.685848000000135, -12.364342999999963], [43.68600100000003, -12.364124999999945], [43.68610000000001, -12.363941999999895], [43.68614500000018, -12.363766999999939], [43.68616300000008, -12.363617999999917], [43.68616300000008, -12.36346999999995], [43.68606399900017, -12.363337999999942], [43.68587400000018, -12.363257999999973], [43.685765, -12.363204999999937], [43.685639000000094, -12.36309099999994], [43.68545800000004, -12.363063999999838], [43.68519600000019, -12.362957999999935], [43.68502400000017, -12.362947999999903], [43.684753000000114, -12.362972999999954], [43.68447400000014, -12.363059999999962], [43.6836790000001, -12.363055999999972], [43.68355200000008, -12.363037999999904], [43.68355200000008, -12.362827999999922], [43.68368700000002, -12.362513999999976], [43.68373200000019, -12.362321999999892], [43.683696000000054, -12.36210299999982], [43.683551000000136, -12.36187499999994], [43.68346000000008, -12.36179599999997], [43.683225000000164, -12.36170699999991], [43.68282800000003, -12.361599999999953], [43.68250300000011, -12.36151999999987], [43.68226800000002, -12.361518999999817], [43.68191600000006, -12.361578999999892], [43.68156400000004, -12.36167299999994], [43.68141900000012, -12.361750999999913], [43.68133800000004, -12.36182999999994], [43.68131100000011, -12.362012999999934], [43.68125700000007, -12.362187999999833], [43.681149000000175, -12.362265999999977], [43.68100400000009, -12.362308999999982], [43.68089599900014, -12.362299999999948], [43.680634000000055, -12.362228999999957], [43.6804350000001, -12.362148999999874], [43.6803000000001, -12.362130999999977], [43.68011900000005, -12.362181999999962], [43.67971300000005, -12.362250999999958], [43.67934300000013, -12.362353999999982], [43.67892699900011, -12.362465999999927], [43.67849400000006, -12.362585999999965], [43.678169000000025, -12.36269799999991], [43.67788000000007, -12.36278399999992], [43.67772600000012, -12.362861999999893], [43.677582000000086, -12.36293999999998], [43.67749200000014, -12.363061999999957], [43.67744700000014, -12.363166999999919], [43.67746500000004, -12.36342099999996], [43.67752800000005, -12.363429999999937], [43.67752900000016, -12.363910999999916], [43.67739400000016, -12.364049999999963], [43.677186000000006, -12.364162999999905], [43.67699400000015, -12.364222999999981], [43.676906000000145, -12.364222999999981], [43.676536000000056, -12.3639849999999], [43.67625499899998, -12.36385299999995], [43.676102000000014, -12.36383399999994], [43.67592100000019, -12.363859999999875], [43.67574100000019, -12.363963999999953], [43.675569000000166, -12.363980999999967], [43.67541599900005, -12.363961999999958], [43.67520800000017, -12.36376899999982], [43.67511700000006, -12.363628999999946], [43.674963000000105, -12.363347999999974], [43.67480000000012, -12.363040999999953], [43.67463900000013, -12.362745999999902], [43.67445700000019, -12.362575999999876], [43.67433000000017, -12.362435999999946], [43.67414000000008, -12.362416999999937], [43.673869000000025, -12.3623639999999], [43.673652000000175, -12.362152999999978], [43.67349800000005, -12.361897999999883], [43.673480000000154, -12.361749999999915], [43.67352499900005, -12.361478999999974], [43.67349800000005, -12.361364999999864], [43.67345200000017, -12.361250999999925], [43.67327099900018, -12.361092999999926], [43.67312700000008, -12.360960999999918], [43.67297300000013, -12.360793999999942], [43.672909000000175, -12.360513999999966], [43.67282800000004, -12.360005999999942], [43.67283600000019, -12.35945599999991], [43.672854000000086, -12.359280999999896], [43.67294400000003, -12.359140999999966], [43.67327800000015, -12.35914299999996], [43.67340400000012, -12.359099999999955], [43.67366600000008, -12.3589869999999], [43.67384700000014, -12.358899999999835], [43.67394600000017, -12.358821999999861], [43.673910000000035, -12.358734999999967], [43.67366600000008, -12.358610999999883], [43.67340400000012, -12.358504999999923], [43.67329500000011, -12.358521999999823], [43.673205000000166, -12.358573999999862], [43.67302400000011, -12.358581999999899], [43.672816000000125, -12.358379999999954], [43.67262600000004, -12.358168999999918], [43.672509000000105, -12.358010999999976], [43.672464000000105, -12.3579059999999], [43.67247199900015, -12.357704999999896], [43.67265300000014, -12.3573209999999], [43.67265200000003, -12.357189999999832], [43.67252600000012, -12.35704899999996], [43.672516000000144, -12.356873999999891], [43.672733000000164, -12.356857999999875], [43.67278700000003, -12.356805999999949], [43.672850000000096, -12.356665999999905], [43.67287700000003, -12.356490999999892], [43.67283200000003, -12.356306999999958], [43.672741000000144, -12.356044999999938], [43.67260500000009, -12.355824999999868], [43.67245199900009, -12.355684999999937], [43.67222600000014, -12.35557899999992], [43.67194600000005, -12.355471999999963], [43.67164800000012, -12.355409999999893], [43.67131300000011, -12.355355999999972], [43.671096999999975, -12.355371999999932], [43.67088899999999, -12.355467999999973], [43.670735999000044, -12.355571999999881], [43.67069100000015, -12.355693999999971], [43.67072700000011, -12.355816999999831], [43.670754000000045, -12.35598299999998], [43.67068200000011, -12.356209999999919], [43.670493000000135, -12.356400999999835], [43.67029400000018, -12.356539999999939], [43.67004200000008, -12.35680199999996], [43.669798000000185, -12.357036999999877], [43.669555000000116, -12.357332999999926], [43.669230000000084, -12.357663999999886], [43.66882400000003, -12.357958999999937], [43.66854400000017, -12.358176999999955], [43.668210000000045, -12.358314999999834], [43.667858000000024, -12.35844399999985], [43.66759599900013, -12.358547999999928], [43.66703600000005, -12.358623999999907], [43.666630000000055, -12.358735999999851], [43.66618800000009, -12.358899999999835], [43.665610000000015, -12.359089999999924], [43.6651490000001, -12.359236999999894], [43.664724999999976, -12.359365999999909], [43.664490000000114, -12.359477999999967], [43.664202000000046, -12.35966899999994], [43.663877000000184, -12.359894999999824], [43.66363300000006, -12.360007999999937], [43.663290000000075, -12.359997999999905], [43.662982, -12.359750999999903], [43.662802000000056, -12.359592999999961], [43.66266600000017, -12.359591999999964], [43.66244000000012, -12.359660999999903], [43.66220600000014, -12.359755999999948], [43.662060999999994, -12.359816999999964], [43.66182700000019, -12.359972999999968], [43.661502000000155, -12.36019899999991], [43.66142900000011, -12.360207999999943], [43.66114900000008, -12.36006599999996], [43.66099200000019, -12.360038999999915], [43.66082400000016, -12.360029999999881], [43.660653000000025, -12.36008199999992], [43.66017400000004, -12.36009699999994], [43.66017400000004, -12.35980799999993], [43.66023700000011, -12.359615999999903], [43.66008300000016, -12.359536999999932], [43.65987500000017, -12.359666999999945], [43.65965899900016, -12.359761999999932], [43.65935200000007, -12.359917999999936], [43.65926999999999, -12.359908999999902], [43.65913500000005, -12.359829999999931], [43.658954000000165, -12.359636999999964], [43.65881800000011, -12.359504999999956], [43.65848400000016, -12.359292999999923], [43.65847400000007, -12.358811999999944], [43.65819400000015, -12.358635999999933], [43.65830200000005, -12.358531999999911], [43.65918700000009, -12.359446999999875], [43.66278400000016, -12.359042999999929], [43.66489300000006, -12.358001999999942], [43.67252100000002, -12.351946999999882], [43.67424400000016, -12.348030999999878], [43.713139000000126, -12.324550999999929], [43.71299900000008, -12.323978999999952], [43.71047900000008, -12.32318499999991], [43.70986000000005, -12.321616999999947], [43.71019000000018, -12.320007999999916], [43.711091000000124, -12.317987999999957], [43.711659000000054, -12.316241999999932], [43.71256100000005, -12.315830999999946], [43.71341699999999, -12.315788999999825], [43.71484400000014, -12.317037999999968], [43.71574800000013, -12.317594999999926]]], [[[43.674697940000044, -12.394481016999862], [43.67493331200018, -12.394565143999898], [43.67509961400003, -12.394661284999927], [43.67508041800005, -12.394857961999946], [43.675078948000134, -12.39487302599997], [43.67514279400007, -12.395133329999908], [43.67506971100016, -12.395353220999823], [43.67520019600005, -12.395558986999959], [43.67521739900013, -12.395674464999843], [43.67526904900012, -12.395795379999981], [43.67538882700012, -12.395837740999923], [43.6753383460001, -12.39598556899989], [43.67524733600004, -12.39610221199996], [43.675180606000026, -12.396254097999929], [43.67512633300004, -12.396407822999947], [43.67505430700015, -12.396578235999925], [43.67488343500003, -12.396642628999928], [43.67473290100003, -12.396614481999904], [43.67464948500003, -12.396753492999949], [43.6745470570001, -12.39685331499993], [43.67437337000018, -12.397037231999889], [43.674267844000155, -12.397271118999981], [43.67408438899997, -12.397566035999944], [43.67384722200018, -12.397810409999977], [43.67359137800014, -12.397985957999936], [43.67350978300004, -12.398181543999954], [43.67344717800012, -12.398418282999955], [43.67332064600015, -12.398658644999841], [43.673128445000145, -12.398873659999936], [43.672920173000136, -12.399074663999954], [43.67263515900015, -12.399276333999978], [43.67247653600009, -12.39957444199996], [43.672330256000066, -12.39988720599996], [43.67228959900018, -12.400200309999946], [43.67227618000004, -12.400428368999883], [43.67229402400011, -12.400743109999894], [43.67227973600018, -12.40102865199998], [43.67221916000011, -12.401307022999958], [43.67232602700017, -12.401453744999912], [43.67227917500003, -12.401659874999893], [43.67215646200009, -12.401814971999954], [43.6720945780001, -12.402035797999929], [43.67217023600017, -12.402157696999893], [43.67213699600006, -12.40239265599996], [43.67222572000014, -12.402588550999951], [43.672238380000124, -12.402846814999975], [43.67223659100006, -12.403061969999953], [43.67220370300015, -12.40333600799994], [43.67214139099997, -12.403666098999906], [43.672112604000176, -12.403877537999904], [43.67200813700015, -12.404134541999952], [43.67196597600014, -12.404316608999977], [43.67200099900009, -12.404466991999925], [43.67195901300016, -12.404579096999953], [43.671843385000045, -12.40476380299998], [43.671696574000066, -12.404909788999873], [43.671462207000104, -12.405101054999875], [43.67150926700009, -12.405190217999973], [43.67149942200007, -12.405391252999834], [43.67138197300005, -12.405493455999931], [43.67134094300019, -12.40571414999988], [43.67119346600015, -12.405861245999972], [43.67104620500015, -12.405952336999974], [43.67106259400015, -12.406173574999968], [43.67104924100005, -12.406355036999912], [43.67103703600003, -12.406619908999971], [43.67099362200014, -12.406847297999946], [43.67084630500011, -12.406878678999874], [43.67072880800009, -12.406895503999863], [43.67056806900018, -12.407054682999956], [43.670568839000055, -12.407335419999924], [43.67056956900012, -12.407603951999931], [43.67037927300004, -12.40773465399991], [43.670292041000096, -12.408019083999932], [43.67027750100016, -12.408330962999969], [43.670205305000025, -12.40861306499994], [43.67036455000016, -12.40881367399993], [43.670495949999975, -12.409015772999965], [43.6704809850001, -12.409211840999944], [43.67055383600018, -12.40930951699994], [43.67074437900004, -12.409338447999914], [43.67088930700015, -12.409560914999929], [43.67104985999998, -12.409801596999955], [43.6712235710001, -12.410020561999886], [43.671398056000044, -12.410192024999958], [43.67154243100015, -12.41036606299997], [43.67168732100009, -12.41052362399995], [43.671891920000064, -12.410691846999896], [43.67200941300007, -12.410874575999912], [43.67223002700001, -12.411027658999899], [43.672396105000075, -12.411105476999921], [43.672541489000025, -12.41127767199987], [43.67253662500019, -12.4114541429999], [43.67252896999997, -12.411746157999914], [43.672522518000164, -12.411907896999878], [43.67264094100011, -12.412047415999893], [43.67272318000005, -12.412319535999927], [43.67277863200002, -12.412546978999842], [43.672765454, -12.412842992999913], [43.67276578500014, -12.412885248999942], [43.67272395300006, -12.413238118999914], [43.67259267200012, -12.413521045999971], [43.67249021600014, -12.413733106999928], [43.67238899400013, -12.413959139999974], [43.67222319299998, -12.414099455999974], [43.672120097000175, -12.414239731999942], [43.67207925200006, -12.414395165999906], [43.672129986000186, -12.414561325999955], [43.672044944000106, -12.41476911199993], [43.67196112300019, -12.414974105999931], [43.671843971000044, -12.415047361999939], [43.67190824900007, -12.415217665999933], [43.67188569500013, -12.415445551999937], [43.67179962500012, -12.41557039099996], [43.671799929000144, -12.415584042999967], [43.67187888300009, -12.415787824999938], [43.6717777930001, -12.415999686999953], [43.67186735000013, -12.41625660699998], [43.67207562100003, -12.416484422999929], [43.672221360000094, -12.416745709999873], [43.67239499200008, -12.417021957999907], [43.672394900000086, -12.417036405999966], [43.672601333000046, -12.41725177199993], [43.67275775700017, -12.417455944999915], [43.67298463500015, -12.41767436299989], [43.673134602000175, -12.417892207999955], [43.67334671400016, -12.418021996999869], [43.67344583800019, -12.418150432999937], [43.673497834000045, -12.418349981999938], [43.673457063000114, -12.418563201999973], [43.67330783700004, -12.418577545999938], [43.67317347300013, -12.418648149999967], [43.673256963000085, -12.418816979999917], [43.67334558900012, -12.41897184499993], [43.67348450300011, -12.419156037999926], [43.6735004520001, -12.419170360999942], [43.67364468000011, -12.4192998769999], [43.67366067200004, -12.419342690999883], [43.6736767700001, -12.419499111999869], [43.673709135000195, -12.419712982999897], [43.673839331000124, -12.419873783999947], [43.67376135799998, -12.420085789999916], [43.673599272000104, -12.420284401999936], [43.67342007500008, -12.420467065999958], [43.67309377999999, -12.420605112999908], [43.67298056500016, -12.42073504599989], [43.67287912500012, -12.420863161999932], [43.672759138, -12.420888329999968], [43.672584960000165, -12.42097350999984], [43.67248885900011, -12.42119263099994], [43.672637769000005, -12.421267389999969], [43.672742417000165, -12.421298628999978], [43.67289549200012, -12.421377267999958], [43.672749254999985, -12.42154899399992], [43.67258918599998, -12.42169322999996], [43.67236988700006, -12.421822540999926], [43.67215185800006, -12.422025921999875], [43.67194748200018, -12.422185378999927], [43.671786834000045, -12.422273134999898], [43.67171241000011, -12.422084207999887], [43.67159345800002, -12.421908180999878], [43.671540969000034, -12.421777787999929], [43.67154042300018, -12.421619198999963], [43.67156892800011, -12.421503128999973], [43.671611497000185, -12.421386066999958], [43.671740073000194, -12.421309020999956], [43.67183880900018, -12.421188987999813], [43.671721791000095, -12.421060113999886], [43.67162146200002, -12.420920728999931], [43.67162027600011, -12.420690806999971], [43.67168899800015, -12.420513717999881], [43.67183007700015, -12.420479287999967], [43.671926627000175, -12.420331209999972], [43.67189616100012, -12.420173823999903], [43.67183970100007, -12.420019982999975], [43.6718800860001, -12.41984706099987], [43.671934227000065, -12.419671138999888], [43.67189116200018, -12.419502381999962], [43.67172345200015, -12.419358229999943], [43.67170952500015, -12.419133003999946], [43.671623958000055, -12.418979886999978], [43.671605128000124, -12.418731539999953], [43.67156397100018, -12.418551762999925], [43.67161025700011, -12.41834417799987], [43.67165472900007, -12.418119019999892], [43.67152433300009, -12.418020031999959], [43.67145802600004, -12.417745078999872], [43.671447716000046, -12.41755130799993], [43.67140724100017, -12.417384138999921], [43.671395017000066, -12.417243947999964], [43.67135188100019, -12.417087428999821], [43.67126472300009, -12.416930744999888], [43.67123646800019, -12.41677421199995], [43.671192540000106, -12.416659658999947], [43.67134074400008, -12.416450049999924], [43.671251848, -12.416548397999975], [43.67108890600019, -12.416558342999906], [43.67098518900008, -12.416368864999981], [43.670881334000114, -12.416221597999936], [43.67077763000003, -12.416102902999967], [43.67064497300015, -12.415984348999928], [43.67054223299999, -12.415782349999915], [43.67056890599997, -12.415631065999946], [43.670423148, -12.415444641999954], [43.67033503599998, -12.415255854999884], [43.67021887400017, -12.415113171999963], [43.67005977200017, -12.414959393999936], [43.669943731000046, -12.414760496999918], [43.66990008100015, -12.414616573999922], [43.66976980200013, -12.414477063999925], [43.66962470700014, -12.414337488999934], [43.669537537, -12.41422482899992], [43.669318022000084, -12.414173777999963], [43.66915791000014, -12.41400245299991], [43.66901240599998, -12.413902486999973], [43.668866467999976, -12.413860117999945], [43.66864645100003, -12.413875805999908], [43.66841294000011, -12.413847319999945], [43.66822333100015, -12.413832982999907], [43.66799121100013, -12.413775155999929], [43.66778669900009, -12.413746854999886], [43.66762334800018, -12.413791028999924], [43.66748772500006, -12.413878714999896], [43.66733768100005, -12.4139949609999], [43.66717277600003, -12.414097085999913], [43.66690540400009, -12.414069922999886], [43.666801262000035, -12.413941332999912], [43.66675984300002, -12.413782500999844], [43.66682846100002, -12.413535975999935], [43.66690872900011, -12.41333436899987], [43.66696051200006, -12.413048298999911], [43.667026196000165, -12.412820567999916], [43.667045814000176, -12.412579802999971], [43.66695401800001, -12.412451952999959], [43.66694738800004, -12.412280788999908], [43.667048394000005, -12.41212429899997], [43.66718299600018, -12.412054175999913], [43.66725547100003, -12.411926361999917], [43.667250835000175, -12.411711536999974], [43.667203393000136, -12.411553351999942], [43.66718702400016, -12.411339553999937], [43.66720121100013, -12.411140658999898], [43.66721633800006, -12.410968855999897], [43.667357536000054, -12.410783593999952], [43.66745113700006, -12.410632460999977], [43.66742002100011, -12.41052215499991], [43.66731060700016, -12.410475657999882], [43.667357347999996, -12.41032966399996], [43.667419276000146, -12.41011221399998], [43.667278226000064, -12.41003866799997], [43.667230539000116, -12.409857648999889], [43.66721450600011, -12.40965941099995], [43.66732371900014, -12.409396699999945], [43.66744637700003, -12.409191765999878], [43.66744644300019, -12.409176610999964], [43.66744458900001, -12.409155056999964], [43.667437172000064, -12.409064283999896], [43.667449041000054, -12.408937462999972], [43.66753394500017, -12.408789656999886], [43.66760492500015, -12.408586837999906], [43.66756384100012, -12.408333994999964], [43.66752726000004, -12.408152504999862], [43.66732646800011, -12.408089236999956], [43.66725084500018, -12.407992476999937], [43.667289897000046, -12.407780675999902], [43.66740656200017, -12.40748539499998], [43.667445829000144, -12.407227255999942], [43.6674871780001, -12.406871896999974], [43.66758028700008, -12.406598215999963], [43.667675077000126, -12.406199417999915], [43.66782283300006, -12.405898396999874], [43.66789670900016, -12.405546943999923], [43.667921246000105, -12.405239956999935], [43.66798213900012, -12.40494430699988], [43.667982916000085, -12.404902119999974], [43.66798365500006, -12.404831663999971], [43.667972577, -12.404549716999838], [43.667884653000044, -12.404396079999913], [43.667751704000125, -12.40422737199998], [43.66768125200019, -12.404071343999874], [43.66771601600004, -12.403857899999878], [43.66759440900017, -12.403659359999892], [43.667681304000155, -12.40341849999993], [43.66757040100015, -12.403205547999903], [43.667464998000014, -12.402991430999975], [43.66741868800011, -12.40273611799995], [43.66749835300004, -12.402428979999968], [43.667263860000105, -12.402223288999892], [43.667175778000114, -12.40205291299992], [43.667079373000036, -12.401800627999933], [43.66692129400019, -12.401615394999965], [43.666907783000056, -12.401614929999937], [43.666682324000135, -12.401440862999891], [43.66646662000005, -12.401225927999974], [43.66617721600005, -12.401068004999956], [43.6658160770001, -12.400979946999882], [43.665481784000065, -12.400864708999961], [43.66522269800015, -12.400818188999892], [43.66493287200012, -12.400758155999938], [43.66465659600004, -12.400727280999945], [43.6643664450001, -12.400680201999933], [43.66420543900006, -12.400679692999972], [43.66394257700017, -12.400605803999838], [43.66376705500005, -12.40061875999993], [43.66363311000009, -12.40075208099995], [43.66345599500005, -12.400812560999952], [43.66323565000005, -12.40082918099995], [43.663030427000194, -12.400902238999947], [43.662884235000035, -12.401087460999975], [43.662723328000084, -12.401273053999887], [43.66253306700008, -12.401360947999876], [43.66232864800014, -12.401507417999937], [43.66202445500011, -12.40167452999998], [43.66202381800014, -12.401884494999933], [43.66203818200006, -12.401897958999882], [43.66209526500012, -12.402120458999946], [43.66183481300004, -12.402437945999907], [43.66174774000001, -12.402679421999892], [43.661574610000116, -12.402921660999937], [43.6613031010001, -12.403051312999935], [43.66113059300005, -12.403263316999869], [43.66109841600013, -12.403516908999904], [43.66104808800003, -12.403914164999833], [43.66085191000019, -12.404124986999932], [43.66079390000016, -12.404337140999928], [43.66080574900019, -12.404579068999965], [43.66098416200009, -12.404742607999879], [43.66104801000006, -12.404925882999976], [43.66106437500008, -12.405096038999943], [43.66106554099997, -12.40532399999995], [43.660856245000105, -12.40541090399995], [43.660601308000025, -12.405642076999982], [43.660516182000094, -12.405796494999947], [43.660466452000094, -12.406003024999904], [43.6604024240001, -12.406238500999962], [43.660332433000065, -12.406478749999906], [43.66025636600011, -12.406637563999936], [43.660194780000154, -12.406739322999897], [43.66005059700001, -12.406776086999912], [43.660055366000165, -12.406929334999973], [43.6601412710001, -12.407163922999871], [43.66004871400014, -12.407451378999951], [43.660035064000056, -12.407636083999932], [43.66013465700007, -12.407788179999898], [43.66015458300012, -12.40794351999989], [43.65994517300004, -12.40795025299991], [43.659854026000005, -12.40817910599992], [43.65985435600004, -12.408193226999856], [43.65973071700006, -12.40859285599987], [43.65977860300006, -12.408819385999948], [43.6597785730001, -12.408975712999961], [43.65977855799997, -12.409046769999975], [43.659749040000065, -12.409259942999938], [43.659749556000065, -12.409302569999966], [43.65968842100011, -12.409529792999933], [43.659519918000115, -12.409683614999892], [43.65952945100008, -12.40984019299998], [43.65953076500017, -12.409854537999934], [43.65945783900003, -12.41005254299995], [43.65935125200019, -12.410249172999954], [43.65919548500017, -12.410400748999962], [43.6591177790001, -12.41062972199984], [43.65908460400016, -12.410804121999945], [43.658981973000095, -12.410916843999871], [43.65883058900016, -12.411026192999941], [43.65869253900013, -12.411091546999955], [43.658553476000066, -12.411127096999962], [43.65840554900018, -12.411221896999962], [43.65829193899998, -12.411349007999945], [43.65826271200018, -12.411545189999913], [43.658091812000066, -12.411632544999918], [43.65795404600004, -12.411782649999907], [43.65788609000009, -12.411959420999892], [43.65775605100009, -12.4120745809999], [43.65759478700005, -12.412115157999892], [43.65742092600016, -12.41205969099991], [43.65723310800007, -12.411991722999971], [43.657131342000184, -12.411906847999887], [43.6570855440001, -12.411745277999955], [43.65698331100009, -12.411616305999928], [43.6568244610001, -12.41153412899996], [43.656664637000176, -12.411435597999969], [43.656750321000175, -12.411316804999842], [43.65680689900006, -12.411142718999827], [43.65683302700006, -12.410896080999919], [43.65676005199998, -12.41071111399998], [43.65664528000008, -12.410500967999951], [43.65654498300006, -12.410375689999967], [43.65641560300003, -12.410278885999958], [43.656386567000084, -12.41016545499997], [43.65634304300005, -12.409967101999882], [43.65625651100015, -12.409854924999934], [43.656255977000114, -12.409584775999974], [43.65616906800011, -12.409330368999974], [43.65598114000005, -12.409047708999935], [43.65587976799998, -12.408764640999948], [43.655660352000154, -12.408704617999888], [43.65566040600015, -12.408676255999922], [43.65566077500006, -12.40847789999998], [43.65566137400003, -12.408308849999912], [43.655545401000154, -12.408167420999916], [43.65535589300009, -12.408180364999964], [43.655284633000065, -12.40808320699989], [43.655182710000076, -12.408082684999954], [43.65506495800008, -12.40813744299993], [43.654943394000156, -12.40833157599991], [43.654856167000105, -12.40830337299991], [43.65475559400005, -12.408247654999911], [43.654581519000146, -12.4082198239999], [43.65446790800007, -12.408136613999943], [43.654291178000165, -12.408206259999872], [43.65404589600013, -12.408292762999906], [43.65384236199998, -12.408477501999926], [43.653542735000144, -12.408692044999896], [43.65339724100005, -12.408876225999961], [43.653198339000085, -12.40906088099996], [43.65302630400015, -12.409287345999871], [43.65302492100011, -12.40931562999998], [43.652853027000106, -12.409541892999869], [43.65265216600011, -12.409711354999956], [43.652672934000066, -12.409882304999883], [43.65270709900011, -12.410111180999934], [43.652594881000084, -12.410138603999883], [43.652495791000035, -12.410194710999974], [43.65247642200012, -12.410352067999952], [43.652467842000135, -12.4105822329999], [43.65232673500009, -12.410637515999952], [43.652362641000025, -12.410782714999982], [43.652384805999986, -12.410956747999876], [43.652281604000166, -12.41111413799996], [43.65214783800013, -12.411286507999932], [43.65200036400017, -12.41141564499992], [43.65188013300008, -12.411560186999907], [43.651786786000116, -12.411734825999872], [43.651680463000105, -12.411894438999923], [43.65157516800019, -12.412039254999911], [43.65144012500008, -12.412213072999918], [43.651234524000074, -12.41237078699993], [43.65104444800011, -12.41249928699989], [43.65095300600001, -12.412659186999974], [43.65080538300015, -12.412803100999895], [43.650643814000034, -12.412831702999938], [43.65049848100017, -12.41275890199995], [43.65037640700018, -12.412632370999972], [43.65051669600018, -12.412484287999973], [43.65058126100007, -12.412251768999909], [43.65067569600018, -12.412085490999914], [43.65055344199999, -12.411960465999812], [43.650678250000055, -12.411826087999884], [43.65078589600006, -12.411665100999869], [43.65090763799998, -12.411461827999915], [43.65099832700014, -12.41121721199994], [43.65106074900012, -12.411072004999937], [43.65113002300018, -12.41085158999988], [43.65113530000019, -12.4106210569999], [43.65118342400007, -12.410448187999918], [43.651221890000045, -12.410244819999946], [43.651195940000036, -12.410101715999929], [43.65115317800007, -12.409917324999867], [43.651153340000064, -12.409903099999951], [43.65109216500008, -12.409706077999886], [43.65103810400012, -12.409435655999971], [43.651007802000095, -12.40928030899994], [43.65096039299999, -12.409153862999915], [43.65085295400007, -12.408954793999897], [43.650763428000175, -12.408807968999895], [43.650661822000075, -12.408701674999918], [43.650813620000065, -12.408477162999816], [43.65103390300004, -12.408333239999877], [43.651201858000036, -12.408109687999968], [43.65144139300003, -12.407999677999896], [43.651663879000125, -12.407855749999896], [43.651861206000035, -12.407660562999922], [43.65203946600002, -12.407467296999926], [43.65208785600015, -12.40746504099991], [43.652297418000046, -12.407327143999964], [43.65250269300009, -12.407269493999877], [43.65269219000004, -12.40719825899987], [43.65291331300011, -12.407033331999969], [43.653255020000074, -12.406944721999935], [43.653466267000056, -12.406777667999961], [43.65375714300012, -12.406649891999962], [43.65397227000011, -12.406523510999818], [43.65414688800013, -12.406452478999881], [43.65416192100008, -12.406452254999977], [43.65444845400003, -12.40639064599992], [43.65467130100012, -12.406139893999978], [43.654993881000166, -12.406025167999871], [43.65528420900017, -12.405925957999955], [43.65532701700016, -12.405897944999936], [43.65558818900013, -12.40577047399995], [43.65564792800018, -12.40575557699998], [43.655945314000064, -12.405681413999957], [43.655975406000096, -12.40568085599989], [43.65636934100007, -12.40550978799996], [43.656588155000065, -12.405396028999974], [43.656835118000174, -12.405268570999965], [43.65700656900003, -12.405128858999888], [43.65720711600005, -12.40482740699997], [43.65746105800008, -12.40473300699989], [43.65760980200014, -12.404615403999856], [43.657662352000045, -12.404522455999881], [43.65774226100018, -12.404388742999913], [43.65784173200012, -12.404277654999873], [43.657932054000185, -12.404006868999943], [43.65786718200013, -12.403814038999883], [43.658024070000124, -12.40364632799998], [43.65819076200006, -12.403626230999976], [43.658326924000164, -12.40357864799995], [43.65841918600012, -12.403346071999977], [43.65853132799998, -12.40315075399991], [43.658673671000145, -12.402940029999968], [43.65874240500017, -12.402729379999926], [43.658919366000134, -12.402528384999925], [43.65906356000016, -12.402272743999902], [43.659226287000024, -12.402157299999942], [43.659358767000185, -12.401999715999978], [43.659535150000124, -12.401785110999981], [43.65963753600005, -12.401628159999973], [43.659644332000084, -12.401339560999872], [43.659504991000176, -12.401301112999874], [43.65936452900013, -12.401205746999892], [43.659224675000075, -12.401095287999908], [43.65916184000014, -12.400925300999972], [43.65926639200006, -12.40078108299997], [43.65940574000007, -12.400569400999927], [43.65947695400007, -12.40048429399991], [43.659505831000104, -12.40045581399994], [43.65958969800016, -12.400328436999871], [43.65958876600013, -12.40031446099988], [43.65973272900004, -12.400200831999882], [43.659761485000104, -12.400186743999882], [43.65999932300008, -12.400200199999915], [43.66028689500007, -12.400268447999963], [43.66052068800013, -12.400390923999907], [43.66053654600017, -12.400404634999973], [43.66085765600013, -12.400526012999876], [43.66110298500007, -12.400619004999953], [43.66133275700008, -12.40075410199995], [43.661443182000085, -12.400687123999887], [43.661651420000055, -12.400566137999931], [43.661780536000094, -12.400539267999932], [43.66200954900012, -12.40047142599991], [43.66224137400019, -12.400444639999932], [43.66235728300012, -12.400431320999871], [43.66254947200014, -12.400472798999942], [43.66286956400012, -12.400503308999873], [43.66328947500017, -12.400271258999965], [43.66339972200012, -12.400173433999953], [43.663618593000194, -12.400145468999938], [43.6637718070001, -12.40027261199998], [43.66391209700015, -12.400384279999969], [43.6641387790001, -12.40039592099987], [43.664344183000026, -12.400281298999971], [43.66456881800002, -12.40022201399995], [43.664816218000055, -12.400230453999939], [43.66500754500004, -12.399986946999945], [43.665263130000085, -12.399798244999886], [43.665554981000184, -12.399649555999929], [43.66578001100015, -12.399433507999902], [43.66601734000017, -12.399176043999944], [43.666226815000186, -12.398961116999885], [43.66637426800003, -12.398776106999946], [43.666563809000195, -12.398605803999885], [43.66682413700005, -12.398407616999918], [43.66700608600007, -12.398181939999915], [43.66714660100007, -12.397997857999883], [43.66732277799997, -12.397898164999958], [43.66746631200016, -12.397770293999884], [43.6677022020001, -12.397642222999934], [43.667881265999995, -12.397557067999912], [43.668063839000126, -12.39734341499991], [43.66819205100006, -12.397186270999953], [43.66833585300009, -12.397028881999972], [43.668602385999975, -12.396902013999977], [43.66886244300014, -12.396786805999966], [43.66906468600007, -12.396656822999944], [43.669284906000144, -12.396629068999971], [43.669549510000195, -12.396545572999969], [43.66973940000008, -12.396417902999872], [43.67004564600006, -12.396204562999912], [43.670322633000126, -12.396032956999932], [43.670599643000116, -12.39589131699995], [43.670789286000115, -12.395791215999907], [43.670993151000175, -12.395720873999949], [43.67118219900004, -12.395636527999898], [43.67135746700012, -12.395521814999825], [43.67156125500014, -12.395451127999934], [43.67172326800011, -12.395334453999965], [43.67197018300004, -12.395236369999907], [43.672219732000144, -12.39509173699986], [43.67246984400009, -12.394932433999884], [43.67280452700015, -12.394791282999961], [43.673022420000166, -12.394735452999953], [43.67324013500013, -12.394679666999934], [43.67332651900017, -12.394666556999937], [43.67358276700003, -12.394629607999889], [43.673756016000084, -12.394559810999965], [43.67378385000006, -12.394560937999813], [43.674020240999994, -12.39440148899996], [43.674229719000095, -12.394325607999974], [43.674445655000056, -12.394413190999956], [43.674697940000044, -12.394481016999862]]], [[[43.70517392900018, -12.391204521999839], [43.70548214500013, -12.391440927999952], [43.70571304900005, -12.391597984999976], [43.706099680000136, -12.391787129999898], [43.70633142300005, -12.391939075999971], [43.70764814900008, -12.39261478799989], [43.70823155900007, -12.39268532799997], [43.70912407499998, -12.393249952999952], [43.709313460000146, -12.393443849999926], [43.709737620000055, -12.393823268999881], [43.71000978300009, -12.394010970999943], [43.710242504000064, -12.394161669999903], [43.71055067100008, -12.394427311999948], [43.71082389800006, -12.394614550999961], [43.71105747900009, -12.394802653999932], [43.71140594800005, -12.39502942699994], [43.71187817800006, -12.395025068999928], [43.71218946000005, -12.394910756999877], [43.712461261000044, -12.394910435999975], [43.71277094900012, -12.395061992999956], [43.71320031000005, -12.395060477999948], [43.71362647400014, -12.395060531999945], [43.71401382700009, -12.39498486799988], [43.71444524900011, -12.394944790999944], [43.7147966820001, -12.395095310999977], [43.71440495700011, -12.395172711999976], [43.71397154100015, -12.395251396999925], [43.71358455000018, -12.395289092999917], [43.71351306100007, -12.395510298999852], [43.71370133800008, -12.3957052639999], [43.713171786000146, -12.396316184999932], [43.71280127400007, -12.396508647999951], [43.71244552400009, -12.396899647999874], [43.71173340300004, -12.397217354999952], [43.71130857200018, -12.397406372999967], [43.71076609200003, -12.397595767999917], [43.71002944800006, -12.397671480999975], [43.709602445000144, -12.397671554999874], [43.70909785300012, -12.39797494599992], [43.70832150700005, -12.398088810999923], [43.708282770000096, -12.398581681999872], [43.70773935800008, -12.398847157999967], [43.70750588900006, -12.399377977999961], [43.707308480000165, -12.39968098299994], [43.70718877000019, -12.40005897999987], [43.706635872000106, -12.400320205999833], [43.70687180800007, -12.400397034999969], [43.70710545100013, -12.400699592999956], [43.70737852600007, -12.401116051999963], [43.70753244700012, -12.401380021999955], [43.70776354600014, -12.401719322999952], [43.7080757010001, -12.401985357999934], [43.708238185000084, -12.402727269999957], [43.70840460200009, -12.403157121999982], [43.70836612900018, -12.403679627999963], [43.708342746000085, -12.40397878799996], [43.70810671600009, -12.404167790999963], [43.70802679100018, -12.404729861999897], [43.70794606400011, -12.404951008999888], [43.70762964700015, -12.405014125999969], [43.70767077000011, -12.405506793999962], [43.70807025700003, -12.406433696999954], [43.70818697200019, -12.406699126999968], [43.70838454900007, -12.406895151999834], [43.708376117000114, -12.407295529999942], [43.70860948100005, -12.407594107999955], [43.708649096000045, -12.407931959999928], [43.70869291800011, -12.408663536999939], [43.70836297600016, -12.408749773999887], [43.708683111000084, -12.409296702999939], [43.70880333400004, -12.40963019399993], [43.70913376700008, -12.41032407299997], [43.70917370900003, -12.41073963599996], [43.709213545000125, -12.411003894999965], [43.70888804499998, -12.411207626999953], [43.70864178100004, -12.41137231099998], [43.70840745300001, -12.411563519999902], [43.708333620000076, -12.411974712999836], [43.70821358800009, -12.412354949999951], [43.70801449600009, -12.412585928999931], [43.708017968000036, -12.412996732999943], [43.70802045100015, -12.413371202999826], [43.70810403400009, -12.41381944799997], [43.70810452800009, -12.413894573999869], [43.70818444800017, -12.414194952999935], [43.70838178300005, -12.414570757999968], [43.70853614500004, -12.414910445999908], [43.708535468000036, -12.414948314999947], [43.70873009500008, -12.415249971999913], [43.70904243600006, -12.415665002999901], [43.709584429000074, -12.416118134999977], [43.70978611400017, -12.416572410999947], [43.70933140300008, -12.416794178999965], [43.70925049700014, -12.417244581999967], [43.709336824000104, -12.41762363099997], [43.70954491000009, -12.418081684999947], [43.709549430000095, -12.41838583799995], [43.70987090600005, -12.419378071999972], [43.709405048000065, -12.42010629899994], [43.709120302000144, -12.42079702999996], [43.70888666700006, -12.421025233999956], [43.708279190000155, -12.421070926999903], [43.70753152100019, -12.421070995999912], [43.70711201100016, -12.420385370999952], [43.70659916700015, -12.420247451999956], [43.70642420600018, -12.419643937999979], [43.70637526700011, -12.418991463999873], [43.70637280000017, -12.418610343999887], [43.70625629900002, -12.418232316999934], [43.7062549150001, -12.417966614999898], [43.70625356100015, -12.41773893899989], [43.705985146000046, -12.417401691999885], [43.70594392800001, -12.417022240999927], [43.705637731000195, -12.416647643999852], [43.7054445820001, -12.416459066999948], [43.705097905000116, -12.415969372999939], [43.70474979900007, -12.415516284999853], [43.70428244000004, -12.415359926999884], [43.703810538000084, -12.415179356999943], [43.70386030100019, -12.414873937999971], [43.703666357000145, -12.414608641999962], [43.703976391000026, -12.414344645999904], [43.70443976000013, -12.414158334999854], [43.70447819100019, -12.414158731999976], [43.70467063100011, -12.413745110999855], [43.70482450000014, -12.413293841999973], [43.70505335500013, -12.41296008899991], [43.70474822700015, -12.412688241999888], [43.70451777300008, -12.412342365999962], [43.70470989000006, -12.412007960999915], [43.70490162900006, -12.41171126199987], [43.70513067900015, -12.41141757999992], [43.70528267500015, -12.411160446999872], [43.70505696300012, -12.41080227499998], [43.70524729300001, -12.41058586899993], [43.70539907600005, -12.410367965999853], [43.70532468400012, -12.41005745099983], [43.70532559000003, -12.409714749999978], [43.70534196000017, -12.409447930999931], [43.70555363600005, -12.409237572999928], [43.70532698900007, -12.408765622999965], [43.70536518400013, -12.408729852999954], [43.705706592000126, -12.408639576999917], [43.70570875400011, -12.408254902999886], [43.70552146400007, -12.407890865999889], [43.7057888330001, -12.407564387999969], [43.706016931000136, -12.407313669999894], [43.70613180000015, -12.406977522999966], [43.70594700700019, -12.40672529699998], [43.70579702400016, -12.406310572999871], [43.70590526600006, -12.406090380999956], [43.70579069400014, -12.405706559999885], [43.705982010000184, -12.40537574299998], [43.70628756600007, -12.404899694999926], [43.70628769400008, -12.404861447999963], [43.70644169500008, -12.40444782399993], [43.70644237100015, -12.403954978999934], [43.70636676800001, -12.40367393799994], [43.70640416800012, -12.403220030999933], [43.70640394499998, -12.403144383999916], [43.70636433900012, -12.402728771999875], [43.70628635100002, -12.402388894999945], [43.70620874100018, -12.40197441999993], [43.70597649200005, -12.401597075999973], [43.70578357699998, -12.401295908999828], [43.70555223600013, -12.401032429999873], [43.705206275000194, -12.400807453999903], [43.70478185999997, -12.400618174999977], [43.704422724000096, -12.400608794999926], [43.703985225000054, -12.400634386999968], [43.70342253100006, -12.400311932999955], [43.70339594700016, -12.40005657699993], [43.7030477990001, -12.399982043999898], [43.70281517800015, -12.399793904999967], [43.70263206600009, -12.399325038999905], [43.70258874600006, -12.39891795799997], [43.702444806000074, -12.398551846999965], [43.702625072000046, -12.398513230999981], [43.70246969400017, -12.398173517999851], [43.70232025500013, -12.397789322999927], [43.701930612000126, -12.397686877999888], [43.70159924100017, -12.397228595999934], [43.70125732600002, -12.396853885999974], [43.70126633100017, -12.396508175999884], [43.70138861300018, -12.396025384999916], [43.701237816, -12.395578260999969], [43.700963695000155, -12.395308911999962], [43.7006516830001, -12.394965386999957], [43.70057627800003, -12.394515454999976], [43.70053836000005, -12.394290306999892], [43.70030212300014, -12.39409513499993], [43.700382897000054, -12.393647908999924], [43.70073913800013, -12.393362744999877], [43.700975546000166, -12.393223508999824], [43.70120049000013, -12.392759663999982], [43.70139065200004, -12.392452453999965], [43.70142912800003, -12.39241463299993], [43.70149911800013, -12.39197936599993], [43.70169001000016, -12.39166939699993], [43.70207737800001, -12.391482317999817], [43.702388339000095, -12.39141428499994], [43.702776042000096, -12.391422432999946], [43.70304425800009, -12.391102910999962], [43.7033139990001, -12.390673531999937], [43.703817867000055, -12.390679185999886], [43.70443765200008, -12.390713723999909], [43.70470892700007, -12.390864192999913], [43.70517392900018, -12.391204521999839]]], [[[43.71746342500006, -12.40273724699989], [43.71830196400009, -12.403119774999936], [43.71883309800012, -12.402785990999917], [43.719055764000075, -12.403311340999949], [43.71910105000012, -12.403951437999979], [43.71936711500018, -12.404614113999912], [43.71945671900016, -12.404971881999927], [43.71972307700014, -12.40543054799997], [43.71967814200008, -12.405833320999818], [43.719767409999974, -12.406340547999946], [43.71985641200007, -12.40681163499994], [43.71985635699997, -12.406899082999871], [43.71985566900008, -12.407298128999969], [43.71998885600004, -12.407770288999927], [43.72016502700012, -12.408211115999904], [43.720297056000106, -12.408605190999936], [43.72038577600017, -12.40890582599991], [43.72056446200003, -12.409285292999982], [43.72096042400011, -12.409641245999921], [43.72145065199999, -12.409975174999943], [43.721758082000065, -12.410284480999962], [43.72224483000019, -12.410586791999947], [43.722993422000116, -12.411024279999879], [43.72365611900017, -12.411326834999954], [43.724194543000124, -12.411404288999961], [43.72490653200015, -12.41161695999989], [43.72531416100003, -12.411570616999882], [43.7259423110001, -12.41187184499995], [43.72647217500008, -12.412306261999902], [43.72649752200016, -12.412829249999902], [43.72662385400014, -12.413218990999951], [43.726577661000135, -12.413612314999966], [43.72672291900005, -12.413953681999885], [43.726727809000124, -12.414473322999982], [43.72636217800016, -12.414949690999947], [43.72623369400014, -12.415380976999927], [43.72620424700011, -12.416034707999927], [43.725754252000115, -12.416249190999906], [43.725351956000054, -12.416247963999979], [43.72486250600002, -12.416376990999936], [43.72450613300015, -12.416419234999978], [43.724332619000165, -12.416680928999938], [43.724060660000134, -12.416981433999922], [43.72424804700012, -12.41741964199997], [43.724298486000066, -12.41790105199982], [43.72443438500005, -12.418337037999834], [43.72420510000018, -12.418887198999869], [43.72497887100019, -12.419824042999949], [43.72448481300012, -12.42016653199994], [43.72363504700019, -12.420333402999972], [43.723504511000044, -12.421119124999962], [43.72333141799999, -12.42217083199995], [43.722975270000006, -12.42277915099993], [43.72287951800013, -12.419540381999923], [43.72291945600006, -12.419060918999946], [43.72273620900006, -12.418497452999873], [43.722336025000175, -12.417803067999955], [43.72198498200015, -12.417501065999943], [43.72158793600016, -12.417111716999955], [43.72123493200007, -12.416678401999889], [43.72088203800001, -12.416287446999888], [43.72123314400011, -12.416245525999955], [43.7211008590001, -12.415768603999936], [43.72114431000006, -12.41550925099989], [43.72127498900011, -12.415078137999842], [43.72127466000018, -12.41477556999996], [43.72118594800014, -12.414429586999916], [43.72109737800008, -12.413996893999979], [43.721140597000044, -12.413609233999978], [43.72118392000016, -12.41330816199985], [43.721270827000126, -12.412922067999943], [43.721226168999976, -12.412404584999877], [43.72100577300006, -12.411970850999978], [43.72091678600009, -12.411713077999934], [43.72073902500017, -12.411327278999977], [43.720429992000106, -12.411361524999904], [43.72003239300017, -12.411272781999912], [43.719678328999976, -12.411140946999922], [43.719457998000166, -12.410795720999886], [43.719279370000095, -12.410667044999968], [43.71839473200009, -12.410189490999926], [43.717906429000095, -12.410097369999846], [43.71750530400004, -12.410181470999873], [43.7174190770001, -12.409616941999957], [43.71742123200005, -12.409183865999921], [43.717290458000036, -12.408535980999886], [43.717024808000076, -12.408169996999959], [43.71658406400002, -12.407784445999937], [43.71586487100012, -12.407676384999888], [43.71550482200007, -12.407364333999908], [43.71537186300003, -12.406798545999834], [43.71573829300013, -12.406546487999947], [43.71592087100015, -12.406205498999952], [43.71623907300017, -12.405956060999927], [43.71609955500003, -12.405674613999906], [43.71577905800007, -12.405388831999971], [43.715643317000115, -12.404895919999888], [43.716094492000025, -12.404604012999869], [43.71618410200017, -12.404260269999952], [43.71600340500004, -12.403822058999936], [43.71577694200005, -12.403294486999812], [43.71532534199997, -12.402850944999955], [43.71487962300017, -12.402239781999924], [43.71487990100019, -12.402153754999915], [43.714834916000086, -12.401761877999832], [43.714607375000185, -12.401270383999929], [43.7145159750001, -12.400748250999982], [43.71496259600019, -12.400924756999927], [43.71550014800005, -12.40123630599993], [43.716035750000174, -12.401501560999975], [43.71639217300009, -12.401807589999976], [43.71666229200014, -12.40207793199994], [43.71697487500012, -12.402387414999964], [43.71719717600013, -12.402562778999936], [43.71746342500006, -12.40273724699989]]], [[[43.64394057900006, -12.397719441999925], [43.64426749400019, -12.397867422999923], [43.64457787000015, -12.397975615999883], [43.644833669000036, -12.398145928999952], [43.645168205000004, -12.398209410999982], [43.64522575500018, -12.398239638999883], [43.64551259500013, -12.398223171999973], [43.64569386500017, -12.398525657999926], [43.64570744000014, -12.39855507999988], [43.64606386500009, -12.39872330199995], [43.64624220000019, -12.398893193999982], [43.64649842900013, -12.399104167999951], [43.64692989100013, -12.399334353999961], [43.647158514000125, -12.399569743999905], [43.64717375600014, -12.39961392899994], [43.647310969000046, -12.399923293999962], [43.647295737000036, -12.39992329799992], [43.64705167000017, -12.400011769999878], [43.64700593800012, -12.400011778999954], [43.64679262000004, -12.400041264999913], [43.64677737900013, -12.400085433999948], [43.64662644300006, -12.400409291999893], [43.64656771699998, -12.400983703999941], [43.64641570700002, -12.401351582999894], [43.64612831600016, -12.401704601999882], [43.64577808600012, -12.401879777999909], [43.64544236200004, -12.402010043999951], [43.64517899100019, -12.402123471999971], [43.644937482000046, -12.402283885999964], [43.644562558000075, -12.402635754999949], [43.64439929700018, -12.402827977999948], [43.64438384300013, -12.402827565999814], [43.64412369200005, -12.402881012999956], [43.643944544000135, -12.403072106999957], [43.64376733500012, -12.403339506999885], [43.6435426220001, -12.40354546999987], [43.64323012000017, -12.403962453999895], [43.64279714100013, -12.404647634999947], [43.642464776000054, -12.404852323999933], [43.64210266400016, -12.40514485999995], [43.64199752000013, -12.405485636999913], [43.641831564000086, -12.40552803099996], [43.64157548800006, -12.40548360899993], [43.64154536000001, -12.405483687999947], [43.641153223000174, -12.405619127999955], [43.64107776900016, -12.405648865999922], [43.64079101700008, -12.405634912999915], [43.6406101660001, -12.405516605999878], [43.64065582900008, -12.405191628999944], [43.64045976400007, -12.404838464999841], [43.64022067800005, -12.404555622999965], [43.64006950300006, -12.404585776999966], [43.63990216400015, -12.404572935999965], [43.63970456900006, -12.404456664999941], [43.639583898000126, -12.40426504699991], [43.639358927000046, -12.404219805999901], [43.639343846000145, -12.404219802999876], [43.63921238800009, -12.404128721999825], [43.63912375600006, -12.404039533999878], [43.63889964900005, -12.40396525899996], [43.63859607500018, -12.404039948999923], [43.63855054000004, -12.404040116999965], [43.638263849000055, -12.40401094799995], [43.638194062000025, -12.403847242999973], [43.63825991600015, -12.403625365999915], [43.63841632900005, -12.403447919999962], [43.6384188670001, -12.403257294999946], [43.63831328300006, -12.403067403999955], [43.63801925300004, -12.402951260999941], [43.637861832000056, -12.402804992999961], [43.63785970700019, -12.40259935899985], [43.63787453600008, -12.40242300299991], [43.638271225000096, -12.402078537999898], [43.638442596000175, -12.401516022999829], [43.63875191000017, -12.401036632999933], [43.63909759400019, -12.4004350109999], [43.63944366300012, -12.400083490999975], [43.639501762000066, -12.399698479999813], [43.6394090390001, -12.39940017999993], [43.63943899300011, -12.399032097999907], [43.639545444000134, -12.398672905999945], [43.63969619900007, -12.398261529999957], [43.64005920900007, -12.397882138999876], [43.64031556300017, -12.397692873999972], [43.64086027600018, -12.397721015999878], [43.64126481500017, -12.397612832999926], [43.64162224100011, -12.397587042999817], [43.64211021800003, -12.397645200999932], [43.64238722700014, -12.397730116999924], [43.64270039900015, -12.397677707999947], [43.642864508000116, -12.397469326999953], [43.643114276000176, -12.397550539999884], [43.64347415800012, -12.3976847859999], [43.64394057900006, -12.397719441999925]]], [[[43.73699046900015, -12.382329714999969], [43.73712779400006, -12.38250071699997], [43.73740701100013, -12.38249402599996], [43.73757647200006, -12.382545122999943], [43.737735128, -12.382676907999894], [43.73786866500012, -12.382844817999967], [43.73806649900018, -12.382961902999966], [43.738247042000125, -12.383198509999886], [43.73840706700008, -12.383664672999942], [43.73854966099998, -12.383844610999972], [43.7386637300001, -12.384077407999882], [43.73878653500009, -12.384369000999925], [43.739065313000026, -12.384625771999936], [43.739256529000045, -12.384943888999885], [43.73936984400012, -12.3852671759999], [43.739651712000125, -12.38550468099993], [43.73994996500005, -12.38597224199998], [43.73998940700011, -12.38607378599994], [43.74007222900002, -12.386259670999948], [43.740141785000105, -12.386520996999934], [43.74012590700005, -12.386709462999875], [43.740190216000144, -12.386894796999854], [43.74029930500018, -12.387049789999878], [43.74043572400018, -12.387172883999938], [43.74065659800016, -12.387273403999927], [43.74070458100016, -12.387530938999816], [43.740842272000066, -12.387844574999917], [43.74104929500004, -12.388138888999947], [43.74139540599998, -12.388321445999964], [43.74152455900014, -12.3884809569999], [43.74177634800009, -12.388528690999863], [43.74192010000007, -12.38861352799995], [43.74196742099997, -12.38877622599989], [43.74205724800004, -12.388927667999894], [43.74225056100016, -12.389059366999959], [43.74238641200009, -12.389180846999977], [43.74261943900012, -12.389320936999866], [43.74247059000015, -12.389371498999935], [43.742305920000035, -12.389399597999954], [43.742036495000036, -12.389350306999972], [43.741822268000135, -12.38933174999994], [43.74159770800003, -12.389250662999927], [43.74141496700014, -12.38915720499989], [43.74114839100008, -12.388992544999951], [43.74091938400005, -12.388832955999874], [43.74073564800011, -12.388641992999908], [43.74055496300019, -12.388551548999885], [43.740407171000015, -12.3886032449999], [43.74025019400011, -12.388593030999857], [43.74005162200018, -12.388594816999898], [43.739814872000125, -12.38858720799982], [43.73971023500013, -12.38872573399982], [43.739516890000175, -12.388807253999971], [43.73933997700004, -12.389012050999952], [43.739208865000194, -12.38886713099987], [43.73897987100008, -12.388823904999924], [43.73878719300012, -12.388802368999961], [43.73867248400012, -12.388983659999951], [43.738484484000026, -12.389031358999887], [43.73819816400015, -12.389077361999966], [43.73799201500003, -12.388820258999829], [43.73776417200014, -12.38866405899995], [43.73743828500005, -12.38839448799996], [43.73739621000004, -12.388127643999894], [43.73742609200019, -12.387992978999932], [43.73724113200018, -12.388004337999973], [43.73700093700012, -12.387726869999938], [43.73672296900003, -12.387523563999935], [43.73648042100001, -12.38742512999994], [43.73634390300009, -12.387145625999892], [43.73589705600017, -12.386874838999972], [43.735587444000146, -12.386644929999875], [43.73530968900013, -12.3863857259999], [43.73529433300013, -12.386363592999942], [43.73497653200002, -12.386055325999848], [43.734876053000164, -12.385766537999928], [43.734813517000134, -12.38544668399993], [43.73491267300017, -12.38505921299992], [43.735145017000036, -12.384620413999869], [43.73522110900012, -12.384326344999977], [43.73529323400015, -12.384126402999925], [43.73546450499998, -12.383828708999829], [43.73556053400006, -12.383613189999949], [43.73566087900008, -12.383240903999933], [43.735859530000084, -12.38304661899997], [43.73573778600013, -12.382903014999954], [43.73552141300007, -12.38269971099993], [43.735464734999994, -12.382454128999939], [43.735365565000166, -12.38221976299991], [43.73521543400011, -12.38193682899987], [43.7350945550001, -12.381718474999843], [43.735000027000126, -12.381584348999922], [43.735086439000156, -12.381444029999955], [43.73519214600009, -12.381307196999899], [43.735262830000124, -12.381144546999963], [43.735412159000134, -12.3810935489999], [43.73558224700014, -12.381143748999875], [43.735771631000034, -12.381197432999898], [43.73602749600013, -12.381321588999867], [43.736179753000044, -12.381466017999912], [43.73632590700004, -12.381649496999898], [43.73643873200007, -12.381809386999976], [43.73665136900013, -12.381967800999973], [43.73686391800004, -12.382126342999925], [43.73699046900015, -12.382329714999969]]], [[[43.76140160000011, -12.377584468999828], [43.76145060900018, -12.377613608999923], [43.761476347000155, -12.377658634999932], [43.76146570900016, -12.377717108999946], [43.761520019000045, -12.3777538679999], [43.76157372900008, -12.377830699999947], [43.76166551200009, -12.377847661999908], [43.761722121000105, -12.377871638999977], [43.761827384000185, -12.37799847599996], [43.761838066000166, -12.37801384599993], [43.76184635100003, -12.37804214199997], [43.76185931000015, -12.378118043999905], [43.76196232700005, -12.378217310999958], [43.76199178200011, -12.37827612999996], [43.76206968000014, -12.3783626419999], [43.76210514400009, -12.378388628999915], [43.76217080300006, -12.378433059999963], [43.76224710900016, -12.37849265199992], [43.762268660000075, -12.378556269999933], [43.76232658400011, -12.378606077999962], [43.76238172900014, -12.378635465999935], [43.76245128900018, -12.378660682999964], [43.762536838000074, -12.378708636999932], [43.76260129600007, -12.378726365999967], [43.76266227900004, -12.378830038999922], [43.76275608899999, -12.378872738999917], [43.76280832900005, -12.37895457299993], [43.76273888200012, -12.378995390999933], [43.762718537000126, -12.379064454999877], [43.76273488500004, -12.379120095999951], [43.76275564500014, -12.379222633999916], [43.762765723000086, -12.379310027999963], [43.76280464000001, -12.379389382999932], [43.762766114000044, -12.379481015999886], [43.76283226300012, -12.379525856999976], [43.762880131000145, -12.379600449999941], [43.762821752000036, -12.37958317399989], [43.762761183000066, -12.379578670999877], [43.76276393100011, -12.379638438999962], [43.762774449999995, -12.379693131999943], [43.762927651000155, -12.379754577999961], [43.76296698500005, -12.379841457999873], [43.76304180800014, -12.379881829999931], [43.76311239300003, -12.379973942999982], [43.763157945000046, -12.380054898999958], [43.763111609000134, -12.380119158999946], [43.76303618200018, -12.380158290999873], [43.76292678700008, -12.380197821999957], [43.762866921000125, -12.380120941999905], [43.7628357160001, -12.380074484999966], [43.76283047600003, -12.380070626999895], [43.76279201700015, -12.380025453999906], [43.76274885800001, -12.380005663999953], [43.762703030000125, -12.380002864999824], [43.762653543000056, -12.380005188999917], [43.76261339400003, -12.38000930699991], [43.76255169800004, -12.379980393999915], [43.762491766000096, -12.379960552999876], [43.762426250000146, -12.379922425999894], [43.76236830900007, -12.379877226999895], [43.76232258800013, -12.379865928999948], [43.762289361000114, -12.379868371999976], [43.76225521100014, -12.37992797599992], [43.762222485999985, -12.379962047999982], [43.76221227300016, -12.380003271999954], [43.76220924100005, -12.380037264999828], [43.762182295000116, -12.380055200999891], [43.76216447100006, -12.38007198899993], [43.762129932000164, -12.38008267999993], [43.76207149400011, -12.380094450999934], [43.76200504700006, -12.380052692999925], [43.762002697000185, -12.38004936099992], [43.76195862500009, -12.38001817299994], [43.76191624200004, -12.379996322999887], [43.76187705300009, -12.380020975999969], [43.761837248999996, -12.380048490999968], [43.761829356000135, -12.380075949999934], [43.761814784000194, -12.38010807899991], [43.761789121000106, -12.38005730899988], [43.761747132000096, -12.380000882999923], [43.76171746500006, -12.37997261199996], [43.76168867500013, -12.380002074999936], [43.76167623500004, -12.380037406999918], [43.76164711700011, -12.380052522999847], [43.761632066000175, -12.380023836999953], [43.761615974999984, -12.380000775999918], [43.761606611000104, -12.37997315499996], [43.76157798800017, -12.37998540599989], [43.76152741500016, -12.379959239999948], [43.761504933000026, -12.379923741999846], [43.761502632000145, -12.379920470999934], [43.76147325400018, -12.379875173999892], [43.76144241200012, -12.379852581999899], [43.76141777600003, -12.379828193999913], [43.76140337099997, -12.379811619999884], [43.76144935400015, -12.379801781999959], [43.76150830600005, -12.379799901999888], [43.76157181000019, -12.379818997999962], [43.761610827000084, -12.379828287999942], [43.761629178000135, -12.379808253999954], [43.76161627400012, -12.379763535999928], [43.76156899900019, -12.379752603999975], [43.76148662100013, -12.379714441999852], [43.76144830700014, -12.37965616899993], [43.761410461000025, -12.379579737999961], [43.761428219000095, -12.379552365999928], [43.76139367500008, -12.379489312999965], [43.76139175500009, -12.37948298799995], [43.7613736560001, -12.3794468829999], [43.7614054120001, -12.37944330299996], [43.76144204400009, -12.379446563999977], [43.761437393000165, -12.379421770999954], [43.761426179000125, -12.379398831999936], [43.76146005800018, -12.379383657999938], [43.761481072000095, -12.379387286999872], [43.76149306900015, -12.379389358999958], [43.76153853700015, -12.37939421599998], [43.761548628000185, -12.379357014999925], [43.761523876000126, -12.379340717999924], [43.76147511500005, -12.37932018299989], [43.76144376800005, -12.379305647999956], [43.76139934700018, -12.37929429899998], [43.761366176000195, -12.379288844999962], [43.761333791000084, -12.379262462999918], [43.761309339000036, -12.379210265999973], [43.76128387200015, -12.379179102999956], [43.76127093600013, -12.379147086999978], [43.76126107900012, -12.379115469999931], [43.761240199000156, -12.379091254999878], [43.76122719000006, -12.379059075999976], [43.76120708000019, -12.379046990999939], [43.76121217400009, -12.379020482999977], [43.76122972500019, -12.37899588199997], [43.761234811000065, -12.378969405999953], [43.76126163700019, -12.37894631499995], [43.76129479100007, -12.378939436999929], [43.76133169100012, -12.378942738999967], [43.76132069199997, -12.378901607999921], [43.761293697000156, -12.378878832999874], [43.76127408200006, -12.378848430999938], [43.76129037100009, -12.378811925999969], [43.76129668100003, -12.378776876999893], [43.761278616000084, -12.378719456999931], [43.76128937200008, -12.378660759999889], [43.761297827000135, -12.378613757999972], [43.761298607000015, -12.378574425999943], [43.76129873600013, -12.378556210999932], [43.76128566900019, -12.37852344199996], [43.76128849500009, -12.378490428999896], [43.761284017000094, -12.378462161999948], [43.76130570599997, -12.378429444999938], [43.76133976300008, -12.378414213999918], [43.76136115700007, -12.378399742999875], [43.76138271600013, -12.378366923999977], [43.76137285200002, -12.378334486999961], [43.7613540860001, -12.378334141999972], [43.76132658600011, -12.378347540999926], [43.76129101600003, -12.378353337999954], [43.76126332800004, -12.378363494999974], [43.76123298300013, -12.3783701239999], [43.76120275400018, -12.378339893999964], [43.76122280600009, -12.378319031999922], [43.76125386800015, -12.378291056999956], [43.761266517000024, -12.378275003999931], [43.76128078500017, -12.37825004099983], [43.761296950000144, -12.378231551999875], [43.76131192300005, -12.378200399999969], [43.76131921800004, -12.378177062999896], [43.7613295590001, -12.378154257999881], [43.76129135700012, -12.37815652899991], [43.76126265400018, -12.378172587999927], [43.761244556000065, -12.378199887999926], [43.761219665000056, -12.378229019999935], [43.76120640200014, -12.37824808399995], [43.76118838800005, -12.378207771999882], [43.76117375900003, -12.378183473999911], [43.76115760599998, -12.378149576999931], [43.76114100300015, -12.378134009999826], [43.76112064300003, -12.378139435999913], [43.76108411900003, -12.378126261999967], [43.76106007200008, -12.378115454999886], [43.761036553, -12.378082933999963], [43.7610560060001, -12.37806485799996], [43.761089026000036, -12.378061873999968], [43.7611021730001, -12.378042606999884], [43.761130992999995, -12.378026384999885], [43.761116921999985, -12.378014299999961], [43.76113534400014, -12.377983583999878], [43.761145894000094, -12.37796068299997], [43.76115958100007, -12.377938392999965], [43.76116906400006, -12.377921520999905], [43.761148809000076, -12.377889355999912], [43.76113893200005, -12.37787173099997], [43.76114330000007, -12.377828705999946], [43.76115387900012, -12.377805721999948], [43.76116078299998, -12.377785129999893], [43.76118591300013, -12.377680108999925], [43.761225857000056, -12.377656823999928], [43.761252016000185, -12.377655932999971], [43.761255924000125, -12.377615762999937], [43.761283271000025, -12.377589921999913], [43.76132032700008, -12.377596934999872], [43.76140160000011, -12.377584468999828]]], [[[43.72956345100005, -12.400985467999874], [43.729616197000155, -12.401024389999918], [43.72967429300019, -12.40097603899983], [43.7297131680001, -12.400924153999881], [43.7298481520001, -12.400889299999847], [43.729976559000136, -12.400892541999951], [43.730102794000175, -12.400964221999914], [43.73017398000002, -12.401065234999919], [43.730283047000114, -12.401172322999969], [43.73034855800012, -12.401301129999979], [43.73043252300005, -12.401384509999957], [43.73058185700012, -12.401489056999822], [43.73062296400008, -12.401642913999922], [43.730685894000146, -12.40173224299997], [43.7307103550001, -12.40181465399985], [43.730759988000045, -12.401920874999917], [43.73070052900016, -12.402027006999901], [43.73055950100007, -12.402040684999974], [43.73057151000006, -12.402188416999934], [43.73054691300007, -12.402319740999872], [43.73058315700007, -12.402442626999914], [43.730617648000134, -12.40257490599987], [43.73069745000004, -12.402676730999929], [43.73066751600004, -12.402835987999879], [43.73072087999998, -12.40297215399994], [43.73074664100011, -12.40304509799995], [43.73078201300018, -12.40311991099992], [43.73081574600019, -12.403204011999946], [43.73080331200009, -12.403269753999894], [43.730760280000084, -12.403339590999963], [43.730687722000084, -12.403355413999975], [43.730551757000114, -12.403339848999906], [43.73046579000004, -12.40332357799997], [43.73040081000016, -12.403301539999859], [43.730355939000106, -12.403225241999962], [43.73029365100007, -12.40313619899996], [43.73026744400016, -12.403014824999957], [43.7302370380001, -12.402863752999963], [43.73016728500011, -12.40281255699989], [43.73008357700013, -12.402729819999877], [43.7300086190001, -12.40260023399992], [43.730003044000114, -12.40247329499988], [43.72991275300018, -12.40242789499996], [43.72993418800007, -12.402315571999907], [43.729879765000135, -12.40223797599998], [43.729920316000175, -12.40207100899994], [43.72993115500009, -12.40195659099993], [43.72979021800006, -12.401815071999977], [43.72972977700016, -12.401717087999941], [43.729623526000125, -12.401697683999942], [43.72949952500011, -12.401617064999925], [43.729470787000025, -12.401563669999973], [43.72938296600012, -12.401509385999816], [43.72932910600014, -12.401421883999944], [43.72923016500005, -12.401365084999952], [43.729189107000025, -12.401260298999887], [43.72909845000004, -12.40121484899987], [43.72899751700015, -12.401167278999935], [43.728895604000115, -12.40105006399989], [43.72883117400016, -12.401008272999832], [43.72878334800009, -12.40094096699994], [43.72872575000014, -12.40087181299998], [43.728669632000106, -12.400793029999875], [43.72864737900011, -12.400690890999954], [43.72862339600016, -12.400598116999902], [43.7286698800001, -12.40050885099987], [43.728687468000146, -12.40041437699989], [43.72873444500004, -12.400325472999896], [43.72881731400008, -12.400311395999893], [43.72895215200003, -12.400405809999882], [43.72901039800007, -12.400475781999887], [43.72905815500019, -12.400543232999894], [43.72908651600011, -12.400607070999854], [43.729143700000066, -12.400676057999874], [43.72923441000012, -12.400721455999815], [43.72931379100004, -12.40077458199994], [43.729380310000124, -12.400845058999892], [43.72946455800013, -12.400928631999875], [43.72956345100005, -12.400985467999874]]]]}}]}