{"type": "FeatureCollection", "features": [{"type": "Feature", "properties": {"country": "Comoros", "pcode": "KM271", "name": "Bambao Ya Hari", "island": "Grande Comore (Ngazidja)"}, "geometry": {"type": "Polygon", "coordinates": [[[43.249331000000154, -11.728444999999965], [43.2568060000001, -11.73161099999993], [43.256417000000056, -11.734360999999979], [43.25930400000004, -11.738147999999967], [43.26294800000011, -11.742770999999948], [43.26465900000011, -11.74471799999992], [43.26865800000019, -11.746663999999896], [43.27323100000001, -11.747773999999936], [43.2808060000001, -11.74874199999988], [43.35483000000016, -11.757118999999875], [43.35509900000005, -11.757356999999956], [43.35548900000015, -11.757736999999963], [43.35609900000003, -11.75811699999997], [43.35639100000003, -11.758306999999945], [43.3566350000001, -11.758686999999952], [43.3569030000001, -11.759114999999838], [43.35729300000003, -11.759518999999955], [43.357756000000165, -11.759922999999901], [43.35795000000002, -11.760326999999904], [43.357803000000104, -11.76065999999986], [43.35753300000016, -11.76104099999992], [43.357655000000136, -11.761301999999944], [43.35814300000004, -11.761562999999967], [43.358484000000146, -11.762061999999958], [43.35884900000019, -11.762537999999893], [43.358995000000164, -11.762846999999965], [43.358995000000164, -11.763107999999818], [43.35870100000017, -11.763488999999879], [43.35838200000006, -11.763892999999939], [43.35816100000011, -11.76429799999994], [43.35786800000017, -11.764487999999972], [43.35742800000003, -11.764606999999955], [43.35720800000013, -11.764630999999952], [43.3567680000001, -11.764630999999952], [43.35659700000019, -11.764726999999937], [43.35649800000016, -11.76515499999988], [43.35649700000005, -11.765748999999914], [43.35639800000007, -11.766152999999974], [43.35632300000009, -11.766937999999982], [43.356396000000075, -11.767293999999936], [43.35651700000011, -11.767721999999935], [43.35661400000015, -11.768078999999886], [43.356833000000165, -11.768553999999938], [43.35700300000019, -11.768957999999941], [43.29047100000008, -11.797104999999874], [43.27980600000012, -11.80058299999996], [43.27683300000018, -11.803499999999929], [43.26392300000009, -11.80096599999996], [43.263843000000065, -11.800461999999982], [43.26369199999999, -11.800175999999965], [43.263540000000035, -11.799938999999881], [43.26321600000006, -11.799612999999908], [43.26292200000006, -11.799404999999922], [43.26268900000014, -11.799158999999918], [43.262445000000014, -11.798930999999982], [43.26232400000015, -11.798782999999958], [43.262700000000166, -11.798594999999978], [43.26269000000008, -11.798397999999906], [43.26265000000012, -11.798268999999891], [43.262304000000086, -11.798377999999957], [43.26222400000006, -11.797873999999979], [43.26206300000007, -11.797399999999925], [43.26164799999998, -11.796757999999954], [43.261344000000065, -11.796293999999932], [43.257750000000044, -11.786277999999868], [43.26091700000006, -11.779805999999951], [43.260780000000125, -11.772067999999877], [43.26052800000008, -11.77031999999997], [43.25912200000005, -11.76769899999988], [43.255403, -11.763349999999946], [43.252062000000194, -11.759859999999946], [43.24885200000011, -11.756136999999967], [43.24760400000008, -11.755096999999921], [43.24696500000016, -11.753972999999974], [43.24556700000011, -11.740668999999855], [43.24627100000009, -11.727829999999813], [43.249331000000154, -11.728444999999965]]]}}]}