{"type": "FeatureCollection", "features": [{"type": "Feature", "properties": {"country": "Comoros", "pcode": "KM115", "name": "Ngandzal\u00e9", "island": "Anjouan (Ndzouani)"}, "geometry": {"type": "Polygon", "coordinates": [[[44.4854620000001, -12.243772999999976], [44.49001500000003, -12.24759599999993], [44.49517800000018, -12.253996999999913], [44.504567000000065, -12.259544999999946], [44.51575100000014, -12.265287999999941], [44.519478000000106, -12.266757999999982], [44.52058100000011, -12.268061999999873], [44.52119399999998, -12.269999999999925], [44.52019400000006, -12.270749999999964], [44.51961100000011, -12.272221999999942], [44.52015900000015, -12.27501999999987], [44.51556600000009, -12.279266999999834], [44.51200900000015, -12.28183299999995], [44.50863600000014, -12.28459799999996], [44.5065790000001, -12.28588099999996], [44.5035840000001, -12.287854999999865], [44.501153000000045, -12.289334999999937], [44.49062900000001, -12.289416999999958], [44.48654099999999, -12.288123999999982], [44.481057000000135, -12.286729999999864], [44.47603900000007, -12.285237999999936], [44.46990500000004, -12.283545999999944], [44.464516, -12.281854999999894], [44.46062200000006, -12.279474999999877], [44.457525000000146, -12.277804999999944], [44.45775400000008, -12.276798999999926], [44.458544000000074, -12.270567999999855], [44.45904600000006, -12.265423999999939], [44.45834000000008, -12.2600809999999], [44.45735500000012, -12.254538999999909], [44.45646100000005, -12.249392999999941], [44.45565200000004, -12.245334999999898], [44.45383100000004, -12.239495999999974], [44.452736000000186, -12.236426999999935], [44.45210200000014, -12.233853999999951], [44.45192700000007, -12.232368999999835], [44.45600500000012, -12.23151299999995], [44.45853400000016, -12.229513999999938], [44.46000000000009, -12.230610999999953], [44.46334200000007, -12.235245999999847], [44.464039000000184, -12.238299999999924], [44.46457000000004, -12.239349999999945], [44.46707400000008, -12.240880999999888], [44.46967000000012, -12.24202999999983], [44.4730790000001, -12.242416999999875], [44.47522400000014, -12.243946999999878], [44.4854620000001, -12.243772999999976]]]}}]}